{"type":"FeatureCollection","features":[{"type":"Feature","id":"AIGUA_EIXOS_DRENATGE_ASDT.22","geometry":{"type":"MultiLineString","coordinates":[[[367030.0001,4673465.0001],[367025.0001,4673470.0001],[367020.0001,4673475.0001],[367015.0001,4673480.0001],[367010.0001,4673485.0001],[367005.0001,4673490.0001],[367000.0001,4673495.0001],[366995.0001,4673500.0001],[366990.0001,4673505.0001],[366985.0001,4673510.0001],[366980.0001,4673515.0001],[366975.0001,4673520.0001],[366970.0001,4673525.0001],[366965.0001,4673530.0001],[366960.0001,4673535.0001],[366955.0001,4673540.0001],[366950.0001,4673540.0001],[366945.0001,4673540.0001],[366940.0001,4673540.0001],[366935.0001,4673545.0001],[366930.0001,4673545.0001],[366925.0001,4673545.0001],[366920.0001,4673545.0001],[366915.0001,4673545.0001],[366910.0001,4673545.0001],[366905.0001,4673545.0001],[366900.0001,4673545.0001],[366895.0001,4673545.0001],[366890.0001,4673545.0001],[366885.0001,4673545.0001],[366880.0001,4673545.0001],[366875.0001,4673550.0001],[366870.0001,4673555.0001],[366865.0001,4673560.0001],[366860.0001,4673565.0001],[366855.0001,4673570.0001],[366850.0001,4673575.0001],[366845.0001,4673580.0001],[366840.0001,4673580.0001],[366835.0001,4673585.0001],[366830.0001,4673590.0001],[366825.0001,4673595.0001],[366820.0001,4673600.0001],[366815.0001,4673605.0001],[366810.0001,4673610.0001],[366805.0001,4673615.0001],[366800.0001,4673620.0001],[366795.0001,4673625.0001],[366790.0001,4673630.0001],[366785.0001,4673635.0001],[366780.0001,4673640.0001],[366775.0001,4673640.0001],[366770.0001,4673645.0001],[366765.0001,4673645.0001],[366760.0001,4673645.0001],[366755.0001,4673645.0001],[366750.0001,4673645.0001],[366745.0001,4673645.0001],[366740.0001,4673645.0001],[366735.0001,4673645.0001],[366730.0001,4673645.0001],[366725.0001,4673645.0001],[366720.0001,4673645.0001],[366715.0001,4673645.0001],[366710.0001,4673645.0001],[366705.0001,4673650.0001],[366700.0001,4673650.0001],[366695.0001,4673650.0001],[366690.0001,4673650.0001],[366685.0001,4673655.0001],[366680.0001,4673655.0001],[366675.0001,4673655.0001],[366670.0001,4673655.0001],[366665.0001,4673655.0001],[366660.0001,4673655.0001],[366655.0001,4673660.0001],[366650.0001,4673660.0001],[366645.0001,4673660.0001],[366640.0001,4673660.0001],[366635.0001,4673660.0001],[366630.0001,4673665.0001],[366625.0001,4673665.0001],[366620.0001,4673670.0001],[366615.0001,4673670.0001],[366610.0001,4673675.0001],[366605.0001,4673680.0001],[366600.0001,4673685.0001],[366595.0001,4673690.0001],[366590.0001,4673695.0001],[366585.0001,4673700.0001],[366580.0001,4673705.0001],[366575.0001,4673710.0001],[366570.0001,4673715.0001],[366565.0001,4673720.0001],[366560.0001,4673725.0001],[366555.0001,4673730.0001],[366550.0001,4673735.0001],[366545.0001,4673740.0001],[366540.0001,4673745.0001],[366535.0001,4673750.0001],[366530.0001,4673750.0001],[366525.0001,4673750.0001],[366520.0001,4673750.0001],[366520.0001,4673745.0001],[366515.0001,4673740.0001],[366510.0001,4673735.0001],[366505.0001,4673735.0001],[366500.0001,4673735.0001],[366495.0001,4673735.0001],[366490.0001,4673735.0001],[366485.0001,4673735.0001],[366480.0001,4673735.0001],[366475.0001,4673735.0001],[366470.0001,4673735.0001],[366465.0001,4673735.0001],[366460.0001,4673735.0001],[366455.0001,4673735.0001],[366450.0001,4673735.0001],[366445.0001,4673735.0001],[366440.0001,4673735.0001],[366435.0001,4673735.0001],[366430.0001,4673735.0001],[366425.0001,4673735.0001],[366420.0001,4673735.0001],[366415.0001,4673735.0001],[366410.0001,4673735.0001],[366405.0001,4673735.0001],[366400.0001,4673735.0001],[366395.0001,4673735.0001],[366390.0001,4673735.0001],[366385.0001,4673740.0001],[366380.0001,4673740.0001],[366375.0001,4673740.0001],[366370.0001,4673740.0001],[366365.0001,4673740.0001],[366360.0001,4673740.0001],[366355.0001,4673740.0001],[366350.0001,4673740.0001],[366345.0001,4673740.0001],[366340.0001,4673740.0001],[366335.0001,4673740.0001],[366330.0001,4673740.0001],[366325.0001,4673735.0001],[366320.0001,4673735.0001],[366315.0001,4673735.0001],[366310.0001,4673730.0001],[366305.0001,4673730.0001],[366300.0001,4673730.0001],[366295.0001,4673730.0001],[366290.0001,4673725.0001],[366285.0001,4673725.0001],[366280.0001,4673725.0001],[366275.0001,4673725.0001],[366270.0001,4673725.0001],[366265.0001,4673720.0001],[366260.0001,4673720.0001],[366255.0001,4673715.0001],[366250.0001,4673715.0001],[366245.0001,4673710.0001],[366240.0001,4673710.0001],[366235.0001,4673705.0001],[366230.0001,4673700.0001],[366225.0001,4673700.0001],[366220.0001,4673695.0001],[366215.0001,4673690.0001],[366210.0001,4673685.0001],[366205.0001,4673685.0001],[366200.0001,4673680.0001],[366195.0001,4673680.0001],[366190.0001,4673680.0001],[366185.0001,4673675.0001],[366180.0001,4673675.0001],[366175.0001,4673670.0001],[366170.0001,4673670.0001],[366165.0001,4673670.0001],[366160.0001,4673665.0001],[366155.0001,4673665.0001],[366150.0001,4673660.0001],[366145.0001,4673660.0001],[366140.0001,4673655.0001],[366135.0001,4673655.0001],[366130.0001,4673650.0001],[366125.0001,4673650.0001],[366120.0001,4673645.0001],[366115.0001,4673645.0001],[366110.0001,4673640.0001],[366105.0001,4673640.0001],[366100.0001,4673635.0001],[366095.0001,4673635.0001],[366090.0001,4673630.0001],[366085.0001,4673625.0001],[366080.0001,4673620.0001],[366075.0001,4673615.0001],[366070.0001,4673615.0001],[366065.0001,4673615.0001],[366060.0001,4673615.0001],[366055.0001,4673615.0001],[366050.0001,4673615.0001],[366045.0001,4673615.0001],[366040.0001,4673615.0001],[366035.0001,4673615.0001],[366030.0001,4673615.0001],[366025.0001,4673615.0001],[366020.0001,4673615.0001],[366015.0001,4673620.0001],[366010.0001,4673620.0001],[366005.0001,4673625.0001],[366000.0001,4673630.0001],[365995.0001,4673630.0001],[365990.0001,4673635.0001],[365985.0001,4673635.0001],[365980.0001,4673640.0001],[365975.0001,4673645.0001],[365970.0001,4673645.0001],[365965.0001,4673650.0001],[365960.0001,4673655.0001],[365955.0001,4673660.0001],[365950.0001,4673665.0001],[365945.0001,4673670.0001],[365940.0001,4673670.0001],[365935.0001,4673675.0001],[365930.0001,4673680.0001],[365925.0001,4673680.0001],[365920.0001,4673680.0001],[365915.0001,4673685.0001],[365910.0001,4673690.0001],[365905.0001,4673690.0001],[365900.0001,4673695.0001],[365895.0001,4673695.0001],[365890.0001,4673695.0001],[365885.0001,4673700.0001],[365880.0001,4673700.0001],[365875.0001,4673700.0001],[365870.0001,4673700.0001],[365865.0001,4673700.0001],[365860.0001,4673700.0001],[365855.0001,4673700.0001],[365850.0001,4673695.0001],[365845.0001,4673695.0001],[365840.0001,4673695.0001],[365835.0001,4673695.0001],[365830.0001,4673690.0001],[365825.0001,4673690.0001],[365820.0001,4673690.0001],[365815.0001,4673690.0001],[365810.0001,4673690.0001],[365805.0001,4673690.0001],[365800.0001,4673690.0001],[365795.0001,4673690.0001],[365790.0001,4673690.0001],[365785.0001,4673690.0001],[365780.0001,4673685.0001],[365775.0001,4673685.0001],[365770.0001,4673685.0001],[365765.0001,4673680.0001],[365760.0001,4673680.0001],[365755.0001,4673675.0001],[365750.0001,4673675.0001],[365745.0001,4673675.0001],[365740.0001,4673670.0001],[365735.0001,4673670.0001],[365730.0001,4673670.0001],[365725.0001,4673675.0001],[365720.0001,4673675.0001],[365715.0001,4673675.0001],[365710.0001,4673680.0001],[365705.0001,4673680.0001],[365700.0001,4673675.0001],[365695.0001,4673675.0001],[365690.0001,4673675.0001],[365685.0001,4673670.0001],[365680.0001,4673670.0001],[365675.0001,4673665.0001],[365670.0001,4673665.0001],[365665.0001,4673660.0001],[365660.0001,4673655.0001],[365655.0001,4673655.0001],[365650.0001,4673650.0001],[365645.0001,4673645.0001],[365640.0001,4673640.0001],[365635.0001,4673640.0001],[365630.0001,4673635.0001],[365625.0001,4673635.0001],[365620.0001,4673630.0001],[365615.0001,4673630.0001],[365610.0001,4673630.0001],[365605.0001,4673630.0001],[365600.0001,4673635.0001],[365600.0001,4673640.0001],[365600.0001,4673645.0001],[365600.0001,4673650.0001],[365600.0001,4673655.0001],[365595.0001,4673660.0001],[365595.0001,4673665.0001],[365590.0001,4673670.0001],[365590.0001,4673675.0001],[365585.0001,4673680.0001],[365580.0001,4673680.0001],[365575.0001,4673685.0001],[365570.0001,4673690.0001],[365565.0001,4673690.0001],[365560.0001,4673695.0001],[365555.0001,4673695.0001],[365550.0001,4673700.0001],[365545.0001,4673700.0001],[365540.0001,4673700.0001],[365535.0001,4673700.0001],[365530.0001,4673700.0001],[365525.0001,4673705.0001],[365520.0001,4673710.0001],[365515.0001,4673710.0001],[365510.0001,4673715.0001],[365505.0001,4673720.0001],[365505.0001,4673725.0001],[365500.0001,4673730.0001],[365495.0001,4673735.0001],[365490.0001,4673740.0001],[365490.0001,4673745.0001],[365485.0001,4673750.0001],[365480.0001,4673755.0001],[365475.0001,4673755.0001],[365470.0001,4673755.0001],[365465.0001,4673760.0001],[365460.0001,4673760.0001],[365455.0001,4673760.0001],[365450.0001,4673765.0001],[365445.0001,4673765.0001],[365440.0001,4673765.0001],[365435.0001,4673765.0001],[365430.0001,4673770.0001],[365425.0001,4673770.0001],[365420.0001,4673770.0001],[365415.0001,4673770.0001],[365410.0001,4673770.0001],[365405.0001,4673770.0001],[365400.0001,4673770.0001],[365395.0001,4673770.0001],[365390.0001,4673775.0001],[365385.0001,4673770.0001],[365380.0001,4673770.0001],[365375.0001,4673770.0001],[365370.0001,4673770.0001],[365365.0001,4673770.0001],[365360.0001,4673770.0001],[365355.0001,4673770.0001],[365350.0001,4673770.0001],[365345.0001,4673770.0001],[365340.0001,4673770.0001],[365335.0001,4673770.0001],[365330.0001,4673765.0001],[365325.0001,4673760.0001],[365320.0001,4673760.0001],[365315.0001,4673760.0001],[365310.0001,4673760.0001],[365305.0001,4673760.0001],[365300.0001,4673760.0001],[365295.0001,4673760.0001],[365290.0001,4673755.0001],[365285.0001,4673755.0001],[365280.0001,4673750.0001],[365275.0001,4673745.0001],[365270.0001,4673745.0001],[365265.0001,4673740.0001],[365260.0001,4673735.0001],[365255.0001,4673730.0001],[365250.0001,4673730.0001],[365245.0001,4673725.0001],[365240.0001,4673720.0001],[365235.0001,4673720.0001],[365230.0001,4673715.0001],[365225.0001,4673715.0001],[365220.0001,4673710.0001],[365215.0001,4673710.0001],[365210.0001,4673705.0001],[365205.0001,4673705.0001],[365200.0001,4673705.0001],[365195.0001,4673700.0001],[365190.0001,4673700.0001],[365185.0001,4673700.0001],[365180.0001,4673700.0001],[365175.0001,4673705.0001],[365170.0001,4673705.0001],[365165.0001,4673710.0001],[365160.0001,4673710.0001],[365155.0001,4673710.0001],[365150.0001,4673710.0001],[365145.0001,4673710.0001],[365140.0001,4673710.0001],[365135.0001,4673710.0001],[365130.0001,4673710.0001],[365125.0001,4673710.0001],[365120.0001,4673710.0001],[365115.0001,4673710.0001],[365110.0001,4673710.0001],[365105.0001,4673705.0001],[365100.0001,4673700.0001],[365095.0001,4673695.0001],[365095.0001,4673690.0001],[365090.0001,4673685.0001],[365085.0001,4673685.0001],[365080.0001,4673680.0001],[365075.0001,4673680.0001],[365070.0001,4673675.0001],[365065.0001,4673675.0001],[365060.0001,4673670.0001],[365055.0001,4673665.0001],[365050.0001,4673660.0001],[365045.0001,4673655.0001],[365040.0001,4673650.0001],[365035.0001,4673645.0001],[365030.0001,4673640.0001],[365025.0001,4673640.0001],[365020.0001,4673635.0001],[365015.0001,4673630.0001],[365010.0001,4673630.0001],[365005.0001,4673625.0001],[365000.0001,4673625.0001],[364995.0001,4673625.0001],[364990.0001,4673625.0001],[364985.0001,4673625.0001],[364980.0001,4673625.0001],[364975.0001,4673625.0001],[364970.0001,4673625.0001],[364965.0001,4673625.0001],[364960.0001,4673620.0001],[364955.0001,4673620.0001],[364950.0001,4673620.0001],[364945.0001,4673620.0001],[364940.0001,4673620.0001],[364935.0001,4673615.0001],[364930.0001,4673615.0001],[364925.0001,4673610.0001],[364920.0001,4673610.0001],[364915.0001,4673605.0001],[364910.0001,4673605.0001],[364905.0001,4673600.0001],[364900.0001,4673600.0001],[364895.0001,4673595.0001],[364890.0001,4673595.0001],[364885.0001,4673595.0001],[364880.0001,4673595.0001],[364875.0001,4673595.0001],[364870.0001,4673600.0001],[364865.0001,4673600.0001],[364860.0001,4673605.0001],[364855.0001,4673610.0001],[364850.0001,4673615.0001],[364845.0001,4673620.0001],[364840.0001,4673625.0001],[364835.0001,4673630.0001],[364830.0001,4673630.0001],[364825.0001,4673625.0001],[364820.0001,4673620.0001],[364820.0001,4673615.0001],[364820.0001,4673610.0001],[364815.0001,4673605.0001],[364810.0001,4673605.0001],[364805.0001,4673605.0001],[364800.0001,4673600.0001],[364795.0001,4673600.0001],[364790.0001,4673600.0001],[364785.0001,4673600.0001],[364780.0001,4673600.0001],[364775.0001,4673600.0001],[364770.0001,4673595.0001],[364765.0001,4673595.0001],[364760.0001,4673590.0001],[364755.0001,4673585.0001],[364750.0001,4673580.0001],[364745.0001,4673575.0001],[364740.0001,4673570.0001],[364735.0001,4673570.0001],[364730.0001,4673565.0001],[364725.0001,4673565.0001],[364720.0001,4673560.0001],[364715.0001,4673560.0001],[364710.0001,4673560.0001],[364705.0001,4673555.0001],[364700.0001,4673555.0001],[364695.0001,4673550.0001],[364690.0001,4673550.0001],[364685.0001,4673550.0001],[364680.0001,4673545.0001],[364675.0001,4673545.0001],[364670.0001,4673540.0001],[364665.0001,4673540.0001],[364660.0001,4673535.0001],[364655.0001,4673535.0001],[364650.0001,4673535.0001],[364645.0001,4673530.0001],[364640.0001,4673530.0001],[364635.0001,4673530.0001],[364630.0001,4673530.0001],[364625.0001,4673530.0001],[364620.0001,4673525.0001],[364615.0001,4673525.0001],[364610.0001,4673525.0001],[364605.0001,4673525.0001],[364600.0001,4673525.0001],[364595.0001,4673520.0001],[364590.0001,4673520.0001],[364585.0001,4673520.0001],[364580.0001,4673515.0001],[364575.0001,4673510.0001],[364570.0001,4673505.0001],[364565.0001,4673505.0001],[364560.0001,4673500.0001],[364555.0001,4673495.0001],[364550.0001,4673495.0001],[364545.0001,4673490.0001],[364540.0001,4673490.0001],[364535.0001,4673485.0001],[364530.0001,4673485.0001],[364525.0001,4673485.0001],[364520.0001,4673485.0001],[364515.0001,4673485.0001],[364510.0001,4673485.0001],[364505.0001,4673485.0001],[364500.0001,4673480.0001],[364495.0001,4673480.0001],[364490.0001,4673480.0001],[364485.0001,4673480.0001],[364480.0001,4673480.0001],[364475.0001,4673480.0001],[364470.0001,4673480.0001],[364465.0001,4673480.0001],[364460.0001,4673480.0001],[364455.0001,4673480.0001],[364450.0001,4673475.0001],[364445.0001,4673475.0001],[364440.0001,4673470.0001],[364435.0001,4673465.0001],[364430.0001,4673465.0001],[364425.0001,4673465.0001],[364420.0001,4673465.0001],[364415.0001,4673460.0001],[364410.0001,4673460.0001],[364405.0001,4673460.0001],[364400.0001,4673460.0001],[364395.0001,4673455.0001],[364390.0001,4673450.0001],[364385.0001,4673450.0001],[364380.0001,4673445.0001],[364375.0001,4673445.0001],[364370.0001,4673445.0001],[364365.0001,4673440.0001],[364360.0001,4673440.0001],[364355.0001,4673440.0001],[364350.0001,4673440.0001],[364345.0001,4673440.0001],[364340.0001,4673445.0001],[364335.0001,4673445.0001],[364330.0001,4673445.0001],[364325.0001,4673445.0001],[364320.0001,4673450.0001],[364315.0001,4673450.0001],[364310.0001,4673450.0001],[364305.0001,4673450.0001],[364300.0001,4673455.0001],[364295.0001,4673455.0001],[364290.0001,4673455.0001],[364285.0001,4673460.0001],[364280.0001,4673465.0001],[364275.0001,4673470.0001],[364270.0001,4673475.0001],[364265.0001,4673480.0001],[364260.0001,4673480.0001],[364255.0001,4673485.0001],[364250.0001,4673485.0001],[364245.0001,4673485.0001],[364240.0001,4673490.0001],[364235.0001,4673490.0001],[364230.0001,4673485.0001],[364225.0001,4673485.0001],[364220.0001,4673485.0001],[364215.0001,4673480.0001],[364210.0001,4673480.0001],[364205.0001,4673480.0001],[364200.0001,4673480.0001],[364195.0001,4673480.0001],[364190.0001,4673480.0001],[364185.0001,4673485.0001],[364180.0001,4673490.0001],[364175.0001,4673490.0001],[364170.0001,4673495.0001],[364165.0001,4673495.0001],[364160.0001,4673500.0001],[364155.0001,4673500.0001],[364150.0001,4673500.0001],[364145.0001,4673500.0001],[364140.0001,4673500.0001],[364135.0001,4673500.0001],[364130.0001,4673500.0001],[364125.0001,4673500.0001],[364120.0001,4673500.0001],[364115.0001,4673500.0001],[364110.0001,4673505.0001],[364105.0001,4673505.0001],[364100.0001,4673505.0001],[364095.0001,4673505.0001],[364090.0001,4673505.0001],[364085.0001,4673505.0001],[364080.0001,4673505.0001],[364075.0001,4673505.0001],[364070.0001,4673500.0001],[364065.0001,4673500.0001],[364060.0001,4673500.0001],[364055.0001,4673500.0001],[364050.0001,4673500.0001],[364045.0001,4673500.0001],[364040.0001,4673500.0001],[364035.0001,4673500.0001],[364030.0001,4673500.0001],[364025.0001,4673500.0001],[364020.0001,4673500.0001],[364015.0001,4673500.0001],[364010.0001,4673495.0001],[364005.0001,4673495.0001],[364000.0001,4673495.0001],[363995.0001,4673495.0001],[363990.0001,4673500.0001],[363985.0001,4673500.0001],[363980.0001,4673505.0001],[363975.0001,4673505.0001],[363970.0001,4673510.0001],[363965.0001,4673515.0001],[363960.0001,4673515.0001],[363955.0001,4673520.0001],[363950.0001,4673525.0001],[363945.0001,4673530.0001],[363940.0001,4673535.0001],[363935.0001,4673540.0001],[363935.0001,4673545.0001],[363930.0001,4673550.0001],[363930.0001,4673555.0001],[363930.0001,4673560.0001],[363930.0001,4673565.0001],[363930.0001,4673570.0001],[363930.0001,4673575.0001],[363925.0001,4673580.0001],[363925.0001,4673585.0001],[363920.0001,4673590.0001],[363915.0001,4673595.0001],[363910.0001,4673600.0001],[363905.0001,4673600.0001],[363900.0001,4673600.0001],[363895.0001,4673605.0001],[363890.0001,4673605.0001],[363885.0001,4673605.0001],[363880.0001,4673605.0001],[363875.0001,4673605.0001],[363870.0001,4673605.0001],[363865.0001,4673605.0001],[363860.0001,4673605.0001],[363855.0001,4673605.0001],[363850.0001,4673605.0001],[363845.0001,4673605.0001],[363840.0001,4673600.0001],[363835.0001,4673595.0001],[363830.0001,4673595.0001],[363825.0001,4673590.0001],[363820.0001,4673590.0001],[363815.0001,4673585.0001],[363810.0001,4673585.0001],[363805.0001,4673580.0001],[363805.0001,4673575.0001],[363805.0001,4673570.0001],[363800.0001,4673565.0001],[363795.0001,4673560.0001],[363790.0001,4673560.0001],[363785.0001,4673555.0001],[363780.0001,4673555.0001],[363775.0001,4673550.0001],[363770.0001,4673550.0001],[363765.0001,4673550.0001],[363760.0001,4673545.0001],[363755.0001,4673545.0001],[363750.0001,4673545.0001],[363745.0001,4673550.0001],[363745.0001,4673555.0001],[363740.0001,4673560.0001],[363735.0001,4673560.0001],[363730.0001,4673560.0001],[363725.0001,4673560.0001],[363720.0001,4673560.0001],[363715.0001,4673555.0001],[363710.0001,4673555.0001],[363705.0001,4673550.0001],[363700.0001,4673545.0001],[363700.0001,4673540.0001],[363695.0001,4673535.0001],[363690.0001,4673530.0001],[363685.0001,4673525.0001],[363680.0001,4673525.0001],[363675.0001,4673520.0001],[363670.0001,4673520.0001],[363665.0001,4673515.0001],[363665.0001,4673510.0001],[363665.0001,4673505.0001],[363665.0001,4673500.0001],[363660.0001,4673495.0001],[363655.0001,4673490.0001],[363650.0001,4673485.0001],[363645.0001,4673485.0001],[363640.0001,4673480.0001],[363635.0001,4673480.0001],[363630.0001,4673480.0001],[363625.0001,4673480.0001],[363620.0001,4673485.0001],[363615.0001,4673485.0001],[363610.0001,4673480.0001],[363605.0001,4673480.0001],[363600.0001,4673480.0001],[363595.0001,4673475.0001],[363590.0001,4673475.0001],[363585.0001,4673470.0001],[363580.0001,4673470.0001],[363575.0001,4673465.0001],[363570.0001,4673465.0001],[363565.0001,4673465.0001],[363560.0001,4673460.0001],[363555.0001,4673460.0001],[363550.0001,4673460.0001],[363545.0001,4673460.0001],[363540.0001,4673460.0001],[363535.0001,4673460.0001],[363530.0001,4673455.0001],[363525.0001,4673455.0001],[363520.0001,4673455.0001],[363515.0001,4673450.0001],[363510.0001,4673450.0001],[363505.0001,4673445.0001],[363500.0001,4673440.0001],[363495.0001,4673440.0001],[363490.0001,4673435.0001],[363485.0001,4673435.0001],[363480.0001,4673430.0001],[363475.0001,4673430.0001],[363470.0001,4673425.0001],[363465.0001,4673425.0001],[363460.0001,4673420.0001],[363455.0001,4673420.0001],[363450.0001,4673415.0001],[363445.0001,4673415.0001],[363440.0001,4673415.0001],[363435.0001,4673415.0001],[363430.0001,4673420.0001],[363430.0001,4673425.0001],[363430.0001,4673430.0001],[363425.0001,4673435.0001],[363420.0001,4673440.0001],[363415.0001,4673440.0001],[363410.0001,4673440.0001],[363405.0001,4673440.0001],[363400.0001,4673445.0001],[363395.0001,4673445.0001],[363390.0001,4673445.0001],[363385.0001,4673450.0001],[363380.0001,4673450.0001],[363375.0001,4673450.0001],[363370.0001,4673455.0001],[363365.0001,4673455.0001],[363360.0001,4673455.0001],[363355.0001,4673455.0001],[363350.0001,4673455.0001],[363345.0001,4673455.0001],[363340.0001,4673455.0001],[363335.0001,4673455.0001],[363330.0001,4673455.0001],[363325.0001,4673450.0001],[363320.0001,4673450.0001],[363315.0001,4673450.0001],[363310.0001,4673450.0001],[363305.0001,4673450.0001],[363300.0001,4673450.0001],[363295.0001,4673450.0001],[363290.0001,4673450.0001],[363285.0001,4673450.0001],[363280.0001,4673450.0001],[363275.0001,4673445.0001],[363270.0001,4673445.0001],[363265.0001,4673440.0001],[363260.0001,4673435.0001],[363255.0001,4673430.0001],[363255.0001,4673425.0001],[363250.0001,4673420.0001],[363245.0001,4673415.0001],[363240.0001,4673410.0001],[363235.0001,4673405.0001],[363230.0001,4673400.0001],[363225.0001,4673395.0001],[363220.0001,4673395.0001],[363215.0001,4673395.0001],[363210.0001,4673395.0001],[363205.0001,4673395.0001],[363200.0001,4673395.0001],[363195.0001,4673395.0001],[363190.0001,4673395.0001],[363185.0001,4673395.0001],[363180.0001,4673395.0001],[363175.0001,4673395.0001],[363170.0001,4673395.0001],[363165.0001,4673395.0001],[363160.0001,4673395.0001],[363155.0001,4673395.0001],[363150.0001,4673395.0001],[363145.0001,4673395.0001],[363140.0001,4673395.0001],[363135.0001,4673395.0001],[363130.0001,4673395.0001],[363125.0001,4673395.0001],[363120.0001,4673395.0001],[363115.0001,4673395.0001],[363110.0001,4673395.0001],[363105.0001,4673395.0001],[363100.0001,4673395.0001],[363095.0001,4673395.0001],[363090.0001,4673395.0001],[363085.0001,4673395.0001],[363080.0001,4673395.0001],[363075.0001,4673395.0001],[363070.0001,4673395.0001],[363065.0001,4673395.0001],[363060.0001,4673395.0001],[363055.0001,4673390.0001],[363050.0001,4673385.0001],[363045.0001,4673380.0001],[363040.0001,4673375.0001],[363035.0001,4673375.0001],[363030.0001,4673370.0001],[363030.0001,4673365.0001],[363030.0001,4673360.0001],[363030.0001,4673355.0001],[363025.0001,4673355.0001],[363020.0001,4673350.0001],[363015.0001,4673350.0001],[363010.0001,4673345.0001],[363005.0001,4673345.0001],[363000.0001,4673345.0001],[362995.0001,4673350.0001],[362990.0001,4673350.0001],[362985.0001,4673355.0001],[362985.0001,4673360.0001],[362985.0001,4673365.0001],[362980.0001,4673370.0001],[362980.0001,4673375.0001],[362980.0001,4673380.0001],[362980.0001,4673385.0001],[362975.0001,4673390.0001],[362975.0001,4673395.0001],[362970.0001,4673400.0001],[362970.0001,4673405.0001],[362965.0001,4673410.0001],[362960.0001,4673415.0001],[362955.0001,4673415.0001],[362950.0001,4673415.0001],[362945.0001,4673415.0001],[362940.0001,4673415.0001],[362935.0001,4673410.0001],[362935.0001,4673405.0001],[362930.0001,4673400.0001],[362930.0001,4673395.0001],[362925.0001,4673390.0001],[362925.0001,4673385.0001],[362920.0001,4673380.0001],[362920.0001,4673375.0001],[362915.0001,4673370.0001],[362910.0001,4673365.0001],[362905.0001,4673360.0001],[362900.0001,4673355.0001],[362895.0001,4673350.0001],[362890.0001,4673345.0001],[362885.0001,4673345.0001],[362880.0001,4673345.0001],[362875.0001,4673340.0001],[362870.0001,4673340.0001],[362865.0001,4673335.0001],[362860.0001,4673330.0001],[362855.0001,4673325.0001],[362850.0001,4673325.0001],[362845.0001,4673320.0001],[362840.0001,4673315.0001],[362835.0001,4673310.0001],[362830.0001,4673305.0001],[362825.0001,4673300.0001],[362820.0001,4673295.0001],[362815.0001,4673290.0001],[362810.0001,4673290.0001],[362805.0001,4673285.0001],[362800.0001,4673285.0001],[362795.0001,4673285.0001],[362790.0001,4673285.0001],[362785.0001,4673285.0001],[362780.0001,4673285.0001],[362775.0001,4673290.0001],[362770.0001,4673290.0001],[362765.0001,4673295.0001],[362760.0001,4673295.0001],[362755.0001,4673295.0001],[362750.0001,4673295.0001],[362745.0001,4673295.0001],[362740.0001,4673295.0001],[362735.0001,4673295.0001],[362730.0001,4673290.0001],[362725.0001,4673285.0001],[362720.0001,4673280.0001],[362715.0001,4673275.0001],[362710.0001,4673270.0001],[362705.0001,4673265.0001],[362700.0001,4673260.0001],[362695.0001,4673255.0001],[362695.0001,4673250.0001],[362690.0001,4673245.0001],[362685.0001,4673240.0001],[362680.0001,4673235.0001],[362675.0001,4673230.0001],[362670.0001,4673225.0001],[362665.0001,4673220.0001],[362660.0001,4673215.0001],[362655.0001,4673210.0001],[362655.0001,4673205.0001],[362650.0001,4673200.0001],[362645.0001,4673200.0001],[362640.0001,4673195.0001],[362635.0001,4673190.0001],[362630.0001,4673190.0001],[362625.0001,4673190.0001],[362620.0001,4673190.0001],[362615.0001,4673185.0001],[362610.0001,4673185.0001],[362605.0001,4673185.0001],[362600.0001,4673185.0001],[362595.0001,4673185.0001],[362590.0001,4673180.0001],[362585.0001,4673180.0001],[362580.0001,4673175.0001],[362575.0001,4673170.0001],[362575.0001,4673165.0001],[362570.0001,4673160.0001],[362570.0001,4673155.0001],[362565.0001,4673150.0001],[362565.0001,4673145.0001],[362560.0001,4673140.0001],[362555.0001,4673140.0001],[362550.0001,4673140.0001],[362545.0001,4673135.0001],[362540.0001,4673135.0001],[362535.0001,4673130.0001],[362530.0001,4673130.0001],[362525.0001,4673125.0001],[362520.0001,4673125.0001],[362515.0001,4673125.0001],[362510.0001,4673125.0001],[362505.0001,4673125.0001],[362500.0001,4673125.0001],[362495.0001,4673125.0001],[362490.0001,4673125.0001],[362485.0001,4673125.0001],[362480.0001,4673125.0001],[362475.0001,4673125.0001],[362470.0001,4673120.0001],[362470.0001,4673115.0001],[362470.0001,4673110.0001],[362470.0001,4673105.0001],[362465.0001,4673100.0001],[362465.0001,4673095.0001],[362465.0001,4673090.0001]]]},"geometry_name":"SHAPE","properties":{"ID_F1":"PIR242","LONGMAX":5.62114790413,"OBJECTID":22}}],"totalFeatures":1,"numberMatched":1,"numberReturned":1,"timeStamp":"2026-07-07T17:30:56.487Z","crs":{"type":"name","properties":{"name":"urn:ogc:def:crs:EPSG::25831"}}}