{"type":"FeatureCollection","features":[{"type":"Feature","id":"CONECO_CONNECTORS_FLUV_PPAL.1","geometry":{"type":"MultiPolygon","coordinates":[[[[321523.8761,4639787.599],[321517.8273,4639777.9921],[321456.8878,4639767.5024],[321149.7951,4639675.3746],[321112.5731,4639663.8114],[321075.5835,4639651.5251],[321038.8402,4639638.5203],[321002.3575,4639624.8018],[320966.149,4639610.3751],[320930.2285,4639595.2454],[320894.6097,4639579.4187],[320859.3061,4639562.9007],[320824.331,4639545.6979],[320789.6978,4639527.8169],[320755.4198,4639509.2644],[320721.5097,4639490.0473],[320687.9805,4639470.1731],[320654.8451,4639449.6492],[320622.1159,4639428.4835],[320589.8054,4639406.6839],[320557.9258,4639384.2589],[320526.4893,4639361.2169],[320495.5079,4639337.5668],[320464.9932,4639313.3172],[320434.9568,4639288.4776],[320405.4102,4639263.0574],[320376.3645,4639237.0663],[320347.831,4639210.514],[320319.8203,4639183.4107],[320292.3431,4639155.7668],[320265.4098,4639127.5925],[320239.0306,4639098.8988],[320213.2157,4639069.6965],[320187.9747,4639039.9966],[320163.3174,4639009.8105],[320139.2529,4638979.1496],[319030.5042,4637537.7748],[319007.3347,4637507.0471],[318984.7606,4637475.8793],[318962.7906,4637444.2829],[318941.4325,4637412.2696],[318920.6943,4637379.8513],[318900.5837,4637347.04],[318881.1082,4637313.8477],[318862.275,4637280.2869],[318844.091,4637246.3699],[317624.4679,4634917.9955],[317606.4814,4634882.8165],[317589.1934,4634847.2892],[317572.6106,4634811.4271],[317556.7393,4634775.2445],[317541.5861,4634738.7555],[317527.1566,4634701.9742],[316640.1582,4632373.6],[316626.5901,4632336.9086],[316613.742,4632299.959],[316601.6192,4632262.765],[316590.2263,4632225.3412],[316579.5674,4632187.7015],[316569.6468,4632149.8607],[316560.4682,4632111.8331],[316552.0351,4632073.6331],[316108.5364,4629967.009],[316100.6921,4629927.8089],[316093.633,4629888.4599],[316087.3617,4629848.9776],[316081.8807,4629809.3779],[316077.1925,4629769.6765],[316073.2987,4629729.8894],[316070.2009,4629690.0324],[316067.9004,4629650.1213],[315973.5042,4627667.7796],[315555.6504,4626652.9904],[314271.5742,4625770.187],[314239.4938,4625747.6656],[314207.861,4625724.5198],[314176.6878,4625700.7586],[314145.9862,4625676.391],[314115.7681,4625651.4264],[314086.0451,4625625.8744],[314056.8285,4625599.7448],[314028.1296,4625573.0476],[313999.9594,4625545.7933],[313972.3288,4625517.9919],[313945.2483,4625489.6546],[313918.7283,4625460.7919],[313892.7791,4625431.415],[313867.4105,4625401.5352],[313842.6324,4625371.1641],[313818.4543,4625340.3132],[313794.8853,4625308.9943],[313771.9347,4625277.2195],[313749.6112,4625245.0011],[313727.9234,4625212.3514],[313706.8796,4625179.283],[313686.4879,4625145.8085],[313666.7561,4625111.9408],[313647.6919,4625077.6929],[313629.3025,4625043.078],[313611.5949,4625008.1093],[313594.5761,4624972.8004],[313578.2526,4624937.1646],[313562.6304,4624901.2158],[313547.7159,4624864.9678],[313533.5146,4624828.4344],[313520.0319,4624791.6298],[313507.2732,4624754.568],[313225.4896,4623909.216],[312066.5973,4622833.1005],[310200.77,4621186.7806],[310172.566,4621161.415],[310144.8482,4621135.519],[310117.6266,4621109.1021],[310090.9109,4621082.1736],[310064.7106,4621054.7432],[310039.0353,4621026.821],[310013.8942,4620998.4169],[309989.2963,4620969.5409],[309965.2505,4620940.2037],[309941.7654,4620910.4157],[309918.8494,4620880.1876],[309896.511,4620849.5304],[309874.7579,4620818.455],[309853.5981,4620786.9727],[309833.0392,4620755.0947],[309622.0012,4620420.9508],[309608.4413,4620445.4882],[309604.9854,4620418.8284],[308512.4454,4619144.1971],[307306.0992,4617710.2368],[306597.0192,4617067.6323],[306609.2693,4617032.9238],[304566.0227,4616059.9478],[304530.978,4616042.8386],[304496.2735,4616025.0495],[304461.9224,4616006.5869],[304427.9378,4615987.4581],[304394.3327,4615967.6704],[304361.1198,4615947.2311],[304328.3117,4615926.148],[304295.9211,4615904.4294],[304263.96,4615882.0832],[304232.4407,4615859.1182],[304201.3751,4615835.5429],[304170.7752,4615811.3664],[304140.6524,4615786.5978],[304111.0184,4615761.2466],[304081.8843,4615735.3224],[304053.2612,4615708.8351],[304025.16,4615681.7946],[303997.5915,4615654.2115],[303970.5659,4615626.0959],[303944.0937,4615597.4589],[303918.1849,4615568.3111],[303892.8495,4615538.6635],[303868.0968,4615508.5277],[303843.9365,4615477.915],[303820.3776,4615446.837],[303797.4292,4615415.3056],[303775.1,4615383.3327],[303753.3985,4615350.9304],[303732.3329,4615318.1112],[303711.9112,4615284.8875],[303692.1411,4615251.2719],[303673.0304,4615217.2772],[303654.586,4615182.9164],[303636.8152,4615148.2024],[303619.7246,4615113.1486],[303603.3208,4615077.7682],[303587.6099,4615042.0746],[302962.657,4613583.849],[302072.7482,4611982.011],[300560.8903,4610659.1337],[300531.0818,4610632.5208],[300501.8109,4610605.3177],[300473.0894,4610577.5351],[300444.9286,4610549.1843],[300417.34,4610520.2765],[300390.3344,4610490.8232],[300363.9226,4610460.8364],[300338.1152,4610430.3278],[300312.9225,4610399.3097],[300288.3546,4610367.7944],[300264.4212,4610335.7946],[300241.1318,4610303.3231],[300218.496,4610270.3926],[300196.5225,4610237.0166],[300175.2203,4610203.2081],[300154.5978,4610168.9808],[300134.6632,4610134.3483],[300115.4246,4610099.3246],[300096.8895,4610063.9233],[300079.0654,4610028.1588],[300061.9594,4609992.0454],[300045.5783,4609955.5974],[300029.9287,4609918.8294],[300015.0169,4609881.7561],[300000.8486,4609844.3923],[299987.4298,4609806.7528],[299974.7655,4609768.8528],[299962.8612,4609730.7072],[299951.7212,4609692.3315],[299941.3501,4609653.7409],[299931.7521,4609614.9507],[299922.9311,4609575.9766],[299914.8905,4609536.834],[299907.6335,4609497.5385],[299901.1631,4609458.1059],[299714.2116,4608242.9165],[299573.3343,4607890.7226],[298847.2323,4607372.0777],[297605.0376,4607123.6379],[297568.2023,4607115.9097],[297531.519,4607107.4898],[297495.0007,4607098.3809],[297458.6602,4607088.5865],[297422.5104,4607078.1099],[297386.5643,4607066.955],[297350.8343,4607055.1255],[297315.3334,4607042.6258],[297280.0739,4607029.4602],[297245.0685,4607015.6334],[297210.3294,4607001.1504],[295657.1865,4606335.5171],[295620.7921,4606319.4893],[295584.7238,4606302.7413],[295548.9955,4606285.2792],[295513.6216,4606267.1104],[295478.6158,4606248.2416],[295443.992,4606228.6807],[295409.7642,4606208.4353],[295375.9457,4606187.5133],[295342.5497,4606165.9229],[295309.5896,4606143.6729],[295277.0786,4606120.7719],[295245.0292,4606097.2291],[293027.5314,4604434.1037],[292999.3426,4604412.5688],[292971.5401,4604390.5373],[292944.1327,4604368.0162],[292917.1291,4604345.0125],[292890.5377,4604321.5334],[292864.3669,4604297.5864],[292838.625,4604273.179],[292813.3201,4604248.319],[290817.5724,4602252.569],[290786.1966,4602220.481],[290745.1985,4602176.2856],[288749.451,4599958.7857],[288724.0042,4599929.959],[288699.1164,4599900.6483],[288674.7966,4599870.8646],[288651.054,4599840.6188],[288627.8971,4599809.9222],[288605.3347,4599778.7861],[288583.3751,4599747.222],[288562.0263,4599715.2415],[288541.2963,4599682.8565],[288521.1928,4599650.0789],[288501.7231,4599616.9209],[288482.8945,4599583.3947],[288464.7139,4599549.5128],[288447.1881,4599515.2875],[287640.6168,4597902.1427],[285532.441,4596177.2693],[285503.39,4596153.038],[285474.8025,4596128.2615],[285446.6888,4596102.9489],[285419.0589,4596077.1089],[285391.9225,4596050.7509],[285365.2897,4596023.8844],[285339.1698,4595996.5189],[285313.5722,4595968.6644],[285288.5059,4595940.3306],[285263.9802,4595911.5278],[285240.0035,4595882.2663],[285216.5846,4595852.5564],[285193.7318,4595822.4089],[285171.4533,4595791.8346],[284275.7662,4594537.8709],[282540.6358,4593381.1158],[281102.718,4593021.6354],[281064.5654,4593011.6967],[281026.616,4593001.0077],[280988.8848,4592989.5728],[280951.3864,4592977.3964],[280914.1352,4592964.4832],[280877.1458,4592950.8382],[280840.4326,4592936.4667],[280804.0098,4592921.3743],[280767.8916,4592905.5668],[280732.092,4592889.0505],[280696.6249,4592871.8317],[280661.5042,4592853.917],[280626.7434,4592835.3136],[280592.356,4592816.0286],[280558.3556,4592796.0694],[280524.7551,4592775.4439],[280491.5678,4592754.1601],[280458.8064,4592732.2263],[280426.4838,4592709.6509],[280394.6125,4592686.4427],[280363.2047,4592662.6108],[280332.273,4592638.1643],[280301.8292,4592613.1129],[280271.885,4592587.4664],[280242.4523,4592561.2344],[279378.3665,4591775.701],[278622.3072,4591569.5024],[278584.4558,4591558.7783],[278546.8227,4591547.3116],[278509.4224,4591535.1068],[278472.2693,4591522.1688],[278435.378,4591508.5026],[278398.7626,4591494.1133],[278362.4373,4591479.0066],[278326.4163,4591463.1882],[278290.7132,4591446.6645],[278255.3422,4591429.4416],[278220.3167,4591411.5264],[278185.6504,4591392.9256],[278151.3568,4591373.6466],[278117.449,4591353.6967],[278083.9401,4591333.0837],[278050.8431,4591311.8156],[278018.171,4591289.9006],[277985.9362,4591267.3472],[277954.1512,4591244.1641],[277922.8284,4591220.3603],[277891.9799,4591195.9449],[277861.6177,4591170.9276],[277831.7534,4591145.3178],[277802.3986,4591119.1255],[277773.5647,4591092.361],[277745.2628,4591065.0344],[277717.5038,4591037.1564],[277690.2987,4591008.7378],[277663.6578,4590979.7896],[277637.5914,4590950.323],[277612.1097,4590920.3492],[276527.7401,4589619.1041],[274557.4678,4587429.9097],[277530.6173,4584754.0788],[279526.3646,4586971.5786],[279576.2183,4587029.1387],[280282.0176,4587876.099],[280894.3932,4588043.111],[280932.2011,4588053.8224],[280969.7912,4588065.2745],[281007.149,4588077.463],[281044.2603,4588090.3831],[281081.1104,4588104.0299],[281117.6853,4588118.398],[281153.9709,4588133.4818],[281189.9531,4588149.2758],[281225.618,4588165.7737],[281260.952,4588182.969],[281295.9412,4588200.8553],[281330.5724,4588219.4255],[281364.8319,4588238.6726],[281398.7068,4588258.5891],[281432.1838,4588279.1672],[281465.2499,4588300.3991],[281497.8926,4588322.2766],[281530.0992,4588344.7912],[281561.8571,4588367.9342],[281593.1543,4588391.6967],[281623.9785,4588416.0695],[281654.318,4588441.0433],[281684.1609,4588466.6082],[281713.4958,4588492.7546],[282560.8888,4589263.1129],[283846.8522,4589584.6046],[283883.7373,4589594.2002],[283920.4329,4589604.4969],[283956.9255,4589615.4911],[283993.2021,4589627.1786],[284029.2493,4589639.5553],[284065.0543,4589652.6167],[284100.6037,4589666.358],[284135.8849,4589680.7742],[284170.8849,4589695.8601],[284205.5912,4589711.6102],[284239.9909,4589728.0188],[284274.0718,4589745.08],[284307.8214,4589762.7874],[284341.2273,4589781.1348],[284374.2776,4589800.1154],[284406.9602,4589819.7224],[284439.2633,4589839.9486],[284471.1751,4589860.7867],[286799.5477,4591413.0372],[286831.0967,4591434.5074],[286862.2302,4591456.5757],[286892.937,4591479.234],[286923.2059,4591502.4741],[286953.0259,4591526.2875],[286982.3861,4591550.6654],[287011.2758,4591575.5992],[287039.6845,4591601.0796],[287067.6019,4591627.0974],[287095.0178,4591653.6432],[287121.9222,4591680.7073],[287148.3053,4591708.2797],[287174.1574,4591736.3506],[287199.4694,4591764.9095],[287224.2318,4591793.9462],[287248.4357,4591823.4502],[287272.0721,4591853.4106],[287295.1327,4591883.8164],[287317.6089,4591914.6568],[288271.5311,4593250.1495],[290504.6169,4595077.222],[290534.0334,4595101.7642],[290562.9744,4595126.8652],[290591.4293,4595152.5161],[290619.3877,4595178.7073],[290646.8393,4595205.4291],[290673.7739,4595232.6719],[290700.1819,4595260.4256],[290726.0534,4595288.6801],[290751.3789,4595317.4249],[290776.1492,4595346.6494],[290800.3552,4595376.3432],[290823.988,4595406.4951],[290847.0389,4595437.0941],[290869.4996,4595468.1291],[290891.3615,4595499.5886],[290912.617,4595531.461],[290933.258,4595563.7348],[290953.2771,4595596.398],[290972.6669,4595629.4386],[290991.4202,4595662.8446],[291009.5302,4595696.6037],[291026.9903,4595730.7035],[291903.7573,4597484.2402],[293683.164,4599461.3611],[295541.2175,4601319.4168],[297453.2115,4602753.4141],[298593.6949,4603242.1934],[300052.6208,4603533.9794],[300090.2404,4603541.8802],[300127.7012,4603550.5024],[300164.9894,4603559.8431],[300202.0912,4603569.8986],[300238.9928,4603580.6654],[300275.6808,4603592.1394],[300312.1414,4603604.3164],[300348.3613,4603617.192],[300384.3269,4603630.7612],[300420.0252,4603645.0193],[300455.4428,4603659.9608],[300490.5668,4603675.5801],[300525.384,4603691.8718],[300559.8817,4603708.8295],[300594.0471,4603726.4472],[300627.8675,4603744.7182],[300661.3307,4603763.636],[300694.424,4603783.1933],[300727.1353,4603803.383],[300759.4525,4603824.1977],[300791.3639,4603845.6298],[300822.8572,4603867.6711],[302375.1057,4604976.4213],[302406.8692,4604999.5843],[302438.1712,4605023.3672],[302468.9998,4605047.7607],[302499.3429,4605072.7555],[302529.1888,4605098.3418],[302558.5262,4605124.5098],[302587.3434,4605151.2494],[302615.6296,4605178.5502],[302643.3737,4605206.4018],[302670.565,4605234.7933],[302697.193,4605263.7137],[302723.2475,4605293.152],[302748.7182,4605323.0966],[302773.5955,4605353.5361],[302797.8697,4605384.4587],[302821.5314,4605415.8525],[302844.5714,4605447.7052],[302866.981,4605480.0047],[302888.7513,4605512.7384],[302909.8741,4605545.8937],[302930.3411,4605579.4577],[302950.1444,4605613.4176],[302969.2764,4605647.7601],[302987.7298,4605682.4721],[303005.4972,4605717.5399],[303022.572,4605752.9503],[303038.9474,4605788.6895],[303054.6173,4605824.7436],[303069.5755,4605861.0988],[303513.0746,4606969.8483],[303526.8428,4607005.2398],[303539.9366,4607040.8862],[303552.3512,4607076.7749],[303564.0822,4607112.8928],[303575.1252,4607149.2269],[303585.4765,4607185.7642],[303595.132,4607222.4914],[303604.0886,4607259.3954],[303612.3428,4607296.4626],[303619.8917,4607333.68],[303626.7328,4607371.034],[303632.8632,4607408.5111],[303743.721,4608129.0895],[304968.8832,4609201.1077],[304997.4772,4609226.6151],[305025.5772,4609252.6658],[305053.1729,4609279.25],[305080.2543,4609306.3579],[305106.8115,4609333.9798],[305132.8345,4609362.1053],[305158.3139,4609390.7242],[305183.2405,4609419.8261],[305207.6048,4609449.4001],[305231.3982,4609479.4354],[305254.6116,4609509.9211],[305277.2369,4609540.846],[305299.2655,4609572.1986],[305320.6893,4609603.9675],[305341.5007,4609636.141],[305361.6918,4609668.7073],[305381.2553,4609701.6544],[305400.1841,4609734.9703],[306508.9322,4611730.7198],[306525.223,4611760.6405],[306541.0016,4611790.8344],[306556.2638,4611821.2927],[306571.0048,4611852.0067],[306585.2206,4611882.9672],[306598.9068,4611914.1653],[306966.9459,4612772.9246],[308603.2711,4613552.1281],[310033.739,4614212.345],[310069.0837,4614229.0791],[310104.0945,4614246.501],[310138.7579,4614264.6041],[310173.0608,4614283.3815],[310206.99,4614302.826],[310240.5324,4614322.9303],[310273.6754,4614343.6864],[310306.4063,4614365.0867],[310338.7123,4614387.1228],[310370.5815,4614409.7863],[310402.0014,4614433.0686],[310432.9601,4614456.9609],[310463.4457,4614481.4538],[310493.4466,4614506.5381],[310522.9513,4614532.2042],[310551.9485,4614558.4424],[310580.4271,4614585.2423],[310608.3764,4614612.5941],[310635.7854,4614640.4871],[310662.644,4614668.9107],[310688.9416,4614697.8539],[310714.6682,4614727.3058],[310739.8142,4614757.2552],[310764.3697,4614787.6904],[310788.3255,4614818.5999],[310811.6722,4614849.9719],[310834.4012,4614881.7944],[310856.5037,4614914.0552],[310877.971,4614946.742],[311875.8447,4616498.9917],[311884.4654,4616512.5207],[313062.0106,4618376.9696],[314732.1058,4619850.5845],[314769.7644,4619884.6729],[316322.0127,4621326.048],[316349.9805,4621352.524],[316377.4331,4621379.5336],[316404.3606,4621407.0668],[316430.753,4621435.1135],[316456.6004,4621463.663],[316481.8933,4621492.7051],[316506.6224,4621522.2287],[316530.7782,4621552.2231],[316554.3522,4621582.6769],[316577.3352,4621613.5791],[316599.7191,4621644.9181],[316621.4954,4621676.6824],[316642.6559,4621708.86],[316663.193,4621741.4391],[316683.0989,4621774.4075],[316702.3664,4621807.7532],[316720.9882,4621841.4637],[316738.9574,4621875.5266],[316756.2675,4621909.9291],[316772.9118,4621944.6586],[316788.8844,4621979.702],[316804.1792,4622015.0466],[316818.7907,4622050.6791],[316832.7132,4622086.5863],[316845.9419,4622122.755],[316858.4715,4622159.1717],[317090.0093,4622853.7863],[318311.668,4623693.6775],[318344.2829,4623716.5822],[318376.435,4623740.1323],[318408.1115,4623764.3183],[318439.2997,4623789.1308],[318469.9873,4623814.5598],[318500.1621,4623840.5952],[318529.8121,4623867.2267],[318558.9256,4623894.4438],[318587.4909,4623922.2356],[318615.4968,4623950.591],[318642.9321,4623979.499],[318669.786,4624008.9478],[318696.0477,4624038.9258],[318721.7067,4624069.4213],[318746.7532,4624100.422],[318771.1768,4624131.9156],[318794.9681,4624163.8896],[318818.1174,4624196.3314],[318840.6158,4624229.228],[318862.4543,4624262.5663],[318883.624,4624296.3332],[318904.1168,4624330.5152],[318923.9242,4624365.0988],[318943.0386,4624400.0703],[318961.4524,4624435.4156],[318979.1583,4624471.1209],[318996.1492,4624507.1719],[319012.4183,4624543.5542],[319027.9591,4624580.2536],[319804.0828,4626465.128],[319818.2577,4626500.5067],[319831.756,4626536.1492],[319844.5725,4626572.0425],[319856.7029,4626608.1733],[319868.1425,4626644.5289],[319878.8872,4626681.0957],[319888.9331,4626717.8608],[319898.2767,4626754.8105],[319906.9144,4626791.9317],[319914.8433,4626829.2106],[319922.0603,4626866.6339],[319928.5629,4626904.1879],[319934.3486,4626941.859],[319939.4155,4626979.6336],[319943.7617,4627017.4977],[319947.3854,4627055.438],[319950.2856,4627093.4403],[319952.4611,4627131.4909],[320055.7124,4629299.7928],[320433.8947,4631096.1633],[321222.8259,4633167.1108],[322306.8259,4635236.5681],[322916.6586,4636029.3513],[323407.927,4636176.7322],[323445.7975,4636188.5038],[323483.4272,4636201.0241],[323520.8011,4636214.288],[323557.9047,4636228.2904],[323594.7235,4636243.0256],[323631.2427,4636258.4881],[323667.4483,4636274.6717],[323703.3257,4636291.5699],[323738.8612,4636309.1763],[323774.0404,4636327.4837],[323808.8499,4636346.4851],[323843.2756,4636366.1729],[323877.3043,4636386.5395],[323910.9224,4636407.5768],[323944.1167,4636429.2766],[323976.8743,4636451.6302],[324009.1823,4636474.6291],[325229.1927,4637361.9102],[325260.7067,4637385.3056],[325291.7556,4637409.3151],[325322.3273,4637433.9292],[325352.4101,4637459.1385],[325381.9924,4637484.9333],[325411.0627,4637511.3036],[325439.6101,4637538.2394],[325467.6234,4637565.7301],[325495.0917,4637593.7653],[325522.0048,4637622.3341],[325548.3519,4637651.4255],[325574.123,4637681.0284],[325599.3083,4637711.1313],[325623.8981,4637741.7226],[325647.8828,4637772.7905],[325671.2531,4637804.3232],[325694.0002,4637836.3084],[325716.1153,4637868.7338],[325737.5898,4637901.587],[325758.4154,4637934.8552],[325778.5842,4637968.5258],[325798.0883,4638002.5856],[325816.9204,4638037.0216],[325835.073,4638071.8206],[325852.5393,4638106.969],[325869.3124,4638142.4534],[325885.386,4638178.2602],[325900.7538,4638214.3755],[325915.41,4638250.7854],[325929.3487,4638287.4758],[325942.5649,4638324.4329],[325955.0532,4638361.642],[325966.809,4638399.0892],[325977.8277,4638436.7597],[325988.1049,4638474.6393],[325997.637,4638512.7132],[326006.42,4638550.967],[326014.4506,4638589.3856],[326021.7257,4638627.9544],[326028.2425,4638666.6586],[326033.9986,4638705.4832],[326038.9918,4638744.4133],[326043.22,4638783.4338],[326046.6816,4638822.53],[326049.3754,4638861.6864],[326051.3003,4638900.8881],[326052.4555,4638940.1201],[326052.8406,4638979.3673],[326052.8403,4639524.9117],[326209.0904,4639621.0657],[327621.2211,4639856.4216],[330528.9657,4639756.156],[333275.322,4639363.8208],[334005.9186,4639059.4059],[334502.2791,4638563.046],[334530.5934,4638535.2876],[334559.4523,4638508.096],[334588.8447,4638481.482],[334618.7589,4638455.4559],[334649.1831,4638430.0279],[334680.1055,4638405.2081],[334711.5139,4638381.0061],[334743.3959,4638357.4317],[334775.7391,4638334.4938],[334808.5304,4638312.2017],[334841.7574,4638290.564],[334875.4068,4638269.5894],[334909.4655,4638249.286],[334943.9199,4638229.6617],[334978.7566,4638210.7244],[335013.9618,4638192.4814],[335049.5219,4638174.9399],[335085.4227,4638158.1068],[335121.6501,4638141.9888],[335158.1901,4638126.5922],[335195.028,4638111.9229],[335232.1495,4638097.9869],[335269.54,4638084.7895],[335307.1847,4638072.336],[335345.069,4638060.6312],[335383.1779,4638049.6798],[335421.4963,4638039.486],[335460.0094,4638030.0539],[335498.7019,4638021.3872],[335537.5585,4638013.4892],[335576.5642,4638006.3631],[335615.7034,4638000.0118],[335654.9608,4637994.4376],[335694.321,4637989.6426],[335733.7687,4637985.6291],[335773.288,4637982.3983],[335812.8637,4637979.9516],[335852.48,4637978.29],[335892.1216,4637977.4142],[335931.7727,4637977.3243],[335971.4178,4637978.0205],[336011.0413,4637979.5026],[336050.6276,4637981.7699],[336090.1613,4637984.8216],[336129.6267,4637988.6564],[336169.0082,4637993.2728],[336208.2905,4637998.6691],[336247.4582,4638004.8431],[336286.4956,4638011.7923],[336325.3877,4638019.5141],[336364.119,4638028.0054],[336402.6745,4638037.2629],[336441.0386,4638047.2829],[336479.1968,4638058.0616],[336517.1338,4638069.5945],[336554.8346,4638081.8773],[336592.2844,4638094.9051],[336629.4688,4638108.6727],[336666.3728,4638123.1749],[336702.982,4638138.4058],[336739.2822,4638154.3595],[336775.2588,4638171.0296],[336810.898,4638188.4098],[338806.6466,4639186.2853],[341467.6447,4640516.7859],[341501.452,4640534.0927],[341534.9246,4640552.0383],[341568.0504,4640570.6165],[341600.8173,4640589.8202],[341633.2138,4640609.6427],[342098.6188,4640900.5213],[343154.9674,4640975.9752],[343190.8757,4640978.8653],[343226.7259,4640982.4018],[343262.5068,4640986.5834],[343298.2065,4640991.4089],[343333.8135,4640996.8764],[343369.3163,4641002.9845],[343404.7032,4641009.731],[344309.6361,4641190.718],[344755.3667,4640923.28],[344789.0665,4640903.5052],[344823.1463,4640884.3926],[344857.5928,4640865.9494],[344892.3931,4640848.1827],[344927.5339,4640831.0991],[344963.0016,4640814.7054],[344998.7829,4640799.0078],[345034.8641,4640784.012],[345071.2312,4640769.7241],[345107.8706,4640756.1493],[345144.7682,4640743.293],[345181.9099,4640731.1599],[345219.2815,4640719.7546],[345256.8689,4640709.0818],[345294.6575,4640699.1452],[345332.6331,4640689.9487],[345370.7811,4640681.4959],[345409.087,4640673.79],[345447.536,4640666.8338],[345486.1136,4640660.6301],[345524.805,4640655.1813],[345563.5956,4640650.4894],[345602.4703,4640646.5561],[345641.4146,4640643.3831],[345680.4133,4640640.9715],[345719.4517,4640639.3221],[345758.5149,4640638.4359],[345797.5879,4640638.3129],[345836.6559,4640638.9532],[345875.704,4640640.3566],[345914.7171,4640642.5227],[345953.6806,4640645.4504],[345992.5793,4640649.1388],[346031.3986,4640653.5863],[346070.1237,4640658.7915],[346108.7396,4640664.7522],[346147.2316,4640671.466],[346185.5852,4640678.9307],[346223.7857,4640687.1431],[346261.8184,4640696.1002],[346299.6688,4640705.7988],[347093.687,4640917.5373],[347127.9533,4640897.6801],[347162.6065,4640878.506],[347197.633,4640860.0227],[347233.019,4640842.2374],[347268.7506,4640825.1569],[347304.8139,4640808.7883],[347341.1945,4640793.1378],[347377.8782,4640778.2114],[347414.8506,4640764.0154],[347452.0971,4640750.5549],[347489.6033,4640737.8355],[347527.3541,4640725.8621],[347565.3349,4640714.6394],[347603.5307,4640704.1719],[347641.9264,4640694.4635],[347680.5072,4640685.5182],[347719.2576,4640677.3395],[347758.1625,4640669.9306],[347797.2068,4640663.2942],[347836.3748,4640657.4333],[347875.6514,4640652.35],[347915.0211,4640648.0462],[347954.4682,4640644.5238],[347993.9775,4640641.784],[348033.5333,4640639.8281],[348073.1202,4640638.6566],[348112.7224,4640638.2701],[349110.597,4640638.2706],[349149.864,4640638.6561],[349189.1158,4640639.8125],[349228.3374,4640641.7393],[349267.5137,4640644.4359],[349306.6294,4640647.9011],[349345.6695,4640652.1335],[349384.619,4640657.1318],[349423.4629,4640662.8938],[349462.1861,4640669.4172],[349500.7738,4640676.6998],[349539.2111,4640684.7385],[349577.4832,4640693.5303],[349615.5752,4640703.072],[349653.4726,4640713.3596],[349691.1607,4640724.3893],[349728.625,4640736.1568],[349765.851,4640748.6577],[349802.8244,4640761.887],[349839.5309,4640775.8397],[349875.9564,4640790.5103],[349912.0868,4640805.8933],[349947.9084,4640821.9828],[349983.407,4640838.7724],[350018.5692,4640856.2558],[350053.3814,4640874.4261],[350087.83,4640893.2764],[350121.9019,4640912.7996],[350155.584,4640932.9878],[350188.8631,4640953.8335],[350221.7266,4640975.3285],[350254.1618,4640997.4647],[350286.1561,4641020.2334],[350317.6972,4641043.6258],[350348.7729,4641067.6331],[350379.3712,4641092.2458],[350409.4804,4641117.4545],[350439.089,4641143.2496],[350468.1853,4641169.621],[350496.7582,4641196.5586],[350524.7967,4641224.052],[351966.1704,4642665.4269],[351993.6154,4642693.4151],[352020.5067,4642721.936],[352046.8337,4642750.9784],[352072.5866,4642780.5311],[352097.7552,4642810.583],[352122.3301,4642841.1224],[352146.3017,4642872.1375],[352169.6609,4642903.6164],[352192.3985,4642935.5472],[352214.5061,4642967.9174],[352235.9749,4643000.7147],[352256.7968,4643033.9265],[352276.9639,4643067.54],[352296.4683,4643101.5423],[352315.3025,4643135.9202],[352333.4594,4643170.6607],[352350.9318,4643205.7505],[352367.7132,4643241.1759],[352383.7972,4643276.9233],[352399.1773,4643312.9792],[352413.848,4643349.3295],[352427.8033,4643385.9605],[352441.0381,4643422.8579],[352453.547,4643460.0075],[352465.3256,4643497.3952],[352476.3692,4643535.0066],[352486.6735,4643572.8272],[352496.2345,4643610.8425],[352505.0487,4643649.0378],[352513.1126,4643687.3987],[352568.5536,4643964.6044],[353407.4736,4644503.9106],[353440.0052,4644525.2739],[353472.115,4644547.2663],[353503.7906,4644569.8793],[353535.0203,4644593.1044],[353565.7922,4644616.9328],[353596.0946,4644641.3555],[353625.9159,4644666.3632],[353655.245,4644691.9464],[353684.0709,4644718.0956],[353712.3823,4644744.8006],[353740.1687,4644772.0516],[353767.4196,4644799.838],[353794.1247,4644828.1495],[353820.2738,4644856.9752],[353845.8569,4644886.3044],[353870.8647,4644916.1258],[353895.2872,4644946.4282],[353919.1157,4644977.2],[353942.3408,4645008.4297],[353964.9537,4645040.1055],[353986.946,4645072.2152],[354008.3094,4645104.7468],[354954.9728,4646577.3357],[355905.1931,4647786.708],[356493.4088,4648161.0275],[357422.3847,4648315.8572],[357461.353,4648322.7488],[357500.1773,4648330.4101],[357538.8424,4648338.838],[357577.3331,4648348.0293],[357615.6345,4648357.9804],[357653.7315,4648368.6875],[357691.6091,4648380.1461],[357729.2527,4648392.352],[357766.6474,4648405.3002],[357803.7785,4648418.9857],[357840.6317,4648433.4034],[357877.1923,4648448.5473],[357913.4462,4648464.4117],[357949.379,4648480.9902],[357984.9769,4648498.2765],[358020.2256,4648516.2637],[358055.1117,4648534.9447],[358089.6213,4648554.3125],[358123.7409,4648574.3592],[358157.4572,4648595.077],[358190.7571,4648616.4579],[358223.6273,4648638.4935],[358256.0551,4648661.1751],[359032.1795,4649215.5501],[359064.4096,4649239.0606],[359096.1643,4649263.2092],[359127.431,4649287.9865],[359158.1973,4649313.3824],[359188.4509,4649339.3869],[359218.1798,4649365.9898],[359247.3722,4649393.1802],[359276.0164,4649420.9477],[359304.101,4649449.2808],[359331.615,4649478.1686],[359358.5473,4649507.5993],[359384.8871,4649537.5614],[359410.6241,4649568.0429],[359435.7481,4649599.0318],[359460.2489,4649630.5156],[359484.1168,4649662.4818],[359507.3424,4649694.9178],[359529.9165,4649727.8105],[359551.8299,4649761.1469],[359573.074,4649794.9138],[359593.6404,4649829.0978],[359613.5209,4649863.6851],[359632.7075,4649898.6622],[359651.1926,4649934.0149],[359668.969,4649969.7293],[359686.0294,4650005.7912],[359702.3672,4650042.1862],[359717.9757,4650078.8999],[359732.8489,4650115.9175],[359746.9807,4650153.2245],[359760.3656,4650190.8058],[359772.9983,4650228.6468],[359784.8735,4650266.7321],[359795.9869,4650305.0467],[359806.3338,4650343.5755],[359815.9101,4650382.3029],[359824.712,4650421.2136],[359832.7361,4650460.2921],[359839.9791,4650499.5229],[359846.4382,4650538.8904],[360027.5664,4651716.2268],[360362.5682,4652469.9817],[360377.8997,4652505.394],[360392.5449,4652541.0953],[360406.4987,4652577.0727],[360419.7556,4652613.3126],[360432.311,4652649.8014],[361097.5599,4654645.5507],[361109.6737,4654683.1244],[361121.0435,4654720.9297],[361131.6649,4654758.9522],[361141.5338,4654797.1769],[361150.6462,4654835.589],[361158.9986,4654874.1733],[361166.5878,4654912.9151],[361173.4108,4654951.7991],[361179.465,4654990.8102],[361184.748,4655029.9332],[361406.4972,4656803.9325],[361411.0483,4656843.5448],[361414.8086,4656883.24],[361417.7769,4656923.0023],[361419.9518,4656962.8158],[361421.3327,4657002.6648],[361421.9189,4657042.5334],[361421.7101,4657082.4057],[361420.7065,4657122.2661],[361418.9085,4657162.0984],[361416.3167,4657201.8869],[361412.9322,4657241.6159],[361191.1814,4659569.9898],[361184.7462,4659628.4405],[361033.1191,4660841.4527],[361353.549,4661546.3991],[361367.5534,4661577.9277],[361381.0117,4661609.6931],[361393.9202,4661641.6859],[361406.275,4661673.8967],[361418.0721,4661706.3157],[361429.3085,4661738.9335],[361439.9805,4661771.7402],[362105.2293,4663878.3645],[362116.3829,4663914.8954],[362126.8368,4663951.6326],[362136.5873,4663988.5628],[362145.6306,4664025.6723],[362153.9637,4664062.9479],[362161.5833,4664100.3758],[362168.4868,4664137.9425],[362593.788,4666583.4296],[363008.1098,4668033.558],[363018.6503,4668071.8879],[363028.4269,4668110.4198],[363037.4357,4668149.1383],[363427.5246,4669904.5416],[364093.5408,4671236.5753],[364110.5103,4671271.3515],[364126.8038,4671306.4495],[364142.4154,4671341.8561],[364157.3388,4671377.5581],[364171.5689,4671413.5423],[364185.1,4671449.7949],[364197.9273,4671486.3026],[364210.0457,4671523.0515],[364221.451,4671560.0282],[364232.1387,4671597.2184],[364242.105,4671634.6086],[364251.3459,4671672.1845],[364259.8582,4671709.9323],[364267.6385,4671747.8376],[364274.684,4671785.8864],[364280.9922,4671824.0643],[364286.5604,4671862.3571],[364291.3867,4671900.7506],[364295.4695,4671939.2302],[364298.8069,4671977.7816],[364301.3977,4672016.3903],[364303.2414,4672055.0419],[364304.3367,4672093.7221],[364304.6835,4672132.4161],[364304.2817,4672171.1095],[364303.1313,4672209.7881],[364301.2328,4672248.437],[364215.9821,4673697.6876],[364833.9432,4675286.732],[364845.1004,4675316.1029],[364855.7948,4675345.6453],[364866.0238,4675375.3523],[364875.7849,4675405.2161],[365647.7555,4677831.4124],[366197.7979,4679481.542],[366209.5163,4679517.8479],[366220.5401,4679554.3707],[366230.8652,4679591.0972],[366240.4879,4679628.0138],[366249.4047,4679665.1074],[366257.6123,4679702.3642],[366265.1077,4679739.7709],[366704.327,4682045.6765],[366987.6227,4683367.7258],[367593.4127,4684713.927],[368583.3338,4685175.8907],[368619.127,4685193.0287],[368654.5731,4685210.8735],[368689.6582,4685229.4181],[368724.3685,4685248.6552],[368758.6903,4685268.5772],[368792.61,4685289.1764],[368826.1142,4685310.4445],[368859.1899,4685332.3731],[368891.824,4685354.9537],[368924.0037,4685378.1774],[368955.7162,4685402.035],[368986.9491,4685426.5171],[369661.6378,4685966.2685],[370773.7694,4686114.5531],[370812.9079,4686120.1659],[370851.9278,4686126.5513],[370890.8137,4686133.7068],[370929.5506,4686141.6296],[370968.1234,4686150.3167],[371006.5168,4686159.7646],[371044.716,4686169.9696],[371082.706,4686180.9278],[371120.4719,4686192.6348],[371157.999,4686205.0862],[371195.2727,4686218.277],[371232.2783,4686232.202],[371269.0013,4686246.8559],[371305.4276,4686262.2328],[371341.5427,4686278.327],[371377.3326,4686295.1318],[371412.7833,4686312.6409],[371447.881,4686330.8474],[371482.6118,4686349.7442],[371516.9623,4686369.3238],[371550.9191,4686389.5787],[371584.4688,4686410.5009],[371617.5982,4686432.0823],[371650.2947,4686454.3143],[371682.5452,4686477.1884],[371714.3373,4686500.6956],[371745.6584,4686524.8267],[371776.4964,4686549.5722],[371806.8391,4686574.9226],[371836.6748,4686600.8677],[371865.9917,4686627.3976],[373098.94,4687765.5045],[374823.1784,4688627.6245],[375370.6181,4688737.1127],[377174.3237,4688547.2495],[377209.1205,4688543.8939],[377243.9705,4688541.1471],[377278.8634,4688539.0097],[377313.7882,4688537.4826],[377348.7343,4688536.5662],[377383.6912,4688536.2607],[378714.1908,4688536.2611],[380820.8151,4688536.2619],[382594.8145,4688536.2625],[382634.6423,4688536.6591],[382674.4545,4688537.8487],[382714.235,4688539.831],[382753.9681,4688542.6051],[382793.6381,4688546.1699],[382833.2293,4688550.5239],[382872.7259,4688555.6655],[382912.1122,4688561.5927],[382951.3728,4688568.303],[382990.4919,4688575.7937],[383029.4541,4688584.0621],[383068.2438,4688593.1047],[383106.8459,4688602.918],[383145.2448,4688613.498],[383183.4256,4688624.8408],[383221.3727,4688636.9415],[383259.0714,4688649.7954],[383296.5067,4688663.3976],[383333.6636,4688677.7427],[383370.5275,4688692.8248],[383407.0837,4688708.638],[384404.9583,4689152.1382],[384437.3136,4689166.8641],[384469.4022,4689182.1627],[384501.2137,4689198.0293],[384532.7382,4689214.4588],[384563.9657,4689231.446],[385399.353,4689695.5504],[386578.24,4690088.5132],[387236.5748,4690088.5134],[388138.7769,4689394.5122],[388170.3627,4689370.7089],[388202.413,4689347.5347],[388234.9153,4689324.9989],[388267.8569,4689303.1102],[388301.2249,4689281.8772],[388335.0063,4689261.3083],[388369.1877,4689241.4113],[388403.7561,4689222.1941],[388438.6975,4689203.6643],[388473.9987,4689185.8291],[388509.6455,4689168.6954],[388545.6243,4689152.27],[388581.9208,4689136.5592],[388618.5209,4689121.5693],[388655.4102,4689107.306],[388692.5744,4689093.7751],[388729.9988,4689080.9816],[388767.669,4689068.9307],[388805.57,4689057.6271],[388843.6873,4689047.0751],[388882.0056,4689037.279],[388920.5103,4689028.2426],[388959.1861,4689019.9693],[388998.0178,4689012.4624],[389036.9906,4689005.7249],[389076.0888,4688999.7595],[389115.2975,4688994.5682],[389154.6011,4688990.1534],[389193.9842,4688986.5165],[389233.4316,4688983.6593],[390648.5275,4688895.2163],[391317.792,4688597.7656],[391354.5028,4688581.8873],[391391.524,4688566.7464],[391428.8404,4688552.3488],[391466.4373,4688538.7005],[391504.2996,4688525.8066],[391542.4123,4688513.6725],[391580.7599,4688502.3031],[391619.3273,4688491.7027],[391658.0989,4688481.8758],[391697.0593,4688472.8262],[391736.1929,4688464.5575],[391775.484,4688457.073],[391814.9169,4688450.3758],[391854.4759,4688444.4685],[391894.1451,4688439.3535],[391933.9086,4688435.0328],[391973.7506,4688431.5082],[392013.6552,4688428.7811],[392053.6062,4688426.8525],[392093.5879,4688425.7232],[392133.5841,4688425.3937],[392173.579,4688425.8642],[392213.5564,4688427.1343],[392253.5004,4688429.2037],[392293.395,4688432.0713],[392333.2244,4688435.7363],[392372.9725,4688440.1971],[392412.6234,4688445.4519],[392452.1613,4688451.4984],[392491.5704,4688458.3346],[392530.8349,4688465.9574],[392569.9391,4688474.3639],[392608.8674,4688483.5508],[392647.6041,4688493.5143],[392686.1339,4688504.2504],[392724.4413,4688515.7549],[392762.5109,4688528.0233],[393738.3262,4688853.2953],[394870.0427,4689201.5162],[396121.5597,4689201.5166],[396160.0718,4689201.8874],[396198.5696,4689202.9998],[396237.0388,4689204.8533],[396275.4651,4689207.4471],[396313.8345,4689210.7805],[396352.1325,4689214.8521],[396390.3451,4689219.6605],[396428.4579,4689225.2037],[396466.4569,4689231.4799],[396504.328,4689238.4865],[396542.0572,4689246.2213],[396579.6305,4689254.681],[396617.0338,4689263.8627],[396654.2535,4689273.7629],[396691.2755,4689284.378],[396728.0864,4689295.7042],[396764.6722,4689307.7369],[396801.0197,4689320.472],[396837.1151,4689333.9047],[396872.9452,4689348.0299],[396908.4967,4689362.8425],[398084.3206,4689866.7669],[398893.4336,4689866.7671],[399480.7967,4689866.7673],[400656.621,4689362.8436],[400692.8659,4689347.7501],[400729.4,4689333.371],[400766.2095,4689319.7119],[400803.28,4689306.7779],[400840.5971,4689294.5743],[400878.1468,4689283.1055],[400915.9142,4689272.376],[400953.885,4689262.3899],[400992.0446,4689253.1512],[401030.3781,4689244.6633],[401068.8708,4689236.9296],[401107.508,4689229.9529],[401146.2747,4689223.736],[401185.1559,4689218.2814],[401224.1368,4689213.591],[401263.2023,4689209.6669],[401302.3371,4689206.5102],[401341.5264,4689204.1225],[401380.7551,4689202.5044],[401420.008,4689201.6568],[401459.2699,4689201.5798],[401498.5257,4689202.2736],[401537.7605,4689203.7379],[401576.9588,4689205.9721],[401616.1058,4689208.9753],[401655.1863,4689212.7465],[401694.1852,4689217.2839],[401733.0875,4689222.5862],[401771.8783,4689228.6511],[401810.5424,4689235.4762],[401849.0652,4689243.059],[401887.4318,4689251.3967],[401925.6272,4689260.4858],[401963.6369,4689270.3229],[402001.4461,4689280.9043],[402039.0403,4689292.2259],[402076.4051,4689304.2832],[402113.526,4689317.0718],[402150.3887,4689330.5866],[402186.9789,4689344.8224],[402223.2827,4689359.7737],[402259.2859,4689375.4347],[402294.9748,4689391.7996],[402330.3357,4689408.8618],[402365.3546,4689426.6149],[402400.0183,4689445.052],[402434.3136,4689464.166],[402468.2269,4689483.9495],[402501.7454,4689504.3951],[402534.8561,4689525.4945],[402567.5462,4689547.24],[402599.8031,4689569.6229],[402631.6144,4689592.6347],[402662.9679,4689616.2666],[403972.6737,4690623.7331],[405489.2239,4691432.5604],[405524.1151,4691451.6168],[405558.6205,4691471.3631],[405592.7267,4691491.7913],[405626.42,4691512.8934],[405659.6873,4691534.661],[405692.5153,4691557.0856],[405724.891,4691580.1583],[405756.8017,4691603.87],[405788.2348,4691628.2113],[405819.1779,4691653.1726],[405849.6187,4691678.744],[405879.5453,4691704.9154],[405908.9456,4691731.6766],[407116.2417,4692852.7379],[407828.9851,4693062.3685],[408588.4458,4692711.8484],[408624.6474,4692695.5737],[408661.1649,4692680.0207],[408697.9837,4692665.1954],[408735.0895,4692651.1038],[408772.4677,4692637.7513],[408810.1035,4692625.1432],[408847.982,4692613.2845],[408886.0885,4692602.1797],[408924.4078,4692591.8334],[408962.925,4692582.2496],[409001.6246,4692573.432],[409040.4917,4692565.3842],[409079.5108,4692558.1093],[409118.6666,4692551.61],[409157.9437,4692545.8892],[409197.3266,4692540.9489],[409236.7997,4692536.7912],[409276.3476,4692533.4175],[409315.9546,4692530.8295],[409355.6053,4692529.0279],[409395.2838,4692528.0135],[409434.9747,4692527.7868],[409474.6623,4692528.3477],[409514.3308,4692529.6962],[409553.9649,4692531.8316],[409593.5487,4692534.7531],[409633.0669,4692538.4597],[409672.5035,4692542.9497],[409711.8434,4692548.2214],[409751.0709,4692554.2728],[409790.1707,4692561.1014],[409829.1271,4692568.7047],[409867.9251,4692577.0796],[409906.549,4692586.2227],[409944.9841,4692596.1305],[409983.215,4692606.7991],[410021.2266,4692618.2243],[410059.0039,4692630.4016],[411722.1283,4693184.7769],[411755.6806,4693196.2926],[411789.0233,4693208.4016],[411822.146,4693221.1001],[411855.0383,4693234.384],[411887.6899,4693248.2493],[411920.0903,4693262.6914],[411952.2296,4693277.7059],[411984.0974,4693293.2882],[413092.8469,4693847.6632],[413127.8331,4693865.5883],[413162.4601,4693884.1974],[413196.7147,4693903.4836],[413230.5836,4693923.4394],[413264.0538,4693944.0569],[413297.1123,4693965.3283],[413329.7463,4693987.2453],[413361.9432,4694009.7995],[413393.6907,4694032.9822],[413424.9763,4694056.7843],[413455.7881,4694081.1968],[413486.1141,4694106.2102],[413515.9426,4694131.8148],[413545.2621,4694158.0007],[413574.0612,4694184.7578],[413602.329,4694212.0757],[413630.0543,4694239.9441],[413657.2265,4694268.3519],[413683.8352,4694297.2882],[413709.8699,4694326.7421],[413735.3207,4694356.7019],[413760.1777,4694387.1561],[413784.4315,4694418.093],[413808.0725,4694449.5007],[413831.0915,4694481.3669],[413853.4798,4694513.6794],[413875.2287,4694546.4257],[413896.3298,4694579.5931],[413916.7749,4694613.1689],[413936.5562,4694647.14],[413955.6659,4694681.4934],[413974.0967,4694716.2157],[413991.8416,4694751.2935],[414008.8936,4694786.7134],[414025.246,4694822.4616],[414040.8928,4694858.5242],[414055.8277,4694894.8874],[414070.045,4694931.5372],[414083.5393,4694968.4592],[414096.3052,4695005.6394],[414108.3379,4695043.0633],[414119.6328,4695080.7165],[414130.1854,4695118.5844],[414139.9917,4695156.6524],[414149.0478,4695194.9057],[414157.3504,4695233.3297],[414164.8961,4695271.9095],[414171.6821,4695310.63],[414177.7058,4695349.4766],[414182.9649,4695388.4339],[414346.1537,4696693.9476],[414527.7621,4696966.3603],[411199.5916,4699185.1394],[410756.0919,4698519.8895],[410734.9719,4698487.5366],[410714.4807,4698454.7817],[410694.6262,4698421.6372],[410675.4156,4698388.1152],[410656.856,4698354.2286],[410638.9546,4698319.9896],[410621.718,4698285.4112],[410605.1525,4698250.5062],[410589.2644,4698215.2879],[410574.0597,4698179.7692],[410559.5438,4698143.9633],[410545.7223,4698107.8838],[410532.6005,4698071.544],[410520.183,4698034.9574],[410508.4746,4697998.1379],[410497.4796,4697961.099],[410487.2022,4697923.8547],[410477.6462,4697886.4187],[410468.8152,4697848.8052],[410460.7124,4697811.028],[410453.3408,4697773.1015],[410446.7033,4697735.0395],[410440.8023,4697696.8565],[410435.64,4697658.5667],[410346.6517,4696946.6592],[410322.3876,4696934.5271],[409545.5105,4696675.5679],[408823.2872,4697008.9014],[408786.8823,4697025.2651],[408750.1583,4697040.8988],[408713.1294,4697055.7967],[408675.8108,4697069.9526],[408638.2169,4697083.361],[408600.3631,4697096.0166],[408562.2642,4697107.914],[408523.9355,4697119.049],[408485.3922,4697129.4168],[408446.6497,4697139.0134],[408407.7233,4697147.8349],[408368.6288,4697155.8778],[408329.3815,4697163.1391],[408289.997,4697169.6156],[408250.4912,4697175.3048],[408210.8798,4697180.2047],[408171.1784,4697184.3129],[408131.403,4697187.6282],[408091.5693,4697190.149],[408051.6932,4697191.8744],[408011.7908,4697192.8037],[407971.8775,4697192.9365],[407931.9697,4697192.2728],[407892.083,4697190.8129],[407852.2334,4697188.5572],[407812.4368,4697185.5067],[407772.709,4697181.6627],[407733.0659,4697177.0267],[407693.523,4697171.6005],[407654.0964,4697165.3862],[407614.8016,4697158.3864],[407575.6544,4697150.6038],[407536.6702,4697142.0416],[407497.8647,4697132.703],[407459.2533,4697122.5919],[407420.8513,4697111.7124],[405535.9771,4696557.3371],[405499.1227,4696546.1107],[405462.4914,4696534.1766],[405426.0967,4696521.5391],[405389.9524,4696508.2028],[405354.0717,4696494.1729],[405318.4677,4696479.4544],[405283.1539,4696464.0527],[405248.1433,4696447.9738],[405213.449,4696431.2233],[405179.0838,4696413.8078],[405145.0604,4696395.7334],[405111.3915,4696377.0071],[405078.0895,4696357.6358],[405045.1668,4696337.6265],[405012.6357,4696316.9867],[404980.5082,4696295.7242],[404948.7962,4696273.8467],[404917.5115,4696251.3625],[404886.6657,4696228.2798],[404856.2703,4696204.6073],[404826.3365,4696180.3536],[404796.8754,4696155.5279],[404767.8981,4696130.1392],[404739.415,4696104.1971],[403377.5941,4694839.6484],[401943.7635,4694074.9382],[401911.4275,4694057.3081],[401879.4217,4694039.0854],[401847.7568,4694020.2765],[401816.4437,4694000.8877],[401785.4929,4693980.9254],[401754.9149,4693960.3968],[401724.7202,4693939.3085],[401694.9188,4693917.6677],[401665.521,4693895.4819],[401153.5872,4693501.6865],[400678.2442,4693705.4042],[400642.6927,4693720.2168],[400606.8626,4693734.3419],[400570.7671,4693747.7746],[400534.4196,4693760.5097],[400497.8338,4693772.5424],[400461.023,4693783.8684],[400424.0009,4693794.4836],[400386.7813,4693804.3838],[400349.3779,4693813.5655],[400311.8047,4693822.0252],[400274.0754,4693829.7598],[400236.2043,4693836.7666],[400198.2052,4693843.0427],[400160.0925,4693848.5859],[400121.8799,4693853.3943],[400083.5819,4693857.4658],[400045.2126,4693860.7992],[400006.7862,4693863.393],[399968.317,4693865.2465],[399929.8191,4693866.3589],[399891.3071,4693866.7297],[398893.4325,4693866.7294],[397673.8078,4693866.729],[397635.2957,4693866.3582],[397596.798,4693865.2458],[397558.3288,4693863.3923],[397519.9024,4693860.7984],[397481.533,4693857.4651],[397443.2351,4693853.3935],[397405.0225,4693848.5851],[397366.9097,4693843.0419],[397328.9107,4693836.7657],[397291.0395,4693829.7591],[397253.3104,4693822.0243],[397215.7371,4693813.5646],[397178.3337,4693804.3829],[397141.1141,4693794.4826],[397104.092,4693783.8675],[397067.2811,4693772.5414],[397030.6953,4693760.5086],[396994.3479,4693747.7735],[396958.2524,4693734.3409],[396922.4224,4693720.2157],[396886.871,4693705.4031],[395711.0469,4693201.4787],[394569.3091,4693201.4784],[394529.5121,4693201.0823],[394489.7311,4693199.8945],[394449.9815,4693197.9154],[394410.2792,4693195.1456],[394370.6398,4693191.5864],[394331.0791,4693187.2391],[394291.6128,4693182.1055],[394252.2564,4693176.1875],[394213.0255,4693169.4876],[394173.9358,4693162.0084],[394135.0027,4693153.7528],[394096.2414,4693144.7241],[394057.6676,4693134.926],[394019.2964,4693124.3622],[393981.1429,4693113.037],[392539.7685,4692669.5367],[392495.4851,4692655.3455],[392233.4947,4692568.0152],[391944.4546,4692696.4774],[391908.172,4692712.1753],[391871.5863,4692727.1532],[391834.7116,4692741.4048],[391797.5624,4692754.925],[391760.1533,4692767.7082],[391722.4988,4692779.7493],[391684.6137,4692791.044],[391646.5126,4692801.5876],[391608.2107,4692811.376],[391569.7228,4692820.4055],[391531.0639,4692828.6725],[391492.2491,4692836.1737],[391453.2937,4692842.9063],[391414.2128,4692848.8676],[391375.0218,4692854.0552],[391335.7358,4692858.4672],[391296.3703,4692862.1018],[391256.9407,4692864.9576],[390093.0586,4692937.6998],[389136.2211,4693673.7282],[389104.4845,4693697.6429],[389072.2791,4693720.9222],[389039.6176,4693743.5571],[389006.5127,4693765.5386],[388972.9777,4693786.858],[388939.0257,4693807.507],[388904.6702,4693827.4773],[388869.9246,4693846.761],[388834.8028,4693865.3506],[388799.3185,4693883.2388],[388763.486,4693900.4183],[388727.319,4693916.8827],[388690.8321,4693932.6251],[388654.0397,4693947.6396],[388616.9562,4693961.92],[388579.5964,4693975.4609],[388541.9747,4693988.2567],[388504.1064,4694000.3026],[388466.0062,4694011.5938],[388427.6892,4694022.1257],[388389.1704,4694031.8943],[388350.4651,4694040.8956],[388311.5889,4694049.1262],[388272.5565,4694056.5827],[388233.3839,4694063.2622],[388194.0862,4694069.1622],[388154.679,4694074.2802],[388115.178,4694078.6143],[388075.5987,4694082.1626],[388035.9565,4694084.9239],[387996.2675,4694086.8969],[387956.5471,4694088.0811],[387916.8109,4694088.4759],[386253.6865,4694088.4753],[386215.836,4694088.1171],[386177.9991,4694087.0426],[386140.1895,4694085.2523],[386102.4204,4694082.7468],[386064.7055,4694079.5268],[386027.0584,4694075.5936],[385989.4924,4694070.9487],[385952.021,4694065.5937],[385914.6577,4694059.5304],[385877.4158,4694052.7612],[385840.3087,4694045.2882],[385803.3496,4694037.1145],[385766.552,4694028.2427],[385729.9287,4694018.676],[385693.4932,4694008.418],[385657.2582,4693997.4723],[385621.2368,4693985.8427],[383958.1126,4693431.4674],[383923.0563,4693419.4198],[383888.2293,4693406.7246],[383853.6435,4693393.3861],[383819.311,4693379.4088],[383785.2433,4693364.7977],[383751.4523,4693349.5577],[383717.9495,4693333.694],[383684.7466,4693317.2122],[383651.8549,4693300.1177],[383619.2855,4693282.4167],[382699.1515,4692771.2307],[382170.3882,4692536.2246],[380820.8137,4692536.2241],[378714.1894,4692536.2234],[377488.662,4692536.223],[375486.433,4692746.9832],[375448.8218,4692750.5833],[375411.1492,4692753.4724],[375373.4289,4692755.6492],[375335.6741,4692757.1131],[375297.8984,4692757.8636],[375260.1153,4692757.9002],[375222.3382,4692757.2231],[375184.5807,4692755.8325],[375146.8561,4692753.7289],[375109.1781,4692750.9129],[375071.5599,4692747.3857],[375034.015,4692743.1485],[374996.557,4692738.2028],[374959.1991,4692732.5504],[374921.9546,4692726.1933],[374884.8368,4692719.1336],[373776.0873,4692497.3833],[373738.8634,4692489.5697],[373701.7949,4692481.0496],[373664.8951,4692471.8261],[373628.1773,4692461.9026],[373591.655,4692451.2827],[373555.3412,4692439.9701],[373519.2491,4692427.9689],[373483.3918,4692415.2836],[373447.7822,4692401.9187],[373412.4331,4692387.879],[373377.3575,4692373.1696],[373342.5679,4692357.7959],[373308.0769,4692341.7633],[373273.8972,4692325.0777],[371056.3983,4691216.3274],[371022.9551,4691199.2112],[370989.8394,4691181.47],[370957.0627,4691163.1098],[370924.6367,4691144.1372],[370892.5728,4691124.5589],[370860.8823,4691104.3818],[370829.5764,4691083.6129],[370798.6661,4691062.2596],[370768.1624,4691040.3296],[370738.076,4691017.8304],[370708.4174,4690994.77],[370679.1974,4690971.1566],[370650.426,4690946.9987],[370622.1134,4690922.3044],[370594.2698,4690897.0827],[369617.8749,4689995.7944],[368581.9936,4689857.6766],[368543.6579,4689852.1869],[368505.4356,4689845.9559],[368467.3412,4689838.986],[368429.3887,4689831.2798],[368391.5927,4689822.8402],[368353.9671,4689813.6704],[368316.5262,4689803.7737],[368279.2839,4689793.1538],[368242.2542,4689781.815],[368205.4511,4689769.7612],[368168.8881,4689756.9971],[368132.5793,4689743.5275],[368096.5379,4689729.3573],[368060.7777,4689714.4918],[368025.3122,4689698.9368],[367990.1543,4689682.698],[367955.3176,4689665.7815],[367920.8149,4689648.1937],[367886.6592,4689629.9409],[367852.8634,4689611.0304],[367819.4401,4689591.469],[367786.4018,4689571.2641],[367753.7609,4689550.4232],[367721.5296,4689528.9543],[367689.7201,4689506.8653],[367658.3442,4689484.1646],[367627.4138,4689460.8605],[367596.9404,4689436.9619],[366675.0084,4688699.4158],[365228.6823,4688024.463],[365193.04,4688007.3991],[365157.7417,4687989.6343],[365122.8013,4687971.1755],[365088.2325,4687952.0301],[365054.0487,4687932.2054],[365020.2632,4687911.7091],[364986.8893,4687890.5494],[364953.9399,4687868.7344],[364921.428,4687846.2727],[364889.3662,4687823.173],[364857.7671,4687799.4443],[364826.643,4687775.096],[364796.006,4687750.1375],[364765.8681,4687724.5785],[364736.2409,4687698.429],[364707.1364,4687671.6994],[364678.5655,4687644.3999],[364650.5397,4687616.5413],[364623.0697,4687588.1343],[364596.1663,4687559.1902],[364569.8401,4687529.7203],[364544.1013,4687499.7358],[364518.9598,4687469.2487],[364494.4257,4687438.2709],[364470.5083,4687406.8143],[364447.2171,4687374.8914],[364424.5613,4687342.5145],[364402.5494,4687309.6963],[364381.1903,4687276.4496],[364360.4923,4687242.7874],[364340.4633,4687208.7228],[364321.1113,4687174.2691],[364302.4438,4687139.4398],[364284.4681,4687104.2486],[364267.1911,4687068.709],[364250.6198,4687032.835],[363252.746,4684815.3355],[363237.2852,4684780.0752],[363222.5061,4684744.5237],[363208.4141,4684708.6945],[363195.0144,4684672.6005],[363182.3119,4684636.2553],[363170.3116,4684599.6724],[363159.0175,4684562.8651],[363148.4341,4684525.8474],[363138.5653,4684488.6327],[363129.4147,4684451.235],[363120.9856,4684413.668],[362788.3613,4682861.4185],[362779.2891,4682816.585],[362360.8121,4680619.5754],[361848.7259,4679083.315],[361840.241,4679057.2671],[361083.1762,4676677.9173],[360329.8352,4674740.7524],[360316.035,4674704.2138],[360302.9509,4674667.4126],[360290.5879,4674630.363],[360278.951,4674593.079],[360268.0442,4674555.575],[360257.8719,4674517.865],[360248.438,4674479.9636],[360239.746,4674441.8853],[360231.7993,4674403.6444],[360224.6009,4674365.2556],[360218.1534,4674326.7335],[360212.4596,4674288.093],[360207.5214,4674249.3486],[360203.3406,4674210.5151],[360199.9191,4674171.6075],[360197.258,4674132.6404],[360195.3584,4674093.6287],[360194.221,4674054.5875],[360193.8461,4674015.5315],[360194.2341,4673976.4755],[360195.3846,4673937.4347],[360197.2974,4673898.4237],[360276.7794,4672547.2393],[359739.741,4671473.1616],[359723.2048,4671439.295],[359707.3096,4671405.1228],[359692.0612,4671370.6572],[359677.4649,4671335.9104],[359663.526,4671300.8946],[359650.2494,4671265.6225],[359637.6397,4671230.1065],[359625.7016,4671194.3591],[359614.4391,4671158.3931],[359603.8565,4671122.2213],[359593.9573,4671085.8565],[359584.745,4671049.3116],[359576.2231,4671012.5996],[359145.6634,4669075.0777],[358718.5507,4667580.181],[358709.1353,4667546.0885],[358700.3242,4667511.8348],[358692.1202,4667477.4305],[358684.5259,4667442.8866],[358677.5437,4667408.2139],[358671.1756,4667373.4231],[358250.6171,4664955.2053],[357662.0906,4663091.5354],[357157.7427,4661981.9689],[357141.8109,4661945.9831],[357126.5901,4661909.6907],[357112.0865,4661873.1058],[357098.3055,4661836.2427],[357085.2526,4661799.1155],[357072.9327,4661761.7387],[357061.3506,4661724.1267],[357050.5109,4661686.2941],[357040.4178,4661648.2555],[357031.075,4661610.0257],[357022.4863,4661571.6194],[357014.6548,4661533.0516],[357007.5839,4661494.3371],[357001.2761,4661455.4911],[356995.7339,4661416.5283],[356990.9593,4661377.4642],[356986.9544,4661338.3136],[356983.7206,4661299.0919],[356981.2592,4661259.814],[356979.5711,4661220.4953],[356978.657,4661181.1511],[356978.5172,4661141.7965],[356979.1519,4661102.4466],[356980.5607,4661063.117],[356982.7431,4661023.8227],[356985.6983,4660984.579],[356989.4249,4660945.4009],[356993.9219,4660906.3038],[357212.0253,4659161.4827],[357410.1124,4657081.5775],[357240.2374,4655722.5737],[356668.1444,4654006.2921],[356263.8567,4653096.6438],[356248.7781,4653061.8308],[356234.3624,4653026.7379],[356220.615,4652991.3779],[356207.5408,4652955.7636],[356195.1446,4652919.9076],[356183.4307,4652883.8229],[356172.4033,4652847.5226],[356162.0665,4652811.0195],[356152.424,4652774.3271],[356143.4792,4652737.4582],[356135.2354,4652700.4264],[356127.6955,4652663.2448],[356120.8623,4652625.9269],[356114.7381,4652588.4861],[356045.9855,4652141.5933],[355434.2941,4652039.6445],[355396.6315,4652032.9966],[355359.1029,4652025.6298],[355321.7219,4652017.5467],[355284.5025,4652008.7504],[355247.458,4651999.2439],[355210.6021,4651989.0309],[355173.9481,4651978.1149],[355137.5097,4651966.5],[355101.3001,4651954.1905],[355065.3323,4651941.191],[355029.6197,4651927.506],[354994.1754,4651913.1405],[354959.0122,4651898.1],[354924.1431,4651882.3899],[354889.5807,4651866.0158],[354855.3378,4651848.9838],[354821.4268,4651831.3003],[354787.8601,4651812.9715],[354754.6501,4651794.0041],[354721.8089,4651774.4052],[354689.3483,4651754.182],[353469.7242,4650978.0568],[353436.3814,4650956.3699],[353403.4765,4650934.0241],[353371.0225,4650911.0284],[353339.0322,4650887.3918],[353307.5183,4650863.1237],[353276.4932,4650838.2337],[353245.9693,4650812.7316],[353215.9586,4650786.6277],[353186.4728,4650759.9319],[353157.524,4650732.6552],[353129.1232,4650704.808],[353101.2817,4650676.4017],[353074.0108,4650647.4473],[353047.3211,4650617.9561],[353021.223,4650587.9402],[352995.7272,4650557.4111],[352970.8434,4650526.3811],[351751.2196,4648974.1313],[351728.1167,4648944.1477],[351705.5854,4648913.7323],[351683.6337,4648882.896],[351662.2695,4648851.6498],[351641.5004,4648820.0048],[350878.7362,4647633.4815],[349692.2135,4646870.7162],[349659.5117,4646849.2387],[349627.2364,4646827.1256],[349595.3997,4646804.3854],[349564.0139,4646781.0267],[349533.0911,4646757.0586],[349502.6431,4646732.4902],[349472.6814,4646707.3308],[349443.2177,4646681.5903],[349414.2631,4646655.2783],[349385.8288,4646628.405],[349357.9255,4646600.9805],[349330.564,4646573.0155],[349303.7549,4646544.5206],[349277.5083,4646515.5067],[349251.8341,4646485.9851],[349226.7425,4646455.9667],[349202.2427,4646425.4633],[349178.3445,4646394.4866],[349155.0566,4646363.0483],[349132.3882,4646331.1604],[349110.3479,4646298.8352],[349088.9443,4646266.0851],[349068.1853,4646232.9225],[349048.0789,4646199.3602],[349028.633,4646165.4111],[349009.8548,4646131.088],[348991.7517,4646096.4043],[348974.3304,4646061.373],[348957.5978,4646026.0076],[348941.5602,4645990.3217],[348926.2237,4645954.3289],[348911.5941,4645918.0429],[348897.6772,4645881.4778],[348884.4782,4645844.6474],[348872.0022,4645807.5659],[348860.254,4645770.2474],[348849.2379,4645732.7063],[348838.9583,4645694.9568],[348829.4191,4645657.0135],[348820.624,4645618.8909],[348812.5763,4645580.6034],[348709.5839,4645065.6402],[348453.6837,4644809.7397],[348419.4614,4644829.25],[348384.861,4644848.0817],[348349.8959,4644866.2273],[348314.5799,4644883.68],[348278.9265,4644900.4327],[348242.9496,4644916.4791],[348206.6634,4644931.813],[348170.0818,4644946.4282],[348133.2191,4644960.3193],[348096.0897,4644973.4806],[348058.7078,4644985.9073],[348021.0883,4644997.5942],[347983.2456,4645008.5371],[347945.1944,4645018.7317],[347906.9497,4645028.1738],[347868.526,4645036.8599],[347829.9387,4645044.7866],[347791.2025,4645051.9508],[347752.3325,4645058.3497],[347713.344,4645063.981],[347674.252,4645068.8421],[347635.0716,4645072.9316],[347595.8183,4645076.2474],[347556.5073,4645078.7887],[347517.1537,4645080.5541],[347477.773,4645081.5432],[347438.3804,4645081.7555],[347398.9914,4645081.1909],[347359.6211,4645079.8497],[347320.2848,4645077.7323],[347280.9981,4645074.8396],[347241.776,4645071.1728],[347202.6339,4645066.7332],[347163.5868,4645061.5225],[347124.6502,4645055.5429],[347085.839,4645048.7966],[347047.1685,4645041.2863],[347008.6535,4645033.0148],[346970.3092,4645023.9853],[346932.1504,4645014.2016],[346087.2177,4644788.8858],[345704.5788,4645018.4689],[345670.1783,4645038.6455],[345635.3824,4645058.1321],[345600.2048,4645076.921],[345564.6597,4645095.0047],[345528.7609,4645112.3761],[345492.523,4645129.0283],[345455.9602,4645144.9545],[345419.0871,4645160.1485],[345381.9184,4645174.6043],[345344.4688,4645188.316],[345306.7533,4645201.2783],[345268.7868,4645213.486],[345230.5845,4645224.9342],[345192.1614,4645235.6185],[345153.533,4645245.5344],[345114.7145,4645254.6782],[345075.7214,4645263.0461],[345036.5692,4645270.6348],[344997.2735,4645277.4413],[344957.8499,4645283.4629],[344918.314,4645288.6974],[344878.6816,4645293.1423],[344838.9684,4645296.7962],[344799.1905,4645299.6574],[344759.3632,4645301.725],[344719.5027,4645302.9979],[344679.6247,4645303.4758],[344639.7451,4645303.1585],[344599.8798,4645302.0461],[344560.0445,4645300.1389],[344520.2552,4645297.4379],[344480.5277,4645293.944],[344440.8778,4645289.6586],[344401.3212,4645284.5836],[344361.8736,4645278.7207],[344322.5508,4645272.0725],[344283.3684,4645264.6414],[342744.0467,4644956.7763],[341317.7308,4644854.8961],[341278.8765,4644851.7398],[341240.091,4644847.8269],[341201.3892,4644843.1588],[341162.7856,4644837.7373],[341124.2951,4644831.5644],[341085.9322,4644824.6424],[341047.7115,4644816.9741],[341009.6476,4644808.5624],[340971.7548,4644799.4102],[340934.0475,4644789.5214],[340896.5402,4644778.8994],[340859.2471,4644767.5485],[340822.1822,4644755.4728],[340785.3598,4644742.677],[340748.7937,4644729.166],[340712.498,4644714.9448],[340676.4862,4644700.0189],[340640.7724,4644684.394],[340605.3697,4644668.0759],[340570.2919,4644651.0711],[340535.5521,4644633.3856],[340501.1636,4644615.0265],[340467.1396,4644596.0005],[340433.4927,4644576.3151],[340400.2359,4644555.9777],[339593.8152,4644051.9642],[337017.8076,4642763.9589],[336281.0187,4642395.564],[336249.1766,4642417.3779],[336216.9109,4642438.5601],[336184.2342,4642459.1026],[336151.1591,4642478.9974],[336117.6985,4642498.2367],[336083.8653,4642516.813],[336049.6729,4642534.7192],[336015.1342,4642551.9483],[335980.2628,4642568.4935],[335945.0721,4642584.3486],[335909.5761,4642599.5074],[334579.0764,4643153.8814],[334543.0195,4643168.4952],[334506.6852,4643182.4048],[334470.0871,4643195.605],[334433.2392,4643208.0907],[334396.1555,4643219.8573],[334358.8497,4643230.9004],[334321.3364,4643241.2157],[334283.6295,4643250.7993],[334245.7432,4643259.6476],[334207.692,4643267.7573],[334169.4902,4643275.1252],[334131.1524,4643281.7487],[334092.693,4643287.6251],[330988.1941,4643731.1234],[330952.7017,4643735.8699],[330917.1298,4643739.9802],[330881.4901,4643743.453],[330845.794,4643746.2871],[330810.0527,4643748.4817],[330774.2781,4643750.0361],[327558.9044,4643860.9094],[327518.9939,4643861.887],[327479.0718,4643862.0676],[327439.1541,4643861.4514],[327399.2566,4643860.0385],[327359.3951,4643857.8295],[327319.5858,4643854.8254],[327279.8444,4643851.0272],[327240.1868,4643846.4366],[327200.6285,4643841.0552],[327161.1857,4643834.8853],[325488.5372,4643556.1097],[325487.1185,4643557.002],[325250.6728,4643465.3189],[323702.9072,4642623.1513],[322746.9346,4641849.2678],[322291.7096,4641007.1008],[321525.7875,4639790.6348],[321529.8242,4639789.3835],[321523.8761,4639787.599]]]]},"geometry_name":"GEOMETRIA","properties":{"OBJECTID":1,"CODI_CONN":"CFP007","NOM_CONN":"El Segre","AREA_HA":82163.25,"PERIM_M":416487.15}}],"totalFeatures":1,"numberMatched":1,"numberReturned":1,"timeStamp":"2026-07-07T17:36:03.151Z","crs":{"type":"name","properties":{"name":"urn:ogc:def:crs:EPSG::25831"}}}