{"type":"FeatureCollection","features":[{"type":"Feature","id":"CONECO_CONNECTORS_FLUV_COMPL.2346","geometry":{"type":"MultiLineString","coordinates":[[[365082.2414,4670117.819],[365068.0714,4670129.9687],[365031.6419,4670140.0985],[365013.422,4670134.0185],[364962.8124,4670097.5789],[364946.6226,4670089.479],[364910.1931,4670083.3991],[364891.9733,4670085.4291],[364875.7732,4670093.5289],[364856.2232,4670111.099],[364844.7437,4670128.8386],[364840.1434,4670146.8787],[364838.0038,4670168.2883],[364844.4237,4670185.4182],[364849.5733,4670213.1181],[364842.2836,4670238.9376],[364788.7841,4670296.7372],[364773.8042,4670307.4369],[364756.6841,4670316.0071],[364722.4347,4670326.7068],[364703.175,4670326.7068],[364674.2451,4670322.7869],[364664.6549,4670318.1467],[364651.8152,4670305.2972],[364632.3352,4670280.447],[364623.9954,4670275.327],[364604.7357,4670275.327],[364570.496,4670290.3172],[364525.5566,4670324.5665],[364506.2964,4670333.1266],[364497.5868,4670335.4664],[364487.0367,4670335.2765],[364477.9268,4670333.2264],[364469.9171,4670328.8469],[364459.2072,4670313.8669],[364450.6472,4670296.7371],[364446.3674,4670279.6072],[364442.1773,4670273.3271],[364433.5275,4670266.7674],[364416.2575,4670259.9072],[364397.1477,4670258.1971],[364380.0276,4670262.4871],[364370.228,4670267.9572],[364362.9081,4670268.907],[364322.2485,4670264.6272],[364302.9887,4670266.7674],[364288.0088,4670279.6072],[364277.3086,4670294.5968],[364262.3291,4670328.8468],[364258.0489,4670367.3861],[364252.699,4670373.4661],[364243.0689,4670378.0863],[364223.8092,4670382.3661],[364206.6896,4670390.9359],[364198.6293,4670398.0557],[364193.8396,4670405.9158],[364187.4196,4670444.4553],[364178.8596,4670461.5856],[364166.0198,4670478.7051],[364151.0398,4670489.415],[364133.9202,4670493.6948],[364116.8503,4670494.1751],[364095.3204,4670488.5851],[364080.4207,4670482.9951],[364055.4109,4670477.635],[364033.9608,4670480.3153],[364024.7813,4670485.1352],[364009.8014,4670502.2548],[364001.2412,4670536.5144],[363990.5416,4670551.4944],[363973.4215,4670562.2043],[363947.7116,4670567.4942],[363898.5125,4670557.9245],[363879.2523,4670557.9245],[363849.8427,4670564.8144],[363823.6132,4670581.4639],[363815.4331,4670584.4842],[363787.2334,4670590.0337],[363755.1036,4670590.2938],[363746.5738,4670592.1739],[363714.4738,4670613.584],[363688.7941,4670639.2733],[363671.6745,4670647.8333],[363652.4046,4670652.1131],[363624.0646,4670647.8333],[363564.8053,4670648.7134],[363531.8358,4670639.4334],[363502.0761,4670637.1336],[363484.8163,4670635.2535],[363467.8364,4670637.1335],[363446.4366,4670639.2732],[363392.9372,4670654.2532],[363371.5373,4670654.2531],[363333.0077,4670649.9733],[363294.4876,4670654.2531],[363260.248,4670662.8228],[363238.8487,4670664.963],[363198.1891,4670664.963],[363159.6691,4670660.6832],[363138.2692,4670654.2531],[363119.0095,4670652.1129],[363082.6298,4670662.8227],[363048.3804,4670679.9429],[363012.0005,4670692.7928],[362994.8809,4670701.3524],[362919.9817,4670716.3426],[362902.8615,4670727.0423],[362886.7516,4670732.4223],[362866.4818,4670737.7521],[362825.8222,4670737.7521],[362806.5527,4670735.6119],[362748.773,4670742.0319],[362633.2142,4670793.4115],[362616.094,4670799.8315],[362577.5746,4670808.4012],[362498.3853,4670808.4011],[362459.8659,4670806.2513],[362423.4861,4670799.8314],[362384.9666,4670801.9714],[362365.7069,4670806.2513],[362346.4467,4670812.6814],[362277.9673,4670849.0709],[362220.1779,4670876.9004],[362203.0583,4670883.3305],[362185.9382,4670887.6103],[362147.4188,4670889.7504],[362128.1591,4670894.0302],[362108.8988,4670900.4501],[362091.7792,4670909.0203],[362063.9595,4670934.7102],[362016.6797,4670963.0696],[362008.6102,4670972.6895],[362004.0299,4670981.8096],[361998.2203,4671011.1592],[361983.61,4671058.099],[361969.7902,4671080.2785],[361945.5303,4671100.8085],[361906.4215,4671124.3071],[361901.3108,4671127.378],[361842.4616,4671150.8278],[361796.4521,4671159.498],[361773.6222,4671160.4477],[361740.9324,4671155.4378]]]},"geometry_name":"GEOMETRIA","properties":{"OBJECTID":2346,"CODI_CONN":"CFC032","ESPAI_CONF":"Serres d'Odèn-Port del Comte - CFP007","LONG_M":3997.83}}],"totalFeatures":1,"numberMatched":1,"numberReturned":1,"timeStamp":"2026-07-07T17:36:02.863Z","crs":{"type":"name","properties":{"name":"urn:ogc:def:crs:EPSG::25831"}}}