{"type":"FeatureCollection","features":[{"type":"Feature","id":"CONECO_CONNECTORS_TERR_PPAL.87","geometry":{"type":"MultiPolygon","coordinates":[[[[373300.967,4660453.6714],[371101.8538,4667588.8188],[367280.7734,4666406.0083],[369460.5592,4659280.212],[373300.967,4660453.6714]]]]},"geometry_name":"GEOMETRIA","properties":{"OBJECTID":87,"CODI_CONN":"CTP026","ESPAIS":"Serres d'Odèn - Port del Compte / Ribera Salada","AREA_HA":2989.45,"PERIM_M":22933.74}},{"type":"Feature","id":"CONECO_CONNECTORS_TERR_PPAL.88","geometry":{"type":"MultiPolygon","coordinates":[[[[381198.306,4665579.031],[376671.7302,4667722.3414],[374957.1779,4664108.4784],[379581.2933,4661882.9985],[381198.306,4665579.031]]]]},"geometry_name":"GEOMETRIA","properties":{"OBJECTID":88,"CODI_CONN":"CTP028","ESPAIS":"Serres d'Odèn - Port del Compte / Serres de Busa - els Bastets - Lord","AREA_HA":2036.14,"PERIM_M":18174.38}},{"type":"Feature","id":"CONECO_CONNECTORS_TERR_PPAL.7","geometry":{"type":"MultiPolygon","coordinates":[[[[360272.8785,4664475.5445],[364045.1289,4666193.0794],[368735.9366,4668328.8402],[367078.441,4671969.2255],[360735.4544,4669081.2147],[357761.6265,4667727.2079],[359419.1222,4664086.8226],[360272.8785,4664475.5445]]]]},"geometry_name":"GEOMETRIA","properties":{"OBJECTID":7,"CODI_CONN":"CTP024","ESPAIS":"Serra de Turp i Mora Condal - Valldan / Serres d'Odèn - Port del Compte / Serra d'Aubenç i Roc de Cogul","AREA_HA":4094.79,"PERIM_M":28474.08}},{"type":"Feature","id":"CONECO_CONNECTORS_TERR_PPAL.58","geometry":{"type":"MultiPolygon","coordinates":[[[[386534.0763,4677742.162],[383801.4904,4677800.7165],[383758.6435,4677801.1755],[383683.2261,4677799.753],[382648.7473,4677760.7157],[382570.773,4677756.2471],[381555.8126,4677678.1729],[381519.3744,4677675.0346],[381482.9996,4677671.2304],[381446.7006,4677666.7619],[381410.4893,4677661.6302],[381374.378,4677655.8373],[380339.8991,4677480.1707],[380303.975,4677473.7326],[380268.1745,4677466.6401],[380232.5093,4677458.8954],[380196.9914,4677450.5013],[380161.6326,4677441.4604],[380126.4446,4677431.7758],[380091.4393,4677421.4507],[380056.6281,4677410.4887],[379275.8203,4677156.7258],[379191.2436,4677127.1277],[379127.9639,4677102.1424],[378327.7066,4676770.3282],[378291.8392,4676755.0448],[378256.2763,4676739.0652],[378221.0318,4676722.3955],[378186.1189,4676705.0418],[378151.5509,4676687.011],[378117.341,4676668.3097],[378083.5021,4676648.945],[378050.0471,4676628.9244],[378016.9888,4676608.2555],[377984.3396,4676586.9461],[377223.1195,4676079.4656],[377191.8684,4676058.2023],[377161.0248,4676036.3522],[377130.5997,4676013.923],[377100.6038,4675990.9229],[377071.0481,4675967.36],[377041.9429,4675943.2428],[377013.2986,4675918.5797],[376985.1256,4675893.3798],[376957.4339,4675867.6518],[376930.2334,4675841.4053],[376903.5336,4675814.6492],[376877.3444,4675787.3935],[376233.2351,4675104.2468],[376206.6413,4675075.4819],[376180.616,4675046.2016],[376155.1692,4675016.4173],[376130.3105,4674986.1402],[376106.0498,4674955.3821],[376082.3961,4674924.1547],[376059.3585,4674892.4699],[376036.946,4674860.3401],[374143.6554,4672088.7167],[377446.5647,4669832.5059],[379251.2856,4672474.4702],[379631.4198,4672877.6431],[380040.4028,4673150.2987],[380587.1587,4673377.0025],[381153.7721,4673561.1521],[381953.8253,4673697.0105],[382838.614,4673765.0714],[383774.9443,4673800.405],[386448.3838,4673743.1179],[386534.0763,4677742.162]]]]},"geometry_name":"GEOMETRIA","properties":{"OBJECTID":58,"CODI_CONN":"CTP027","ESPAIS":"Serres d'Odèn - Port del Compte / Serres del Cadí - el Moixeró / Serra del Verd","AREA_HA":5092.78,"PERIM_M":33461.82}},{"type":"Feature","id":"CONECO_CONNECTORS_TERR_PPAL.5","geometry":{"type":"MultiPolygon","coordinates":[[[[368798.9521,4676650.0252],[363672.0989,4680787.9387],[361159.879,4677675.3115],[366286.7321,4673537.398],[368798.9521,4676650.0252]]]]},"geometry_name":"GEOMETRIA","properties":{"OBJECTID":5,"CODI_CONN":"CTP023","ESPAIS":"Serra de Prada - Castellàs / Serres d'Odèn - Port del Compte","AREA_HA":2635.33,"PERIM_M":21176.71}},{"type":"Feature","id":"CONECO_CONNECTORS_TERR_PPAL.98","geometry":{"type":"MultiPolygon","coordinates":[[[[378432.5254,4678552.0268],[376483.9206,4682045.2542],[368832.6819,4677777.2126],[370781.2867,4674283.9854],[378432.5254,4678552.0268]]]]},"geometry_name":"GEOMETRIA","properties":{"OBJECTID":98,"CODI_CONN":"CTP025","ESPAIS":"Serres d'Odèn - Port del Compte / Serres del Cadí - el Moixeró","AREA_HA":3504.42,"PERIM_M":25522.21}}],"totalFeatures":6,"numberMatched":6,"numberReturned":6,"timeStamp":"2026-07-07T17:36:03.660Z","crs":{"type":"name","properties":{"name":"urn:ogc:def:crs:EPSG::25831"}}}