{"type":"FeatureCollection","features":[{"type":"Feature","id":"CONECO_CONNECTORS_TERR_COMPL.6","geometry":{"type":"MultiPolygon","coordinates":[[[[369065.04,4665472.2008],[368468.3906,4667126.5449],[367057.3681,4666617.6509],[367654.0176,4664963.3069],[369065.04,4665472.2008]]]]},"geometry_name":"GEOMETRIA","properties":{"OBJECTID":6,"CODI_CONN":"CTC010","ESPAIS":"Serres d'Odèn - Port del Compte / Ribera Salada","AREA_HA":263.79,"PERIM_M":6517.27}},{"type":"Feature","id":"CONECO_CONNECTORS_TERR_COMPL.7","geometry":{"type":"MultiPolygon","coordinates":[[[[371387.3013,4665321.494],[371333.0599,4667138.5607],[369833.7419,4667093.8045],[369887.9834,4665276.7378],[371387.3013,4665321.494]]]]},"geometry_name":"GEOMETRIA","properties":{"OBJECTID":7,"CODI_CONN":"CTC012","ESPAIS":"Serres d'Odèn - Port del Compte / Ribera Salada","AREA_HA":272.68,"PERIM_M":6635.72}}],"totalFeatures":2,"numberMatched":2,"numberReturned":2,"timeStamp":"2026-07-07T17:36:03.420Z","crs":{"type":"name","properties":{"name":"urn:ogc:def:crs:EPSG::25831"}}}