{"type":"FeatureCollection","features":[{"type":"Feature","id":"VEGETACIO_INCENDIS.211918","geometry":{"type":"MultiPolygon","coordinates":[[[[373306.4846,4672551.2263],[373281.4846,4672551.2265],[373281.4848,4672576.2265],[373256.4847,4672576.2267],[373256.4849,4672601.2268],[373206.4848,4672601.2271],[373206.485,4672626.2272],[373181.485,4672626.2274],[373181.4844,4672551.2273],[373206.4845,4672551.2271],[373206.4843,4672526.227],[373181.4842,4672526.2272],[373181.484,4672501.2272],[373131.484,4672501.2276],[373131.4838,4672476.2275],[373081.4837,4672476.2279],[373081.4835,4672451.2279],[373056.4835,4672451.228],[373056.4833,4672426.228],[373006.4832,4672426.2284],[373006.483,4672401.2283],[372931.4829,4672401.2289],[372931.4827,4672376.2289],[372881.4826,4672376.2293],[372881.4824,4672351.2292],[372831.4824,4672351.2296],[372831.4822,4672326.2296],[372806.4821,4672326.2297],[372806.482,4672301.2297],[372781.4819,4672301.2299],[372781.4817,4672276.2299],[372731.4816,4672276.2302],[372731.4815,4672251.2302],[372706.4814,4672251.2304],[372706.4812,4672226.2303],[372681.4812,4672226.2305],[372681.4808,4672176.2305],[372706.4809,4672176.2303],[372706.4807,4672151.2302],[372781.4808,4672151.2297],[372781.4806,4672126.2296],[372806.4806,4672126.2294],[372806.4804,4672101.2294],[372781.4804,4672101.2296],[372781.48,4672051.2295],[372881.4802,4672051.2287],[372881.4804,4672076.2288],[372906.4804,4672076.2286],[372906.4806,4672101.2286],[372956.4807,4672101.2283],[372956.4809,4672126.2283],[372981.4809,4672126.2281],[372981.4811,4672151.2281],[373131.4813,4672151.227],[373131.4819,4672226.2271],[373156.4819,4672226.2269],[373156.4821,4672251.227],[373181.4822,4672251.2268],[373181.4825,4672301.2269],[373206.4826,4672301.2267],[373206.4831,4672376.2268],[373231.4832,4672376.2266],[373231.4834,4672401.2266],[373256.4834,4672401.2264],[373256.4836,4672426.2265],[373281.4836,4672426.2263],[373281.4838,4672451.2263],[373256.4838,4672451.2265],[373256.484,4672476.2266],[373281.484,4672476.2264],[373281.4842,4672501.2264],[373306.4842,4672501.2262],[373306.4846,4672551.2263]]]]},"geometry_name":"SHAPE","properties":{"DATES_FOC":" - 27/02/00 -","CREMAT":"2","OBJECTID":211918}},{"type":"Feature","id":"VEGETACIO_INCENDIS.212297","geometry":{"type":"MultiPolygon","coordinates":[[[[371187.6543,4675381.9411],[371167.681,4675401.9147],[371167.6811,4675417.4496],[371154.3655,4675430.7653],[371143.2693,4675437.4232],[371125.5149,4675419.6692],[371101.1028,4675401.9152],[371090.0062,4675375.284],[371083.3484,4675364.1878],[371067.8136,4675381.942],[371052.2787,4675384.1614],[371041.1822,4675357.5302],[371018.9895,4675357.5304],[370992.3584,4675379.7233],[370979.0427,4675373.0656],[370965.727,4675357.5308],[370945.7535,4675357.531],[370941.3151,4675375.2852],[370921.3417,4675379.7239],[370888.0527,4675384.1626],[370872.5178,4675388.6013],[370848.1056,4675361.9702],[370830.3514,4675346.4355],[370837.009,4675324.2427],[370848.1052,4675308.7077],[370865.8593,4675299.8305],[370861.4206,4675277.6379],[370845.8856,4675255.4453],[370832.5698,4675244.349],[370830.3504,4675224.3756],[370863.6392,4675193.3055],[370861.4198,4675173.3321],[370845.8849,4675166.6744],[370801.4994,4675162.2362],[370803.7188,4675173.3326],[370781.5261,4675171.1135],[370737.1404,4675142.2633],[370723.8246,4675111.1936],[370734.9207,4675075.6852],[370714.947,4675051.2733],[370739.3587,4675015.7648],[370728.2621,4674984.6951],[370728.2619,4674951.406],[370759.3314,4674913.6782],[370783.7432,4674891.4853],[370817.0324,4674909.2392],[370819.2518,4674922.5548],[370834.7867,4674931.4318],[370852.541,4674942.528],[370872.5145,4674949.1857],[370885.8304,4674986.9132],[370925.7773,4674989.1321],[370943.5316,4675011.3247],[370983.4784,4675000.228],[371014.5485,4675035.7362],[371043.399,4675040.1745],[371063.3725,4675049.0514],[371090.0038,4675049.0512],[371103.3194,4675046.8318],[371114.4159,4675060.1474],[371141.0472,4675069.0242],[371156.5823,4675095.6554],[371161.0209,4675102.3132],[371178.7751,4675111.1901],[371187.6524,4675135.602],[371205.4066,4675140.0405],[371225.3801,4675157.7944],[371234.2572,4675148.9173],[371243.1343,4675155.575],[371243.1344,4675173.3292],[371258.6694,4675184.4255],[371269.7657,4675182.2061],[371280.8622,4675191.0831],[371285.3009,4675211.0565],[371280.8624,4675222.1529],[371287.5204,4675248.7841],[371305.2747,4675268.7574],[371305.2749,4675293.1694],[371287.5211,4675335.3357],[371280.8633,4675341.9935],[371291.9599,4675379.721],[371280.8637,4675395.256],[371278.6445,4675404.1331],[371260.8904,4675404.1333],[371232.0398,4675395.2564],[371200.9699,4675381.941],[371187.6543,4675381.9411]]]]},"geometry_name":"SHAPE","properties":{"DATES_FOC":"  - 01/08/12  -","CREMAT":"2","OBJECTID":212297}},{"type":"Feature","id":"VEGETACIO_INCENDIS.212127","geometry":{"type":"MultiPolygon","coordinates":[[[[279330.4845,4559931.7648],[279330.4843,4559906.7648],[279305.4843,4559906.765],[279305.4841,4559881.7649],[279330.4841,4559881.7647],[279330.4839,4559856.7647],[279380.484,4559856.7643],[279380.4838,4559831.7643],[279505.484,4559831.7633],[279505.4842,4559856.7634],[279530.4842,4559856.7632],[279530.4844,4559881.7632],[279455.4843,4559881.7638],[279455.4845,4559906.7638],[279380.4844,4559906.7644],[279380.4846,4559931.7644],[279330.4845,4559931.7648]]],[[[348060.6886,4572816.2633],[348060.6881,4572741.2632],[348035.688,4572741.2634],[348035.6875,4572666.2633],[348060.6875,4572666.2631],[348060.6871,4572616.263],[348085.6872,4572616.2628],[348085.6874,4572641.2629],[348110.6874,4572641.2627],[348110.6876,4572666.2627],[348160.6877,4572666.2623],[348160.6878,4572691.2624],[348110.6878,4572691.2628],[348110.6887,4572816.263],[348060.6886,4572816.2633]]],[[[348235.6868,4572541.2616],[348260.6869,4572541.2614],[348260.6874,4572616.2615],[348285.6875,4572616.2613],[348285.6879,4572666.2614],[348235.6878,4572666.2618],[348235.6876,4572641.2617],[348160.6875,4572641.2623],[348160.6873,4572616.2623],[348210.6874,4572616.2619],[348210.687,4572566.2618],[348235.687,4572566.2616],[348235.6868,4572541.2616]]],[[[502976.8314,4691765.2723],[502976.8318,4691825.2723],[502956.8318,4691825.2725],[502956.8318,4691820.2725],[502931.8317,4691820.2727],[502931.8315,4691795.2726],[502906.8315,4691795.2728],[502906.8313,4691770.2728],[502881.8313,4691770.273],[502881.8309,4691720.2729],[502906.8309,4691720.2727],[502906.8311,4691745.2727],[502981.8312,4691745.2722],[502981.8314,4691765.2722],[502976.8314,4691765.2723]]],[[[316531.0821,4631096.5928],[316581.0821,4631096.5924],[316581.0825,4631146.5925],[316531.0825,4631146.5929],[316531.0821,4631096.5928]]],[[[348385.6861,4572416.2602],[348385.6859,4572391.2602],[348410.686,4572391.26],[348410.6858,4572366.26],[348435.6858,4572366.2598],[348435.6862,4572416.2599],[348385.6861,4572416.2602]]],[[[326856.3714,4667121.5704],[326856.3712,4667096.5704],[326831.3711,4667096.5706],[326831.3709,4667071.5706],[326881.371,4667071.5702],[326881.3714,4667121.5703],[326856.3714,4667121.5704]]],[[[348135.6908,4573091.2632],[348135.6907,4573066.2632],[348160.6907,4573066.263],[348160.6905,4573041.2629],[348185.6905,4573041.2627],[348185.6909,4573091.2628],[348135.6908,4573091.2632]]],[[[348110.6891,4572866.263],[348110.6893,4572891.2631],[348085.6893,4572891.2633],[348085.6889,4572841.2632],[348135.6889,4572841.2628],[348135.6891,4572866.2628],[348110.6891,4572866.263]]],[[[348385.6867,4572491.2604],[348385.6869,4572516.2604],[348360.6868,4572516.2606],[348360.6866,4572491.2605],[348385.6867,4572491.2604]]],[[[326856.3723,4667246.5706],[326881.3724,4667246.5704],[326881.3725,4667271.5705],[326856.3725,4667271.5707],[326856.3723,4667246.5706]]],[[[348385.6867,4572491.2604],[348385.6865,4572466.2603],[348410.6865,4572466.2601],[348410.6867,4572491.2602],[348385.6867,4572491.2604]]],[[[347585.689,4572966.2672],[347610.6891,4572966.267],[347610.6893,4572991.267],[347585.6892,4572991.2672],[347585.689,4572966.2672]]],[[[279230.4849,4560006.7657],[279230.4847,4559981.7656],[279255.4848,4559981.7655],[279255.4849,4560006.7655],[279230.4849,4560006.7657]]],[[[326831.3723,4667246.5708],[326831.3721,4667221.5708],[326856.3721,4667221.5706],[326856.3723,4667246.5706],[326831.3723,4667246.5708]]]]},"geometry_name":"SHAPE","properties":{"DATES_FOC":" -   -","CREMAT":"2","OBJECTID":212127}}],"totalFeatures":3,"numberMatched":3,"numberReturned":3,"timeStamp":"2026-07-07T15:48:03.692Z","crs":{"type":"name","properties":{"name":"urn:ogc:def:crs:EPSG::25831"}}}