{"type":"FeatureCollection","features":[{"type":"Feature","id":"AIGUA_FONTS.36114052","geometry":{"type":"MultiPoint","coordinates":[[375880.09,4675763.58]]},"geometry_name":"SHAPE","properties":{"OBJECTID":36114052,"CODIBDH":"25909-0005","NOM":"FONT DE RIU FRED (SORRIBES, SANT PERE I MONTARGULL)","TIPUS":"Font","MUNICIPI":"VANSA I FÓRNOLS","COMARCA":"Alt Urgell","CONCA":"Ebre SEGRE, EL ","MASSA":"Cadí-Port del Comte","TIPUSUS":"Ambiental"}},{"type":"Feature","id":"AIGUA_FONTS.36114051","geometry":{"type":"MultiPoint","coordinates":[[375880.09,4675763.58]]},"geometry_name":"SHAPE","properties":{"OBJECTID":36114051,"CODIBDH":"25909-0005","NOM":"FONT DE RIU FRED (SORRIBES, SANT PERE I MONTARGULL)","TIPUS":"Font","MUNICIPI":"VANSA I FÓRNOLS","COMARCA":"Alt Urgell","CONCA":"Ebre SEGRE, EL ","MASSA":"Cadí-Port del Comte","TIPUSUS":"Agropecuari"}},{"type":"Feature","id":"AIGUA_FONTS.36114050","geometry":{"type":"MultiPoint","coordinates":[[375880.09,4675763.58]]},"geometry_name":"SHAPE","properties":{"OBJECTID":36114050,"CODIBDH":"25909-0005","NOM":"FONT DE RIU FRED (SORRIBES, SANT PERE I MONTARGULL)","TIPUS":"Font","MUNICIPI":"VANSA I FÓRNOLS","COMARCA":"Alt Urgell","CONCA":"Ebre SEGRE, EL ","MASSA":"Cadí-Port del Comte","TIPUSUS":"Abastament"}},{"type":"Feature","id":"AIGUA_FONTS.36112962","geometry":{"type":"MultiPoint","coordinates":[[371056.48,4671746.24]]},"geometry_name":"SHAPE","properties":{"OBJECTID":36112962,"CODIBDH":"25908-0017","NOM":"FONT PÚBLICA DE VALL DEL MIG","TIPUS":"Font","MUNICIPI":"FÍGOLS I ALINYÀ","COMARCA":"Alt Urgell","CONCA":"Ebre EL SEGRE Riu de Perles","MASSA":"Cadí-Port del Comte","TIPUSUS":"Ambiental"}},{"type":"Feature","id":"AIGUA_FONTS.36113339","geometry":{"type":"MultiPoint","coordinates":[[372340.49,4672856.23]]},"geometry_name":"SHAPE","properties":{"OBJECTID":36113339,"CODIBDH":"25908-0002","NOM":"FONT 1 NEGRA","TIPUS":"Font","MUNICIPI":"FÍGOLS I ALINYÀ","COMARCA":"Alt Urgell","CONCA":"Ebre SEGRE, EL ","MASSA":"Cadí-Port del Comte","TIPUSUS":"Abastament"}},{"type":"Feature","id":"AIGUA_FONTS.36113340","geometry":{"type":"MultiPoint","coordinates":[[372340.49,4672856.23]]},"geometry_name":"SHAPE","properties":{"OBJECTID":36113340,"CODIBDH":"25908-0002","NOM":"FONT 1 NEGRA","TIPUS":"Font","MUNICIPI":"FÍGOLS I ALINYÀ","COMARCA":"Alt Urgell","CONCA":"Ebre SEGRE, EL ","MASSA":"Cadí-Port del Comte","TIPUSUS":"Agropecuari"}},{"type":"Feature","id":"AIGUA_FONTS.36113341","geometry":{"type":"MultiPoint","coordinates":[[372340.49,4672856.23]]},"geometry_name":"SHAPE","properties":{"OBJECTID":36113341,"CODIBDH":"25908-0002","NOM":"FONT 1 NEGRA","TIPUS":"Font","MUNICIPI":"FÍGOLS I ALINYÀ","COMARCA":"Alt Urgell","CONCA":"Ebre SEGRE, EL ","MASSA":"Cadí-Port del Comte","TIPUSUS":"Ambiental"}},{"type":"Feature","id":"AIGUA_FONTS.36112387","geometry":{"type":"MultiPoint","coordinates":[[372873,4672983]]},"geometry_name":"SHAPE","properties":{"OBJECTID":36112387,"CODIBDH":"25908-0022","NOM":"FONT DELS REGUERS","TIPUS":"Font","MUNICIPI":"FÍGOLS I ALINYÀ","COMARCA":"Alt Urgell","CONCA":"Ebre SEGRE, EL ","MASSA":"Cadí-Port del Comte","TIPUSUS":"Abastament"}},{"type":"Feature","id":"AIGUA_FONTS.36113263","geometry":{"type":"MultiPoint","coordinates":[[371985,4672997]]},"geometry_name":"SHAPE","properties":{"OBJECTID":36113263,"CODIBDH":"25908-0026","NOM":"FONT NEGRA 2 (L'ALZINA)","TIPUS":"Font","MUNICIPI":"FÍGOLS I ALINYÀ","COMARCA":"Alt Urgell","CONCA":"Ebre SEGRE, EL ","MASSA":"Cadí-Port del Comte","TIPUSUS":"Abastament"}},{"type":"Feature","id":"AIGUA_FONTS.36113327","geometry":{"type":"MultiPoint","coordinates":[[372120,4673097]]},"geometry_name":"SHAPE","properties":{"OBJECTID":36113327,"CODIBDH":"25908-0023","NOM":"FONT DE LA MENTA","TIPUS":"Font","MUNICIPI":"FÍGOLS I ALINYÀ","COMARCA":"Alt Urgell","CONCA":"Ebre SEGRE, EL ","MASSA":"Cadí-Port del Comte","TIPUSUS":"Abastament"}},{"type":"Feature","id":"AIGUA_FONTS.36114180","geometry":{"type":"MultiPoint","coordinates":[[374154,4673443]]},"geometry_name":"SHAPE","properties":{"OBJECTID":36114180,"CODIBDH":"25909-0002","NOM":"FONT BARRULLA (OSSERA I MASIES D'OSSERA)","TIPUS":"Font","MUNICIPI":"VANSA I FÓRNOLS","COMARCA":"Alt Urgell","CONCA":"Ebre SEGRE, EL ","MASSA":"Cadí-Port del Comte","TIPUSUS":"Abastament"}},{"type":"Feature","id":"AIGUA_FONTS.36114181","geometry":{"type":"MultiPoint","coordinates":[[374154,4673443]]},"geometry_name":"SHAPE","properties":{"OBJECTID":36114181,"CODIBDH":"25909-0002","NOM":"FONT BARRULLA (OSSERA I MASIES D'OSSERA)","TIPUS":"Font","MUNICIPI":"VANSA I FÓRNOLS","COMARCA":"Alt Urgell","CONCA":"Ebre SEGRE, EL ","MASSA":"Cadí-Port del Comte","TIPUSUS":"Ambiental"}},{"type":"Feature","id":"AIGUA_FONTS.36113365","geometry":{"type":"MultiPoint","coordinates":[[367312,4668689]]},"geometry_name":"SHAPE","properties":{"OBJECTID":36113365,"CODIBDH":"25908-0024","NOM":"FONT COLL DE BOIX","TIPUS":"Font","MUNICIPI":"FÍGOLS I ALINYÀ","COMARCA":"Alt Urgell","CONCA":"Ebre SEGRE, EL ","MASSA":"Cadí-Port del Comte","TIPUSUS":"Abastament"}},{"type":"Feature","id":"AIGUA_FONTS.36113371","geometry":{"type":"MultiPoint","coordinates":[[367406.45,4669646.27]]},"geometry_name":"SHAPE","properties":{"OBJECTID":36113371,"CODIBDH":"25908-0018","NOM":"FONT DEL GRAU","TIPUS":"Font","MUNICIPI":"FÍGOLS I ALINYÀ","COMARCA":"Alt Urgell","CONCA":"Ebre EL SEGRE Riu de Perles","MASSA":"Cadí-Port del Comte","TIPUSUS":"Agropecuari"}},{"type":"Feature","id":"AIGUA_FONTS.36113372","geometry":{"type":"MultiPoint","coordinates":[[367406.45,4669646.27]]},"geometry_name":"SHAPE","properties":{"OBJECTID":36113372,"CODIBDH":"25908-0018","NOM":"FONT DEL GRAU","TIPUS":"Font","MUNICIPI":"FÍGOLS I ALINYÀ","COMARCA":"Alt Urgell","CONCA":"Ebre EL SEGRE Riu de Perles","MASSA":"Cadí-Port del Comte","TIPUSUS":"Ambiental"}},{"type":"Feature","id":"AIGUA_FONTS.36113381","geometry":{"type":"MultiPoint","coordinates":[[369729.96,4670508.45]]},"geometry_name":"SHAPE","properties":{"OBJECTID":36113381,"CODIBDH":"25908-0016","NOM":"FONT PÚBLICA DE LES SORTS","TIPUS":"Font","MUNICIPI":"FÍGOLS I ALINYÀ","COMARCA":"Alt Urgell","CONCA":"Ebre EL SEGRE Riu de Perles","MASSA":"Cadí-Port del Comte","TIPUSUS":"Ambiental"}},{"type":"Feature","id":"AIGUA_FONTS.36112677","geometry":{"type":"MultiPoint","coordinates":[[370530,4670424]]},"geometry_name":"SHAPE","properties":{"OBJECTID":36112677,"CODIBDH":"25908-0027","NOM":"FONT L'AIGUANEIX (VALL-LLONGA)","TIPUS":"Font","MUNICIPI":"FÍGOLS I ALINYÀ","COMARCA":"Alt Urgell","CONCA":"Ebre SEGRE, EL ","MASSA":"Cadí-Port del Comte","TIPUSUS":"Abastament"}},{"type":"Feature","id":"AIGUA_FONTS.36113090","geometry":{"type":"MultiPoint","coordinates":[[366779,4671652]]},"geometry_name":"SHAPE","properties":{"OBJECTID":36113090,"CODIBDH":"25908-0028","NOM":"FONT PARATGE CAL PENYA","TIPUS":"Font","MUNICIPI":"FÍGOLS I ALINYÀ","COMARCA":"Alt Urgell","CONCA":"Ebre SEGRE, EL ","MASSA":"Cadí-Port del Comte","TIPUSUS":"Abastament"}},{"type":"Feature","id":"AIGUA_FONTS.36112577","geometry":{"type":"MultiPoint","coordinates":[[367957.28,4673521.27]]},"geometry_name":"SHAPE","properties":{"OBJECTID":36112577,"CODIBDH":"25239-0032","NOM":"LES FONTANELLES","TIPUS":"Font","MUNICIPI":"VALLS DE VALIRA, LES","COMARCA":"Alt Urgell","CONCA":"Ebre EL SEGRE la Valira","MASSA":"Cadí-Port del Comte","TIPUSUS":"Agropecuari"}},{"type":"Feature","id":"AIGUA_FONTS.36112578","geometry":{"type":"MultiPoint","coordinates":[[367957.28,4673521.27]]},"geometry_name":"SHAPE","properties":{"OBJECTID":36112578,"CODIBDH":"25239-0032","NOM":"LES FONTANELLES","TIPUS":"Font","MUNICIPI":"VALLS DE VALIRA, LES","COMARCA":"Alt Urgell","CONCA":"Ebre EL SEGRE la Valira","MASSA":"Cadí-Port del Comte","TIPUSUS":"Ambiental"}},{"type":"Feature","id":"AIGUA_FONTS.36112868","geometry":{"type":"MultiPoint","coordinates":[[368756.49,4674346.26]]},"geometry_name":"SHAPE","properties":{"OBJECTID":36112868,"CODIBDH":"25908-0015","NOM":"FONT PÚBLICA DEL FORN","TIPUS":"Font","MUNICIPI":"FÍGOLS I ALINYÀ","COMARCA":"Alt Urgell","CONCA":"Ebre EL SEGRE Riu de Lavansa","MASSA":"Cadí-Port del Comte","TIPUSUS":"Ambiental"}},{"type":"Feature","id":"AIGUA_FONTS.36112510","geometry":{"type":"MultiPoint","coordinates":[[370184.2,4671146.5]]},"geometry_name":"SHAPE","properties":{"OBJECTID":36112510,"CODIBDH":"25908-0008","NOM":"FONT D'ALINYÀ O FONT DE LLOBERA","TIPUS":"Font","MUNICIPI":"FÍGOLS I ALINYÀ","COMARCA":"Alt Urgell","CONCA":"Ebre SEGRE, EL ","MASSA":"Cadí-Port del Comte","TIPUSUS":"Ambiental"}},{"type":"Feature","id":"AIGUA_FONTS.36112509","geometry":{"type":"MultiPoint","coordinates":[[370184.2,4671146.5]]},"geometry_name":"SHAPE","properties":{"OBJECTID":36112509,"CODIBDH":"25908-0008","NOM":"FONT D'ALINYÀ O FONT DE LLOBERA","TIPUS":"Font","MUNICIPI":"FÍGOLS I ALINYÀ","COMARCA":"Alt Urgell","CONCA":"Ebre SEGRE, EL ","MASSA":"Cadí-Port del Comte","TIPUSUS":"Agropecuari"}},{"type":"Feature","id":"AIGUA_FONTS.36112508","geometry":{"type":"MultiPoint","coordinates":[[370184.2,4671146.5]]},"geometry_name":"SHAPE","properties":{"OBJECTID":36112508,"CODIBDH":"25908-0008","NOM":"FONT D'ALINYÀ O FONT DE LLOBERA","TIPUS":"Font","MUNICIPI":"FÍGOLS I ALINYÀ","COMARCA":"Alt Urgell","CONCA":"Ebre SEGRE, EL ","MASSA":"Cadí-Port del Comte","TIPUSUS":"Abastament"}},{"type":"Feature","id":"AIGUA_FONTS.36112519","geometry":{"type":"MultiPoint","coordinates":[[370206.47,4671046.25]]},"geometry_name":"SHAPE","properties":{"OBJECTID":36112519,"CODIBDH":"25908-0005","NOM":"FONT DE LLOBERA","TIPUS":"Font","MUNICIPI":"FÍGOLS I ALINYÀ","COMARCA":"Alt Urgell","CONCA":"Ebre SEGRE, EL ","MASSA":"Cadí-Port del Comte","TIPUSUS":"Abastament"}},{"type":"Feature","id":"AIGUA_FONTS.36112520","geometry":{"type":"MultiPoint","coordinates":[[370206.47,4671046.25]]},"geometry_name":"SHAPE","properties":{"OBJECTID":36112520,"CODIBDH":"25908-0005","NOM":"FONT DE LLOBERA","TIPUS":"Font","MUNICIPI":"FÍGOLS I ALINYÀ","COMARCA":"Alt Urgell","CONCA":"Ebre SEGRE, EL ","MASSA":"Cadí-Port del Comte","TIPUSUS":"Ambiental"}},{"type":"Feature","id":"AIGUA_FONTS.36113284","geometry":{"type":"MultiPoint","coordinates":[[365365,4675597]]},"geometry_name":"SHAPE","properties":{"OBJECTID":36113284,"CODIBDH":"25908-0025","NOM":"FONT BOSC BORRELL (VOLORIU)","TIPUS":"Font","MUNICIPI":"FÍGOLS I ALINYÀ","COMARCA":"Alt Urgell","CONCA":"Ebre SEGRE, EL ","MASSA":"Cadí-Port del Comte","TIPUSUS":"Abastament"}},{"type":"Feature","id":"AIGUA_FONTS.36112478","geometry":{"type":"MultiPoint","coordinates":[[365831.43,4667096.27]]},"geometry_name":"SHAPE","properties":{"OBJECTID":36112478,"CODIBDH":"25148-0018","NOM":"FONT DE LA FONDA","TIPUS":"Font","MUNICIPI":"ODÈN","COMARCA":"Solsonès","CONCA":"Ebre EL SEGRE Ribera Salada","MASSA":"Cadí-Port del Comte","TIPUSUS":"Ambiental"}},{"type":"Feature","id":"AIGUA_FONTS.36112786","geometry":{"type":"MultiPoint","coordinates":[[366314.43,4667151.27]]},"geometry_name":"SHAPE","properties":{"OBJECTID":36112786,"CODIBDH":"25148-0024","NOM":"FONT DE LA GORGA - CASA  AGUSTÍ","TIPUS":"Font","MUNICIPI":"ODÈN","COMARCA":"Solsonès","CONCA":"Ebre SEGRE, EL ","MASSA":"Cadí-Port del Comte","TIPUSUS":"Ambiental"}},{"type":"Feature","id":"AIGUA_FONTS.36112707","geometry":{"type":"MultiPoint","coordinates":[[366156.44,4667596.27]]},"geometry_name":"SHAPE","properties":{"OBJECTID":36112707,"CODIBDH":"25148-0017","NOM":"FONT DE LLINÀS","TIPUS":"Font","MUNICIPI":"ODÈN","COMARCA":"Solsonès","CONCA":"Ebre EL SEGRE Ribera Salada","MASSA":"Cadí-Port del Comte","TIPUSUS":"Ambiental"}}],"totalFeatures":30,"numberMatched":30,"numberReturned":30,"timeStamp":"2026-07-07T17:30:56.712Z","crs":{"type":"name","properties":{"name":"urn:ogc:def:crs:EPSG::25831"}}}