{"type":"FeatureCollection","features":[{"type":"Feature","id":"AIGUA_CONQUES_MASSES_RIUS.96","geometry":{"type":"MultiPolygon","coordinates":[[[[377773.9773,4670673.6895],[377773.9772,4670658.6895],[377788.9772,4670658.6894],[377788.9771,4670643.6893],[377803.9771,4670643.6892],[377803.977,4670628.6892],[377818.977,4670628.6891],[377818.9759,4670478.6889],[377833.9759,4670478.6887],[377833.9755,4670418.6887],[377848.9755,4670418.6885],[377848.9753,4670388.6885],[377863.9753,4670388.6884],[377863.9751,4670358.6883],[377878.9751,4670358.6882],[377878.975,4670343.6882],[377893.975,4670343.6881],[377893.9749,4670328.6881],[377908.9749,4670328.6879],[377908.9748,4670313.6879],[377923.9748,4670313.6878],[377923.9747,4670298.6878],[377938.9747,4670298.6877],[377938.9746,4670283.6876],[377953.9746,4670283.6875],[377953.9745,4670268.6875],[377968.9745,4670268.6874],[377968.9744,4670253.6874],[377983.9745,4670253.6873],[377983.9743,4670238.6872],[377998.9744,4670238.6871],[377998.9743,4670223.6871],[378013.9743,4670223.687],[378013.9742,4670208.687],[378058.9742,4670208.6866],[378058.9741,4670193.6866],[378073.9741,4670193.6865],[378073.974,4670178.6865],[378088.9741,4670178.6863],[378088.9739,4670163.6863],[378103.974,4670163.6862],[378103.9739,4670148.6862],[378118.9739,4670148.6861],[378118.9738,4670133.686],[378133.9738,4670133.6859],[378133.9737,4670118.6859],[378148.9737,4670118.6858],[378148.9736,4670103.6858],[378178.9736,4670103.6855],[378178.9735,4670088.6855],[378193.9735,4670088.6854],[378193.9734,4670073.6854],[378208.9734,4670073.6853],[378208.9733,4670058.6852],[378223.9734,4670058.6851],[378223.9732,4670043.6851],[378238.9733,4670043.685],[378238.9732,4670028.685],[378253.9732,4670028.6849],[378253.9731,4670013.6848],[378268.9731,4670013.6847],[378268.973,4669998.6847],[378283.973,4669998.6846],[378283.9729,4669983.6846],[378298.9729,4669983.6844],[378298.9728,4669968.6844],[378313.9728,4669968.6843],[378313.9727,4669953.6843],[378328.9727,4669953.6842],[378328.9726,4669938.6841],[378343.9726,4669938.684],[378343.9725,4669923.684],[378373.9726,4669923.6838],[378373.9725,4669908.6838],[378388.9725,4669908.6836],[378388.9719,4669833.6835],[378403.9719,4669833.6834],[378403.9718,4669818.6834],[378418.9718,4669818.6833],[378418.9716,4669788.6832],[378433.9716,4669788.6831],[378433.9714,4669758.6831],[378448.9714,4669758.683],[378448.9713,4669743.6829],[378463.9713,4669743.6828],[378463.9712,4669728.6828],[378478.9713,4669728.6827],[378478.9711,4669713.6827],[378463.9711,4669713.6828],[378463.9709,4669683.6827],[378448.9709,4669683.6828],[378448.9708,4669668.6828],[378433.9707,4669668.6829],[378433.9705,4669638.6829],[378418.9705,4669638.683],[378418.9704,4669623.683],[378403.9703,4669623.6831],[378403.9702,4669608.6831],[378388.9702,4669608.6832],[378388.9701,4669593.6832],[378388.97,4669578.6831],[378373.97,4669578.6832],[378373.9698,4669563.6832],[378358.9698,4669563.6833],[378358.9697,4669548.6833],[378343.9697,4669548.6834],[378343.9695,4669518.6834],[378328.9694,4669518.6835],[378328.9692,4669488.6834],[378313.9692,4669488.6836],[378313.969,4669458.6835],[378298.9689,4669458.6836],[378298.9686,4669413.6835],[378298.9685,4669398.6835],[378313.9685,4669398.6834],[378313.9684,4669383.6834],[378328.9684,4669383.6833],[378328.9683,4669368.6832],[378343.9683,4669368.6831],[378343.9682,4669353.6831],[378373.9683,4669353.6829],[378373.9681,4669338.6829],[378403.9682,4669338.6826],[378403.9681,4669323.6826],[378418.9681,4669323.6825],[378418.968,4669308.6825],[378433.968,4669308.6824],[378433.9679,4669293.6823],[378448.9679,4669293.6822],[378448.9673,4669218.6821],[378463.9674,4669218.682],[378463.9669,4669158.6819],[378478.9669,4669158.6818],[378478.9668,4669143.6818],[378493.9668,4669143.6816],[378493.9667,4669128.6816],[378523.9668,4669128.6814],[378523.9667,4669113.6814],[378538.9667,4669113.6813],[378538.9666,4669098.6812],[378553.9666,4669098.6811],[378553.9661,4669038.681],[378568.9662,4669038.6809],[378568.9659,4669008.6809],[378583.966,4669008.6808],[378583.9658,4668993.6807],[378598.9659,4668993.6806],[378598.9658,4668978.6806],[378613.9658,4668978.6805],[378613.9657,4668963.6805],[378673.9658,4668963.68],[378673.9656,4668948.68],[378718.9657,4668948.6796],[378718.9656,4668933.6796],[378748.9656,4668933.6794],[378748.9655,4668918.6794],[378778.9656,4668918.6791],[378778.9655,4668903.6791],[378793.9655,4668903.679],[378793.9654,4668888.679],[378823.9654,4668888.6788],[378823.9653,4668873.6787],[378838.9653,4668873.6786],[378838.9652,4668858.6786],[378928.9654,4668858.6779],[378928.9655,4668873.6779],[378943.9655,4668873.6778],[378943.9656,4668888.6779],[378958.9656,4668888.6777],[378958.9657,4668903.6778],[379003.9658,4668903.6774],[379003.9657,4668888.6774],[379018.9657,4668888.6773],[379018.9656,4668873.6773],[379048.9657,4668873.677],[379048.9655,4668858.677],[379063.9656,4668858.6769],[379063.9655,4668843.6769],[379093.9655,4668843.6766],[379093.9653,4668813.6766],[379108.9653,4668813.6765],[379108.9652,4668798.6765],[379123.9652,4668798.6764],[379123.9651,4668783.6763],[379138.9651,4668783.6762],[379138.9648,4668738.6761],[379153.9648,4668738.676],[379153.9639,4668618.6758],[379138.9639,4668618.676],[379138.9636,4668588.6759],[379123.9636,4668588.676],[379123.9635,4668573.676],[379108.9635,4668573.6761],[379108.9634,4668558.6761],[379093.9633,4668558.6762],[379093.9632,4668543.6762],[379063.9632,4668543.6764],[379063.9628,4668498.6763],[379048.9628,4668498.6765],[379048.962,4668393.6763],[379033.962,4668393.6764],[379033.9618,4668363.6764],[379018.9617,4668363.6765],[379018.9616,4668348.6765],[378973.9615,4668348.6768],[378973.9606,4668228.6766],[378958.9606,4668228.6767],[378958.9604,4668198.6767],[378928.9603,4668198.6769],[378928.9601,4668168.6769],[378913.9601,4668168.677],[378913.96,4668153.677],[378883.9599,4668153.6772],[378883.9596,4668108.6771],[378868.9596,4668108.6772],[378868.9591,4668048.6771],[378853.9591,4668048.6772],[378853.959,4668033.6772],[378838.9589,4668033.6773],[378838.9587,4668003.6773],[378853.9587,4668003.6772],[378853.9577,4667868.677],[378868.9577,4667868.6769],[378868.9576,4667853.6768],[378883.9576,4667853.6767],[378883.9568,4667748.6766],[378868.9568,4667748.6767],[378868.9567,4667733.6766],[378883.9567,4667733.6765],[378883.9565,4667703.6765],[378913.9565,4667703.6763],[378913.9563,4667673.6762],[378943.9564,4667673.676],[378943.9562,4667658.676],[378958.9563,4667658.6759],[378958.9562,4667643.6758],[378973.9562,4667643.6757],[378973.9561,4667628.6757],[379048.9562,4667628.6751],[379048.9561,4667613.6751],[379063.9561,4667613.675],[379063.956,4667598.675],[379078.956,4667598.6749],[379078.9559,4667583.6748],[379108.9559,4667583.6746],[379108.9558,4667568.6746],[379123.9558,4667568.6745],[379123.9557,4667553.6744],[379183.9558,4667553.674],[379183.9559,4667568.674],[379198.956,4667568.6739],[379198.9561,4667583.6739],[379333.9563,4667583.6729],[379348.9563,4667583.6728],[379348.9564,4667598.6728],[379378.9565,4667598.6726],[379378.9566,4667613.6726],[379393.9566,4667613.6725],[379393.9567,4667628.6725],[379423.9568,4667628.6723],[379423.9569,4667643.6723],[379453.9569,4667643.6721],[379453.9572,4667673.6721],[379468.9572,4667673.672],[379468.9573,4667688.672],[379498.9573,4667688.6718],[379498.9575,4667703.6718],[379513.9575,4667703.6717],[379513.9576,4667718.6717],[379528.9576,4667718.6716],[379528.9577,4667733.6717],[379558.9578,4667733.6714],[379558.9579,4667748.6714],[379573.9579,4667748.6713],[379573.958,4667763.6714],[379588.958,4667763.6712],[379588.9583,4667793.6713],[379603.9583,4667793.6712],[379603.9584,4667808.6712],[379618.9584,4667808.6711],[379618.9586,4667823.6711],[379633.9586,4667823.671],[379633.9588,4667853.671],[379648.9588,4667853.6709],[379648.9589,4667868.671],[379663.959,4667868.6708],[379663.9591,4667883.6709],[379678.9591,4667883.6707],[379678.9593,4667913.6708],[379693.9594,4667913.6707],[379693.9595,4667928.6707],[379708.9595,4667928.6706],[379708.9596,4667943.6706],[379723.9596,4667943.6705],[379723.9599,4667973.6705],[379738.9599,4667973.6704],[379738.96,4667988.6705],[379753.96,4667988.6703],[379753.9601,4668003.6704],[379768.9602,4668003.6702],[379768.9604,4668033.6703],[379783.9604,4668033.6702],[379783.9605,4668048.6702],[379798.9605,4668048.6701],[379798.9608,4668078.6701],[379813.9608,4668078.67],[379813.961,4668108.6701],[379828.961,4668108.67],[379828.9613,4668138.67],[379858.9613,4668138.6698],[379858.9615,4668168.6698],[379873.9616,4668168.6697],[379873.9617,4668183.6697],[379903.9617,4668183.6695],[379903.962,4668213.6696],[379933.962,4668213.6693],[379933.9621,4668228.6693],[379948.9621,4668228.6692],[379948.9623,4668243.6693],[379963.9623,4668243.6691],[379963.9624,4668258.6692],[379978.9624,4668258.6691],[379978.9625,4668273.6691],[379993.9626,4668273.669],[379993.9627,4668288.669],[380008.9627,4668288.6689],[380008.9628,4668303.6689],[380023.9628,4668303.6688],[380023.9627,4668288.6688],[380038.9627,4668288.6686],[380038.9626,4668273.6686],[380053.9626,4668273.6685],[380053.9625,4668258.6685],[380068.9626,4668258.6684],[380068.9624,4668243.6683],[380083.9625,4668243.6682],[380083.9624,4668228.6682],[380098.9624,4668228.6681],[380098.9623,4668213.6681],[380113.9623,4668213.668],[380113.9622,4668198.6679],[380128.9622,4668198.6678],[380128.9621,4668183.6678],[380143.9621,4668183.6677],[380143.962,4668168.6677],[380158.962,4668168.6676],[380158.9619,4668153.6675],[380173.9619,4668153.6674],[380173.9618,4668138.6674],[380233.9619,4668138.6669],[380233.962,4668153.667],[380248.962,4668153.6668],[380248.9622,4668168.6669],[380263.9622,4668168.6668],[380263.9623,4668183.6668],[380278.9623,4668183.6667],[380278.9624,4668198.6667],[380293.9625,4668198.6666],[380293.9626,4668213.6666],[380308.9626,4668213.6665],[380308.9627,4668228.6665],[380353.9628,4668228.6662],[380353.963,4668258.6662],[380368.963,4668258.6661],[380368.9631,4668273.6661],[380413.9632,4668273.6658],[380413.9633,4668288.6658],[380428.9633,4668288.6657],[380428.9635,4668303.6657],[380443.9635,4668303.6656],[380443.9636,4668318.6656],[380488.9637,4668318.6653],[380488.9639,4668348.6653],[380503.9639,4668348.6652],[380503.964,4668363.6652],[380533.9641,4668363.665],[380533.9643,4668393.6651],[380548.9643,4668393.6649],[380548.9644,4668408.665],[380578.9645,4668408.6647],[380578.9646,4668423.6648],[380593.9646,4668423.6647],[380593.9649,4668453.6647],[380728.9651,4668453.6637],[380728.9653,4668483.6637],[380758.9653,4668483.6635],[380758.9655,4668498.6635],[380788.9655,4668498.6633],[380788.9656,4668513.6633],[380803.9656,4668513.6632],[380803.9658,4668528.6632],[380863.9658,4668528.6628],[380863.966,4668543.6628],[380983.9661,4668543.6619],[380983.9664,4668573.6619],[380998.9664,4668573.6618],[380998.9663,4668558.6618],[381013.9663,4668558.6617],[381013.9662,4668543.6617],[381028.9662,4668543.6615],[381028.9661,4668528.6615],[381043.9661,4668528.6614],[381043.966,4668513.6614],[381058.966,4668513.6613],[381058.9659,4668498.6612],[381073.9659,4668498.6611],[381073.9655,4668438.661],[381088.9655,4668438.6609],[381088.9654,4668423.6609],[381103.9654,4668423.6608],[381103.9653,4668408.6608],[381118.9653,4668408.6607],[381118.9649,4668348.6606],[381133.9649,4668348.6604],[381133.9648,4668333.6604],[381148.9648,4668333.6603],[381148.9647,4668318.6603],[381163.9647,4668318.6602],[381163.9644,4668273.6601],[381178.9644,4668273.66],[381178.9643,4668258.66],[381193.9643,4668258.6599],[381193.9564,4667223.6583],[381208.9565,4667223.6581],[381208.9561,4667178.6581],[381223.9561,4667178.658],[381223.956,4667163.6579],[381238.956,4667163.6578],[381238.9557,4667118.6578],[381253.9557,4667118.6576],[381253.9556,4667103.6576],[381268.9556,4667103.6575],[381268.9554,4667073.6575],[381283.9554,4667073.6573],[381283.9553,4667058.6573],[381298.9553,4667058.6572],[381298.9552,4667043.6572],[381313.9552,4667043.6571],[381313.9551,4667028.657],[381328.9552,4667028.6569],[381328.9545,4666938.6568],[381343.9545,4666938.6567],[381343.9544,4666923.6567],[381358.9544,4666923.6565],[381358.9543,4666908.6565],[381373.9543,4666908.6564],[381373.9542,4666893.6564],[381388.9542,4666893.6563],[381388.9541,4666878.6562],[381403.9541,4666878.6561],[381403.954,4666863.6561],[381418.954,4666863.656],[381418.9539,4666848.656],[381433.954,4666848.6559],[381433.9538,4666833.6558],[381448.9539,4666833.6557],[381448.9537,4666818.6557],[381463.9538,4666818.6556],[381463.9537,4666803.6556],[381478.9537,4666803.6555],[381478.9536,4666788.6554],[381493.9536,4666788.6553],[381493.9531,4666728.6552],[381508.9532,4666728.6551],[381508.953,4666713.6551],[381523.9531,4666713.655],[381523.953,4666698.6549],[381538.953,4666698.6548],[381538.9527,4666668.6548],[381553.9528,4666668.6547],[381553.9527,4666653.6547],[381568.9527,4666653.6545],[381568.9526,4666638.6545],[381583.9526,4666638.6544],[381583.9524,4666608.6544],[381598.9524,4666608.6542],[381598.9522,4666578.6542],[381613.9522,4666578.6541],[381613.9521,4666563.6541],[381643.9521,4666563.6538],[381643.952,4666548.6538],[381658.952,4666548.6537],[381658.9519,4666533.6537],[381718.952,4666533.6532],[381718.9519,4666518.6532],[381823.952,4666518.6524],[381823.9519,4666503.6524],[381838.952,4666503.6523],[381838.9518,4666488.6522],[381853.9519,4666488.6521],[381853.9518,4666473.6521],[381868.9518,4666473.652],[381868.9517,4666458.652],[381883.9517,4666458.6519],[381883.9516,4666443.6518],[381898.9516,4666443.6517],[381898.9515,4666428.6517],[381943.9515,4666428.6514],[381943.9514,4666413.6513],[381958.9515,4666413.6512],[381958.9513,4666398.6512],[381973.9514,4666398.6511],[381973.9513,4666383.6511],[381988.9513,4666383.6509],[381988.9512,4666368.6509],[382003.9512,4666368.6508],[382003.9511,4666353.6508],[382018.9511,4666353.6507],[382018.951,4666338.6506],[382048.951,4666338.6504],[382048.9509,4666323.6504],[382078.951,4666323.6502],[382078.9508,4666308.6501],[382123.9509,4666308.6498],[382123.9508,4666293.6498],[382138.9508,4666293.6497],[382138.9507,4666278.6496],[382153.9507,4666278.6495],[382153.9506,4666263.6495],[382243.9508,4666263.6488],[382243.9506,4666248.6488],[382288.9507,4666248.6485],[382288.9508,4666263.6485],[382318.9509,4666263.6483],[382318.9508,4666248.6482],[382528.9511,4666248.6466],[382528.951,4666233.6466],[382543.951,4666233.6465],[382543.9509,4666218.6465],[382603.951,4666218.646],[382603.9509,4666203.646],[382618.9509,4666203.6459],[382618.9508,4666188.6459],[382633.9508,4666188.6458],[382633.9507,4666173.6457],[382693.9508,4666173.6453],[382693.9507,4666158.6453],[382708.9507,4666158.6451],[382708.9506,4666143.6451],[382723.9506,4666143.645],[382723.9505,4666128.645],[382738.9505,4666128.6449],[382738.9504,4666113.6448],[382828.9505,4666113.6442],[382828.9504,4666098.6441],[382858.9505,4666098.6439],[382858.9503,4666083.6439],[382903.9504,4666083.6435],[382903.9503,4666068.6435],[382948.9504,4666068.6432],[382948.9503,4666053.6432],[383008.9503,4666053.6427],[383008.9505,4666068.6427],[383038.9505,4666068.6425],[383038.9506,4666083.6425],[383053.9506,4666083.6424],[383053.9508,4666098.6424],[383098.9508,4666098.6421],[383098.9507,4666083.6421],[383143.9508,4666083.6417],[383143.9509,4666098.6417],[383218.951,4666098.6412],[383218.9509,4666083.6411],[383248.9509,4666083.6409],[383248.9508,4666068.6409],[383263.9509,4666068.6408],[383263.9507,4666053.6408],[383383.9509,4666053.6398],[383398.9509,4666053.6397],[383398.9508,4666038.6397],[383428.9509,4666038.6395],[383428.9508,4666023.6395],[383518.9509,4666023.6388],[383518.9508,4666008.6388],[383533.9508,4666008.6386],[383533.9506,4665978.6386],[383578.9507,4665978.6383],[383578.9509,4666008.6383],[383683.951,4666008.6375],[383683.9509,4665993.6375],[383713.951,4665993.6372],[383713.9509,4665978.6372],[383743.9509,4665978.637],[383743.9508,4665963.637],[383938.9511,4665963.6355],[383938.951,4665948.6355],[383953.951,4665948.6354],[383968.951,4665948.6352],[383968.9509,4665933.6352],[383998.951,4665933.635],[383998.9508,4665918.635],[384073.951,4665918.6344],[384073.9509,4665903.6344],[384088.9509,4665903.6343],[384088.951,4665918.6343],[384118.951,4665918.6341],[384118.9509,4665903.634],[384163.951,4665903.6337],[384163.9511,4665918.6337],[384193.9511,4665918.6335],[384193.951,4665903.6335],[384253.9511,4665903.633],[384253.9512,4665918.633],[384298.9513,4665918.6327],[384298.9514,4665933.6327],[384343.9515,4665933.6324],[384343.9514,4665918.6323],[384358.9514,4665918.6322],[384358.9515,4665933.6323],[384388.9516,4665933.632],[384388.9517,4665948.632],[384403.9517,4665948.6319],[384404.0603,4665958.4158],[384403.9518,4665963.632],[384418.9518,4665963.6318],[384418.952,4665978.6319],[384448.952,4665978.6316],[384448.9521,4665993.6317],[384478.9522,4665993.6314],[384478.952,4665978.6314],[384493.9521,4665978.6313],[384493.952,4665963.6313],[384508.952,4665963.6312],[384508.9519,4665948.6311],[384598.952,4665948.6305],[384598.9521,4665963.6305],[384613.9521,4665963.6304],[384613.9529,4666068.6305],[384613.9532,4666098.6306],[384628.9532,4666098.6305],[384628.9538,4666173.6306],[384643.9538,4666173.6305],[384643.9539,4666188.6305],[384658.9539,4666188.6304],[384658.9543,4666233.6304],[384673.9543,4666233.6303],[384673.9544,4666248.6304],[384733.9545,4666248.6299],[384733.9546,4666263.6299],[384748.9546,4666263.6298],[384748.9547,4666278.6298],[384763.9548,4666278.6297],[384763.9549,4666293.6297],[384778.9549,4666293.6296],[384778.955,4666308.6296],[384793.955,4666308.6295],[384793.9551,4666323.6296],[384808.9552,4666323.6294],[384808.9553,4666338.6295],[384823.9553,4666338.6294],[384823.9554,4666353.6294],[384838.9554,4666353.6293],[384838.9557,4666383.6293],[384883.9557,4666383.629],[384883.9559,4666398.629],[384913.9559,4666398.6288],[384913.956,4666413.6288],[385003.9562,4666413.6281],[385003.9563,4666428.6281],[385093.9564,4666428.6274],[385093.9565,4666443.6275],[385108.9565,4666443.6273],[385108.9567,4666458.6274],[385093.9566,4666458.6275],[385093.9569,4666488.6275],[385078.9568,4666488.6276],[385078.9571,4666518.6277],[385063.957,4666518.6278],[385063.9573,4666548.6279],[385048.9572,4666548.628],[385048.958,4666653.6281],[385063.9581,4666653.628],[385063.9586,4666728.6281],[385078.9587,4666728.628],[385078.9588,4666743.628],[385078.9589,4666758.6281],[385063.9589,4666758.6282],[385063.9591,4666788.6282],[385048.9591,4666788.6283],[385048.9594,4666833.6284],[385063.9594,4666833.6283],[385063.9596,4666848.6283],[385048.9595,4666848.6284],[385048.9608,4667013.6287],[385033.9608,4667013.6288],[385033.9609,4667028.6288],[384973.9608,4667028.6293],[384973.961,4667058.6293],[384958.961,4667058.6294],[384958.9611,4667073.6295],[384943.9611,4667073.6296],[384943.9612,4667088.6296],[384928.9612,4667088.6297],[384928.9615,4667133.6298],[384913.9615,4667133.6299],[384913.9622,4667223.63],[384898.9621,4667223.6301],[384898.9626,4667283.6302],[384883.9626,4667283.6304],[384883.9632,4667358.6305],[384868.9631,4667358.6306],[384868.9632,4667373.6306],[384868.9636,4667418.6307],[384853.9636,4667418.6308],[384853.9645,4667538.631],[384868.9645,4667538.6309],[384868.9647,4667568.6309],[384868.965,4667598.631],[384883.965,4667598.6308],[384883.9651,4667613.6309],[384898.9651,4667613.6308],[384898.9653,4667643.6308],[384913.9654,4667643.6307],[384913.9656,4667673.6307],[384928.9656,4667673.6306],[384928.9662,4667748.6307],[384943.9662,4667748.6306],[384943.968,4667988.631],[384958.9681,4667988.6309],[384958.9678,4667958.6308],[384973.9678,4667958.6307],[384973.9673,4667883.6306],[384988.9673,4667883.6305],[384988.9672,4667868.6305],[385003.9672,4667868.6303],[385003.9671,4667853.6303],[385033.9671,4667853.6301],[385033.967,4667838.6301],[385063.9671,4667838.6298],[385063.9668,4667808.6298],[385078.9669,4667808.6297],[385078.9666,4667778.6296],[385168.9668,4667778.629],[385168.9667,4667763.6289],[385303.9669,4667763.6279],[385303.967,4667778.6279],[385348.9671,4667778.6276],[385348.9669,4667763.6276],[385423.9671,4667763.627],[385423.9672,4667778.627],[385573.9674,4667778.6259],[385573.9673,4667763.6259],[385603.9673,4667763.6256],[385618.9674,4667763.6255],[385618.9675,4667778.6255],[385648.9675,4667778.6253],[385648.9677,4667808.6254],[385678.9678,4667808.6251],[385678.9679,4667823.6251],[385708.968,4667823.6249],[385708.9681,4667838.6249],[385783.9682,4667838.6244],[385783.9683,4667853.6244],[385828.9684,4667853.6241],[385828.9685,4667868.6241],[385843.9685,4667868.624],[385843.9687,4667898.624],[385858.9688,4667898.6239],[385858.9695,4668003.6241],[385873.9696,4668003.6239],[385873.9697,4668018.624],[385888.9697,4668018.6238],[385888.9698,4668033.6239],[385903.9698,4668033.6238],[385903.9704,4668108.6239],[385918.9704,4668108.6238],[385918.9707,4668138.6238],[385933.9707,4668138.6237],[385933.9709,4668168.6237],[385948.9709,4668168.6236],[385948.9711,4668183.6236],[385963.9711,4668183.6235],[385963.9712,4668198.6236],[385978.9712,4668198.6234],[385978.9713,4668213.6235],[385993.9714,4668213.6234],[385993.9715,4668228.6234],[386038.9715,4668228.623],[386038.9716,4668243.6231],[386068.9717,4668243.6228],[386068.9718,4668258.6229],[386098.9719,4668258.6226],[386098.972,4668273.6226],[386113.972,4668273.6225],[386113.9721,4668288.6226],[386128.9721,4668288.6224],[386128.9726,4668348.6225],[386143.9726,4668348.6224],[386143.9731,4668408.6225],[386158.9731,4668408.6224],[386158.9734,4668453.6225],[386143.9734,4668453.6226],[386143.9736,4668483.6226],[386158.9737,4668483.6225],[386158.9741,4668543.6226],[386173.9741,4668543.6225],[386173.9743,4668558.6225],[386188.9743,4668558.6224],[386188.9745,4668588.6224],[386203.9745,4668588.6223],[386203.9751,4668663.6224],[386218.9751,4668663.6223],[386218.9752,4668678.6224],[386233.9753,4668678.6222],[386233.9754,4668693.6223],[386263.9754,4668693.622],[386263.9755,4668708.6221],[386293.9756,4668708.6218],[386293.9757,4668723.6219],[386323.9757,4668723.6216],[386323.9758,4668738.6216],[386338.9759,4668738.6215],[386338.976,4668753.6216],[386353.976,4668753.6214],[386353.9761,4668768.6215],[386383.9762,4668768.6212],[386383.9763,4668783.6213],[386398.9763,4668783.6211],[386398.9764,4668798.6212],[386413.9764,4668798.6211],[386413.9767,4668828.6211],[386428.9767,4668828.621],[386428.9775,4668933.6211],[386503.9776,4668933.6206],[386503.9777,4668948.6206],[386578.9778,4668948.62],[386578.978,4668963.6201],[386593.978,4668963.6199],[386593.9782,4668993.62],[386608.9782,4668993.6199],[386608.9783,4669008.6199],[386623.9784,4669008.6198],[386623.9786,4669038.6198],[386638.9786,4669038.6197],[386638.9794,4669143.6199],[386653.9794,4669143.6198],[386653.9795,4669158.6198],[386668.9796,4669158.6197],[386668.9797,4669173.6197],[386683.9797,4669173.6196],[386683.9799,4669203.6196],[386698.98,4669203.6195],[386698.9801,4669218.6195],[386713.9801,4669218.6194],[386713.9804,4669263.6195],[386728.9805,4669263.6194],[386728.9807,4669293.6194],[386743.9807,4669293.6193],[386743.9809,4669323.6194],[386758.981,4669323.6192],[386758.9811,4669338.6193],[386773.9811,4669338.6192],[386773.9813,4669368.6192],[386818.9814,4669368.6189],[386818.9815,4669383.6189],[386833.9815,4669383.6188],[386833.9818,4669413.6188],[386818.9817,4669413.6189],[386818.982,4669443.619],[386803.9819,4669443.6191],[386803.982,4669458.6191],[386938.9823,4669458.6181],[386938.9821,4669443.6181],[386983.9822,4669443.6177],[386983.9821,4669428.6177],[387013.9821,4669428.6175],[387013.982,4669413.6175],[387028.982,4669413.6173],[387028.9819,4669398.6173],[387208.9822,4669398.6159],[387208.9821,4669383.6159],[387298.9822,4669383.6152],[387298.9821,4669368.6152],[387403.9823,4669368.6144],[387403.9822,4669353.6144],[387538.9824,4669353.6134],[387538.9823,4669338.6133],[387568.9823,4669338.6131],[387568.9822,4669323.6131],[387583.9822,4669323.613],[387583.9821,4669308.613],[387598.9821,4669308.6128],[387598.982,4669293.6128],[387613.982,4669293.6127],[387613.9819,4669278.6127],[387628.9819,4669278.6126],[387628.9821,4669293.6126],[387643.9821,4669293.6125],[387643.9822,4669308.6125],[387658.9822,4669308.6124],[387658.9823,4669323.6124],[387673.9824,4669323.6123],[387673.9825,4669338.6123],[387688.9825,4669338.6122],[387688.9826,4669353.6122],[387703.9826,4669353.6121],[387703.9827,4669368.6121],[387718.9828,4669368.612],[387718.9831,4669413.6121],[387748.9831,4669413.6119],[387748.9834,4669443.6119],[387778.9834,4669443.6117],[387778.9835,4669458.6117],[387793.9836,4669458.6116],[387793.9837,4669473.6116],[387808.9837,4669473.6115],[387808.9839,4669503.6116],[387823.9839,4669503.6114],[387823.9841,4669518.6115],[387853.9841,4669518.6112],[387853.9843,4669548.6113],[387883.9844,4669548.6111],[387883.9847,4669593.6111],[387898.9847,4669593.611],[387898.9849,4669608.611],[387913.9849,4669608.6109],[387913.985,4669623.6109],[387928.985,4669623.6108],[387928.9851,4669638.6109],[387943.9852,4669638.6107],[387943.9853,4669653.6108],[387958.9853,4669653.6106],[387958.9857,4669713.6107],[387973.9858,4669713.6106],[387973.9859,4669728.6107],[388018.9859,4669728.6103],[388018.9861,4669743.6103],[388033.9861,4669743.6102],[388033.9862,4669758.6102],[388048.9862,4669758.6101],[388048.9863,4669773.6102],[388063.9864,4669773.61],[388063.9869,4669848.6102],[388078.9869,4669848.61],[388078.9871,4669863.6101],[388093.9871,4669863.61],[388093.9872,4669878.61],[388108.9872,4669878.6099],[388108.9873,4669893.6099],[388123.9874,4669893.6098],[388123.9875,4669908.6098],[388123.9876,4669923.6098],[388138.9876,4669923.6097],[388138.9879,4669968.6098],[388153.988,4669968.6097],[388153.9882,4669998.6097],[388168.9882,4669998.6096],[388168.9884,4670028.6096],[388198.9885,4670028.6094],[388198.9886,4670043.6094],[388243.9887,4670043.6091],[388243.9888,4670058.6091],[388258.9888,4670058.609],[388258.9889,4670073.609],[388273.989,4670073.6089],[388273.9891,4670088.6089],[388288.9891,4670088.6088],[388288.9892,4670103.6089],[388303.9892,4670103.6087],[388303.9893,4670118.6088],[388318.9894,4670118.6086],[388318.9895,4670133.6087],[388333.9895,4670133.6086],[388333.9896,4670148.6086],[388363.9897,4670148.6084],[388363.9898,4670163.6084],[388378.9898,4670163.6083],[388378.99,4670193.6083],[388393.99,4670193.6082],[388393.9903,4670223.6082],[388423.9903,4670223.608],[388423.9907,4670268.6081],[388438.9907,4670268.608],[388438.9908,4670283.608],[388453.9908,4670283.6079],[388453.9909,4670298.6079],[388468.991,4670298.6078],[388468.9911,4670313.6078],[388483.9911,4670313.6077],[388483.9912,4670328.6077],[388498.9912,4670328.6076],[388498.9913,4670343.6076],[388513.9914,4670343.6075],[388513.9915,4670358.6075],[388528.9915,4670358.6074],[388528.9916,4670373.6075],[388543.9916,4670373.6073],[388543.9917,4670388.6074],[388558.9918,4670388.6072],[388558.9919,4670403.6073],[388573.9919,4670403.6072],[388573.9924,4670463.6073],[388573.9928,4670523.6073],[388558.9928,4670523.6075],[388558.9931,4670568.6075],[388573.9932,4670568.6074],[388573.9934,4670598.6075],[388573.9936,4670628.6075],[388558.9936,4670628.6076],[388558.9938,4670658.6077],[388543.9938,4670658.6078],[388543.9939,4670673.6078],[388528.9939,4670673.6079],[388528.9946,4670763.6081],[388513.9945,4670763.6082],[388513.9953,4670868.6083],[388498.9953,4670868.6085],[388498.9954,4670883.6085],[388483.9954,4670883.6086],[388483.9955,4670898.6086],[388468.9955,4670898.6087],[388468.9957,4670928.6088],[388453.9957,4670928.6089],[388453.9979,4671213.6093],[388438.9978,4671213.6095],[388438.998,4671228.6095],[388423.9979,4671228.6096],[388423.9982,4671258.6096],[388423.9983,4671273.6097],[388408.9983,4671273.6098],[388408.9985,4671303.6098],[388393.9985,4671303.6099],[388393.9986,4671318.61],[388378.9985,4671318.6101],[388363.9985,4671318.6102],[388363.9986,4671333.6102],[388363.9991,4671393.6103],[388363.9992,4671408.6103],[388348.9992,4671408.6104],[388333.9992,4671408.6106],[388333.9993,4671423.6106],[388318.9993,4671423.6107],[388318.9994,4671438.6107],[388288.9993,4671438.6109],[388288.9994,4671453.611],[388273.9994,4671453.6111],[388273.9995,4671468.6111],[388258.9995,4671468.6112],[388259,4671528.6113],[388243.9999,4671528.6114],[388244,4671543.6115],[388229,4671543.6116],[388229.0001,4671558.6116],[388199.0001,4671558.6118],[388199.0002,4671573.6118],[388169.0002,4671573.6121],[388169.0003,4671588.6121],[388139.0002,4671588.6123],[388139.0003,4671603.6123],[388124.0003,4671603.6125],[388124.0004,4671618.6125],[388109.0004,4671618.6126],[388109.0005,4671633.6126],[388094.0005,4671633.6127],[388094.0006,4671648.6128],[388079.0006,4671648.6129],[388079.0008,4671678.6129],[388064.0008,4671678.613],[388064.0009,4671693.6131],[388019.0008,4671693.6134],[388019.001,4671708.6134],[388019.0013,4671753.6135],[388004.0013,4671753.6136],[388004.0017,4671813.6137],[387989.0017,4671813.6138],[387989.0022,4671873.6139],[387974.0021,4671873.614],[387974.0027,4671948.6141],[387989.0027,4671948.614],[387989.0028,4671963.614],[388004.0029,4671963.6139],[388004.003,4671978.614],[388019.003,4671978.6138],[388019.0036,4672053.614],[388004.0035,4672053.6141],[388004.0037,4672068.6141],[388019.0037,4672068.614],[388019.0038,4672083.614],[388004.0038,4672083.6141],[388004.0041,4672128.6142],[388004.0051,4672263.6144],[387989.0051,4672263.6145],[387989.0052,4672278.6145],[387974.0052,4672278.6147],[387974.0053,4672293.6147],[387959.0053,4672293.6148],[387959.0054,4672308.6148],[387944.0054,4672308.6149],[387944.0055,4672323.615],[387929.0055,4672323.6151],[387929.0058,4672368.6151],[387914.0058,4672368.6153],[387914.006,4672398.6153],[387899.006,4672398.6154],[387899.0061,4672413.6154],[387884.0061,4672413.6155],[387884.0066,4672473.6156],[387869.0065,4672473.6158],[387869.0068,4672503.6158],[387854.0067,4672503.6159],[387854.0068,4672518.6159],[387824.0068,4672518.6162],[387824.0067,4672503.6161],[387794.0066,4672503.6164],[387794.0068,4672518.6164],[387764.0067,4672518.6166],[387764.0066,4672503.6166],[387734.0065,4672503.6168],[387734.0067,4672518.6169],[387674.0066,4672518.6173],[387674.0067,4672533.6173],[387659.0067,4672533.6174],[387659.0068,4672548.6175],[387644.0068,4672548.6176],[387644.0069,4672563.6176],[387629.0068,4672563.6177],[387629.007,4672578.6177],[387614.0069,4672578.6179],[387614.007,4672593.6179],[387584.007,4672593.6181],[387584.0071,4672608.6181],[387554.0071,4672608.6184],[387554.0072,4672623.6184],[387539.0072,4672623.6185],[387509.0071,4672623.6187],[387509.0072,4672638.6187],[387479.0072,4672638.619],[387449.0071,4672638.6192],[387449.0073,4672653.6192],[387419.0072,4672653.6195],[387419.0073,4672668.6195],[387389.0073,4672668.6197],[387389.0074,4672683.6197],[387344.0073,4672683.6201],[387329.0073,4672683.6202],[387329.0074,4672698.6202],[387239.0073,4672698.6209],[387239.0072,4672683.6209],[387194.0071,4672683.6212],[387194.0072,4672698.6212],[387164.0072,4672698.6215],[387164.0073,4672713.6215],[387044.0071,4672713.6224],[387044.007,4672698.6224],[386939.0068,4672698.6232],[386924.0068,4672698.6233],[386924.0069,4672713.6233],[386909.0069,4672713.6234],[386909.0068,4672698.6234],[386849.0067,4672698.6239],[386849.0066,4672683.6238],[386819.0065,4672683.6241],[386819.0064,4672668.624],[386804.0064,4672668.6241],[386789.0064,4672668.6243],[386789.0062,4672653.6242],[386774.0062,4672653.6244],[386774.0061,4672638.6243],[386744.0061,4672638.6246],[386744.0059,4672623.6245],[386699.0059,4672623.6249],[386699.006,4672638.6249],[386684.006,4672638.625],[386684.0058,4672623.625],[386654.0058,4672623.6252],[386639.0058,4672623.6253],[386639.0059,4672638.6254],[386564.0058,4672638.6259],[386564.0059,4672653.6259],[386474.0058,4672653.6266],[386459.0057,4672653.6267],[386459.0058,4672668.6268],[386444.0058,4672668.6269],[386444.0059,4672683.6269],[386414.0059,4672683.6271],[386414.006,4672698.6272],[386369.0059,4672698.6275],[386369.006,4672713.6275],[386324.006,4672713.6279],[386324.0061,4672728.6279],[386309.0061,4672728.628],[386309.0062,4672743.628],[386294.0062,4672743.6281],[386294.0063,4672758.6282],[386279.0062,4672758.6283],[386279.0067,4672818.6284],[386249.0067,4672818.6286],[386249.0068,4672833.6286],[386234.0067,4672833.6287],[386234.0069,4672848.6288],[386204.0068,4672848.629],[386204.0069,4672863.629],[386189.0069,4672863.6291],[386189.0072,4672908.6292],[386174.0072,4672908.6293],[386174.0082,4673043.6295],[386189.0083,4673043.6294],[386189.0087,4673103.6295],[386204.0087,4673103.6294],[386204.009,4673133.6294],[386219.009,4673133.6293],[386219.0091,4673148.6293],[386234.0091,4673148.6292],[386234.0097,4673223.6293],[386219.0097,4673223.6295],[386219.0098,4673238.6295],[386189.0098,4673238.6297],[386189.0099,4673253.6297],[386174.0098,4673253.6298],[386174.0101,4673283.6299],[386159.01,4673283.63],[386159.0102,4673298.63],[386144.0101,4673298.6301],[386144.0103,4673313.6302],[386129.0102,4673313.6303],[386129.0103,4673328.6303],[386114.0103,4673328.6304],[386114.0104,4673343.6304],[386099.0104,4673343.6305],[386099.0105,4673358.6306],[386084.0105,4673358.6307],[386084.0106,4673373.6307],[386069.0106,4673373.6308],[386069.0107,4673388.6308],[386054.0107,4673388.631],[386054.0108,4673403.631],[386054.0109,4673418.631],[386039.0109,4673418.6311],[386039.011,4673433.6311],[386024.011,4673433.6313],[386024.0111,4673448.6313],[386009.0111,4673448.6314],[385964.011,4673448.6317],[385934.011,4673448.632],[385934.0108,4673433.6319],[385904.0108,4673433.6322],[385904.0107,4673418.6321],[385844.0106,4673418.6326],[385844.0105,4673403.6326],[385799.0104,4673403.6329],[385799.0103,4673388.6329],[385724.0102,4673388.6335],[385724.0099,4673358.6334],[385709.0099,4673358.6335],[385709.0098,4673343.6335],[385694.0098,4673343.6336],[385694.0097,4673328.6336],[385679.0096,4673328.6337],[385679.0094,4673298.6337],[385664.0094,4673298.6338],[385664.0089,4673238.6337],[385649.0089,4673238.6338],[385649.0087,4673208.6338],[385634.0087,4673208.6339],[385634.0086,4673193.6338],[385619.0085,4673193.634],[385619.0083,4673163.6339],[385604.0083,4673163.634],[385604.0082,4673148.634],[385589.0081,4673148.6341],[385589.0079,4673118.6341],[385574.0079,4673118.6342],[385574.0073,4673043.6341],[385559.0073,4673043.6342],[385559.0072,4673028.6342],[385544.0072,4673028.6343],[385544.0073,4673043.6343],[385364.007,4673043.6357],[385364.0069,4673028.6356],[385334.0068,4673028.6359],[385334.007,4673043.6359],[385319.0069,4673043.636],[385319.007,4673058.636],[385169.0068,4673058.6372],[385169.0069,4673073.6372],[385109.0068,4673073.6377],[385109.0069,4673088.6377],[385019.0068,4673088.6384],[385019.0067,4673073.6383],[384989.0066,4673073.6386],[384974.0066,4673073.6387],[384974.0065,4673058.6387],[384929.0064,4673058.639],[384929.0063,4673043.639],[384809.0061,4673043.6399],[384809.006,4673028.6399],[384779.006,4673028.6401],[384779.0059,4673013.6401],[384734.0058,4673013.6404],[384734.0057,4672998.6404],[384719.0057,4672998.6405],[384719.0055,4672983.6405],[384704.0055,4672983.6406],[384704.0054,4672968.6406],[384674.0054,4672968.6408],[384674.0053,4672953.6408],[384644.0052,4672953.641],[384644.0051,4672938.641],[384584.005,4672938.6414],[384569.005,4672938.6415],[384569.0051,4672953.6416],[384539.005,4672953.6418],[384539.0052,4672968.6418],[384449.005,4672968.6425],[384449.0051,4672983.6425],[384434.0051,4672983.6426],[384434.005,4672968.6426],[384344.0049,4672968.6433],[384344.0047,4672953.6433],[384209.0045,4672953.6443],[384209.0046,4672968.6443],[384164.0046,4672968.6447],[384164.0047,4672983.6447],[384074.0046,4672983.6454],[384074.0047,4672998.6454],[384014.0046,4672998.6459],[384014.0047,4673013.6459],[383999.0047,4673013.646],[383999.0048,4673028.646],[383954.0047,4673028.6464],[383954.0048,4673043.6464],[383909.0048,4673043.6467],[383909.0049,4673058.6467],[383894.0048,4673058.6469],[383894.005,4673073.6469],[383879.0049,4673073.647],[383879.005,4673088.647],[383864.005,4673088.6471],[383864.0053,4673118.6472],[383849.0052,4673118.6473],[383849.0053,4673133.6473],[383834.0053,4673133.6474],[383834.0054,4673148.6475],[383819.0054,4673148.6476],[383819.0055,4673163.6476],[383804.0055,4673163.6477],[383804.0056,4673178.6477],[383789.0056,4673178.6478],[383789.0057,4673193.6479],[383774.0057,4673193.648],[383774.0059,4673223.648],[383744.0059,4673223.6483],[383744.006,4673238.6483],[383714.0059,4673238.6485],[383714.006,4673253.6485],[383699.006,4673253.6486],[383699.0059,4673238.6486],[383669.0059,4673238.6488],[383669.0057,4673223.6488],[383534.0055,4673223.6498],[383534.0056,4673238.6499],[383519.0056,4673238.65],[383519.0057,4673253.65],[383489.0057,4673253.6502],[383489.0058,4673268.6503],[383474.0058,4673268.6504],[383474.0059,4673283.6504],[383459.0059,4673283.6505],[383459.006,4673298.6505],[383429.0059,4673298.6508],[383414.0059,4673298.6509],[383414.0058,4673283.6509],[383399.0058,4673283.651],[383399.0057,4673268.6509],[383294.0055,4673268.6517],[383294.0056,4673283.6518],[383264.0056,4673283.652],[383264.0057,4673298.652],[383204.0056,4673298.6525],[383204.0057,4673313.6525],[383174.0057,4673313.6527],[383174.0058,4673328.6527],[383159.0057,4673328.6529],[383159.0059,4673343.6529],[383144.0058,4673343.653],[383144.006,4673358.653],[383114.0059,4673358.6532],[383114.006,4673373.6533],[383099.006,4673373.6534],[383099.0061,4673388.6534],[383084.0061,4673388.6535],[383084.0062,4673403.6535],[383069.0062,4673403.6537],[383069.0063,4673418.6537],[383039.0062,4673418.6539],[383039.0064,4673433.6539],[383024.0063,4673433.654],[383024.0064,4673448.6541],[383009.0064,4673448.6542],[383009.0065,4673463.6542],[382979.0065,4673463.6544],[382949.0064,4673463.6547],[382949.0063,4673448.6546],[382874.0062,4673448.6552],[382874.0061,4673433.6552],[382829.006,4673433.6555],[382829.0059,4673418.6555],[382799.0059,4673418.6557],[382799.0058,4673403.6557],[382784.0057,4673403.6558],[382784.0055,4673373.6558],[382754.0055,4673373.656],[382754.0054,4673358.656],[382739.0053,4673358.6561],[382739.0054,4673373.6561],[382724.0054,4673373.6562],[382724.0055,4673388.6563],[382709.0055,4673388.6564],[382709.0056,4673403.6564],[382679.0056,4673403.6566],[382679.0057,4673418.6566],[382649.0056,4673418.6569],[382649.0058,4673433.6569],[382604.0057,4673433.6572],[382604.0058,4673448.6573],[382589.0058,4673448.6574],[382589.0059,4673463.6574],[382559.0058,4673463.6576],[382559.006,4673478.6576],[382544.0059,4673478.6578],[382544.0061,4673493.6578],[382529.006,4673493.6579],[382529.0061,4673508.6579],[382499.0061,4673508.6581],[382499.0062,4673523.6582],[382454.0061,4673523.6585],[382454.0063,4673538.6585],[382394.0062,4673538.659],[382394.0063,4673553.659],[382349.0062,4673553.6593],[382349.0063,4673568.6594],[382319.0063,4673568.6596],[382319.0064,4673583.6596],[382289.0063,4673583.6598],[382289.0065,4673598.6599],[382259.0064,4673598.6601],[382259.0065,4673613.6601],[382244.0065,4673613.6602],[382244.0066,4673628.6603],[382199.0065,4673628.6606],[382199.0067,4673643.6606],[382139.0066,4673643.6611],[382139.0067,4673658.6611],[382124.0067,4673658.6612],[382124.0068,4673673.6612],[382094.0067,4673673.6615],[382094.0068,4673688.6615],[382034.0067,4673688.6619],[382034.0069,4673703.662],[382004.0068,4673703.6622],[382004.0069,4673718.6622],[381989.0069,4673718.6623],[381989.007,4673733.6624],[381974.007,4673733.6625],[381974.0071,4673748.6625],[381959.0071,4673748.6626],[381959.0072,4673763.6626],[381929.0072,4673763.6629],[381929.0073,4673778.6629],[381899.0072,4673778.6631],[381899.0073,4673793.6631],[381884.0073,4673793.6632],[381884.0074,4673808.6633],[381854.0074,4673808.6635],[381854.0075,4673823.6635],[381824.0074,4673823.6637],[381824.0076,4673838.6638],[381809.0075,4673838.6639],[381809.0077,4673853.6639],[381794.0076,4673853.664],[381794.0075,4673838.664],[381689.0074,4673838.6648],[381689.0072,4673823.6648],[381659.0072,4673823.665],[381659.0073,4673838.665],[381629.0073,4673838.6652],[381629.0071,4673823.6652],[381569.0071,4673823.6657],[381569.0072,4673838.6657],[381494.0071,4673838.6663],[381494.0072,4673853.6663],[381464.0071,4673853.6665],[381464.0072,4673868.6665],[381419.0072,4673868.6669],[381419.0073,4673883.6669],[381359.0072,4673883.6674],[381359.0073,4673898.6674],[381314.0072,4673898.6677],[381314.0073,4673913.6677],[381269.0073,4673913.6681],[381269.0074,4673928.6681],[381239.0073,4673928.6683],[381239.0075,4673943.6684],[381224.0074,4673943.6685],[381224.0075,4673958.6685],[381209.0075,4673958.6686],[381179.0075,4673958.6688],[381179.0076,4673973.6689],[381164.0076,4673973.669],[381164.0077,4673988.669],[381119.0076,4673988.6693],[381119.0077,4674003.6694],[381089.0077,4674003.6696],[381089.0078,4674018.6696],[381074.0078,4674018.6697],[381074.0079,4674033.6697],[380999.0078,4674033.6703],[380999.0079,4674048.6703],[380969.0078,4674048.6706],[380969.0079,4674063.6706],[380954.0079,4674063.6707],[380954.008,4674078.6707],[380909.008,4674078.6711],[380909.0079,4674063.671],[380849.0078,4674063.6715],[380849.0079,4674078.6715],[380714.0077,4674078.6725],[380714.0076,4674063.6725],[380624.0074,4674063.6732],[380624.0075,4674078.6732],[380609.0075,4674078.6733],[380609.0076,4674093.6734],[380564.0076,4674093.6737],[380564.0077,4674108.6737],[380549.0076,4674108.6738],[380549.0078,4674123.6739],[380534.0077,4674123.674],[380534.0078,4674138.674],[380519.0078,4674138.6741],[380519.0079,4674153.6741],[380489.0079,4674153.6744],[380489.0077,4674123.6743],[380474.0076,4674123.6744],[380474.0075,4674108.6744],[380444.0075,4674108.6746],[380444.0068,4674018.6745],[380429.0068,4674018.6746],[380429.0067,4674003.6746],[380399.0066,4674003.6748],[380399.0065,4673988.6748],[380354.0064,4673988.6751],[380354.0063,4673973.6751],[380204.0061,4673973.6762],[380204.006,4673958.6762],[380114.0058,4673958.6769],[380114.0059,4673973.6769],[380069.0059,4673973.6773],[380069.006,4673988.6773],[380009.0059,4673988.6777],[380009.0058,4673973.6777],[379919.0056,4673973.6784],[379919.0055,4673958.6784],[379904.0055,4673958.6785],[379844.0054,4673958.679],[379844.0053,4673943.6789],[379784.0052,4673943.6794],[379784.0051,4673928.6794],[379754.005,4673928.6796],[379754.0049,4673913.6796],[379739.0049,4673913.6797],[379724.0049,4673913.6798],[379724.0048,4673898.6798],[379694.0047,4673898.68],[379694.0046,4673883.68],[379679.0046,4673883.6801],[379679.0045,4673868.6801],[379649.0044,4673868.6803],[379649.0043,4673853.6803],[379634.0043,4673853.6804],[379634.0042,4673838.6804],[379619.0042,4673838.6805],[379619.004,4673823.6804],[379589.004,4673823.6807],[379589.0039,4673808.6807],[379559.0038,4673808.6809],[379559.0037,4673793.6809],[379544.0037,4673793.681],[379544.0036,4673778.6809],[379529.0036,4673778.6811],[379529.0035,4673763.681],[379499.0034,4673763.6813],[379499.0033,4673748.6812],[379469.0032,4673748.6815],[379469.0031,4673733.6814],[379439.0031,4673733.6817],[379439.003,4673718.6816],[379409.0029,4673718.6819],[379409.0028,4673703.6819],[379364.0027,4673703.6822],[379364.0026,4673688.6822],[379319.0026,4673688.6825],[379319.0027,4673703.6825],[379304.0026,4673703.6826],[379304.0028,4673718.6827],[379244.0027,4673718.6831],[379244.0026,4673703.6831],[379199.0025,4673703.6834],[379199.0026,4673718.6835],[379154.0025,4673718.6838],[379154.0026,4673733.6838],[379124.0026,4673733.6841],[379124.0025,4673718.684],[379049.0024,4673718.6846],[379049.0023,4673703.6846],[379019.0022,4673703.6848],[379019.0021,4673688.6848],[378989.002,4673688.685],[378989.0019,4673673.685],[378959.0019,4673673.6852],[378959.0018,4673658.6852],[378914.0017,4673658.6855],[378914.0016,4673643.6855],[378899.0016,4673643.6856],[378899.0015,4673628.6856],[378839.0014,4673628.6861],[378839.0015,4673643.6861],[378824.0014,4673643.6862],[378824.0013,4673628.6862],[378764.0012,4673628.6866],[378764.0011,4673613.6866],[378719.0011,4673613.6869],[378719.0009,4673598.6869],[378704.0009,4673598.687],[378704.0008,4673583.687],[378614.0007,4673583.6877],[378614.0006,4673568.6877],[378539.0004,4673568.6882],[378539.0003,4673553.6882],[378509.0003,4673553.6884],[378509.0002,4673538.6884],[378464.0001,4673538.6888],[378464,4673523.6887],[378449,4673523.6889],[378448.9998,4673508.6888],[378433.9998,4673508.6889],[378433.9973,4673178.6884],[378418.9973,4673178.6885],[378418.9971,4673148.6885],[378403.997,4673148.6886],[378403.9967,4673103.6885],[378388.9967,4673103.6887],[378388.9966,4673088.6886],[378373.9965,4673088.6887],[378373.9964,4673073.6887],[378343.9964,4673073.6889],[378343.9963,4673058.6889],[378328.9962,4673058.689],[378328.996,4673028.689],[378313.996,4673028.6891],[378313.9959,4673013.6891],[378313.9957,4672983.689],[378328.9957,4672983.6889],[378328.9956,4672968.6889],[378328.9954,4672953.6889],[378418.9956,4672953.6882],[378418.9955,4672938.6882],[378448.9955,4672938.6879],[378448.9956,4672953.688],[378478.9957,4672953.6877],[378478.9945,4672803.6875],[378493.9946,4672803.6874],[378493.9942,4672758.6873],[378478.9942,4672758.6874],[378478.9917,4672428.6869],[378463.9917,4672428.687],[378463.9908,4672308.6868],[378448.9907,4672308.687],[378448.9894,4672128.6867],[378433.9894,4672128.6868],[378433.9892,4672113.6868],[378403.9892,4672113.687],[378403.9891,4672098.687],[378388.9891,4672098.6871],[378388.9889,4672083.6871],[378358.9889,4672083.6873],[378358.9888,4672068.6873],[378253.9886,4672068.6881],[378253.9885,4672053.688],[378223.9885,4672053.6883],[378223.9884,4672038.6882],[378208.9883,4672038.6884],[378208.9882,4672023.6883],[378148.9881,4672023.6888],[378148.9882,4672038.6888],[378133.9882,4672038.6889],[378133.9883,4672053.6889],[378103.9883,4672053.6892],[378103.9884,4672068.6892],[378088.9884,4672068.6893],[378088.9883,4672053.6893],[378058.9882,4672053.6895],[378058.9881,4672038.6895],[378043.9881,4672038.6896],[378043.988,4672023.6896],[378028.9879,4672023.6897],[378028.9878,4672008.6897],[378013.9878,4672008.6898],[378013.9877,4671993.6898],[377983.9876,4671993.69],[377983.9875,4671978.69],[377938.9875,4671978.6903],[377938.9873,4671963.6903],[377923.9873,4671963.6904],[377923.9872,4671948.6904],[377908.9872,4671948.6905],[377908.9871,4671933.6905],[377908.9867,4671888.6904],[377923.9867,4671888.6903],[377923.9866,4671873.6903],[377938.9867,4671873.6901],[377938.9863,4671828.6901],[377953.9863,4671828.69],[377953.9858,4671753.6898],[377968.9858,4671753.6897],[377968.9853,4671693.6896],[377983.9854,4671693.6895],[377983.985,4671648.6894],[377998.985,4671648.6893],[377998.9847,4671603.6893],[378013.9847,4671603.6892],[378013.9845,4671573.6891],[378028.9845,4671573.689],[378028.9844,4671558.689],[378028.9843,4671543.6889],[378013.9843,4671543.6891],[378013.9842,4671528.689],[377998.9841,4671528.6891],[377998.9839,4671498.6891],[377953.9838,4671498.6894],[377953.9837,4671483.6894],[377923.9837,4671483.6896],[377923.9836,4671468.6896],[377908.9835,4671468.6897],[377908.9834,4671453.6897],[377893.9834,4671453.6898],[377893.9833,4671438.6898],[377878.9833,4671438.6899],[377878.9832,4671423.6899],[377863.9831,4671423.69],[377863.983,4671408.69],[377848.983,4671408.6901],[377848.9825,4671348.69],[377863.9826,4671348.6899],[377863.9825,4671333.6899],[377848.9824,4671333.69],[377848.9822,4671303.6899],[377848.9821,4671288.6899],[377863.9821,4671288.6898],[377863.982,4671273.6898],[377878.982,4671273.6897],[377878.9819,4671258.6896],[377893.9819,4671258.6895],[377893.9818,4671243.6895],[377908.9818,4671243.6894],[377908.9817,4671228.6894],[377923.9817,4671228.6892],[377923.9816,4671213.6892],[377938.9817,4671213.6891],[377938.9812,4671153.689],[377953.9812,4671153.6889],[377953.9809,4671108.6888],[377968.9809,4671108.6887],[377968.9807,4671078.6887],[377983.9807,4671078.6886],[377983.9804,4671033.6885],[377968.9803,4671033.6886],[377968.979,4670853.6883],[377953.979,4670853.6884],[377953.9788,4670838.6884],[377938.9788,4670838.6885],[377938.9785,4670793.6884],[377953.9785,4670793.6883],[377953.9784,4670778.6883],[377938.9784,4670778.6884],[377923.9783,4670778.6885],[377923.9785,4670793.6886],[377893.9784,4670793.6888],[377893.9783,4670778.6888],[377878.9783,4670778.6889],[377878.9782,4670763.6889],[377833.9781,4670763.6892],[377833.978,4670748.6892],[377818.9779,4670748.6893],[377818.9778,4670733.6893],[377803.9778,4670733.6894],[377803.9776,4670703.6893],[377788.9776,4670703.6894],[377788.9774,4670688.6894],[377773.9774,4670688.6895],[377773.9773,4670673.6895]]]]},"geometry_name":"SHAPE","properties":{"CODI_ACA":"1000470","CODI_PRIN":"El Llobregat","NOM_MASSA":"Capçalera del Cardener fins a la cua de l'embassament de la Llosa del Cavall","OBJECTID":96}}],"totalFeatures":1,"numberMatched":1,"numberReturned":1,"timeStamp":"2026-07-07T17:30:56.910Z","crs":{"type":"name","properties":{"name":"urn:ogc:def:crs:EPSG::25831"}}}