{
"type": "FeatureCollection",
"name": "incendis_historics_alinya_clip",
"crs": { "type": "name", "properties": { "name": "urn:ogc:def:crs:EPSG::25831" } },
"features": [
{ "type": "Feature", "properties": { "id": "VEGETACIO_INCENDIS.211918", "DATES_FOC": " - 27/02/00 -", "CREMAT": "2", "OBJECTID": 211918, "area_ha_dins_alinya": 13.634712264870084, "any_foc": 2000, "etiqueta_foc": "2000", "font": "Generalitat de Catalunya WFS VEGETACIO:VEGETACIO_INCENDIS" }, "geometry": { "type": "MultiPolygon", "coordinates": [ [ [ [ 373181.48499999998603, 4672626.227400000207126 ], [ 373186.428371827059891, 4672626.22736045345664 ], [ 373185.127642353880219, 4672621.007817122153938 ], [ 373182.601799901458435, 4672609.168535095639527 ], [ 373181.484825369960163, 4672604.398618056438863 ], [ 373181.48499999998603, 4672626.227400000207126 ] ] ], [ [ [ 372781.479999999981374, 4672051.229500000365078 ], [ 372781.4804, 4672101.229600000195205 ], [ 372806.4804, 4672101.229399999603629 ], [ 372806.4806, 4672126.229399999603629 ], [ 372781.4806, 4672126.229600000195205 ], [ 372781.480800000019372, 4672151.2297 ], [ 372706.480700000014622, 4672151.230200000107288 ], [ 372706.480900000024121, 4672176.2303 ], [ 372681.480800000019372, 4672176.230499999597669 ], [ 372681.481199999980163, 4672226.230499999597669 ], [ 372706.481199999980163, 4672226.2303 ], [ 372706.481399999989662, 4672251.230399999767542 ], [ 372731.4815, 4672251.230200000107288 ], [ 372731.4816, 4672276.230200000107288 ], [ 372781.4817, 4672276.229899999685585 ], [ 372781.481900000013411, 4672301.229899999685585 ], [ 372806.482000000018161, 4672301.2297 ], [ 372806.482100000022911, 4672326.2297 ], [ 372831.48220000002766, 4672326.229600000195205 ], [ 372831.482399999978952, 4672351.229600000195205 ], [ 372881.482399999978952, 4672351.2292 ], [ 372881.482599999988452, 4672376.229299999773502 ], [ 372931.4827, 4672376.228900000452995 ], [ 372931.4829, 4672401.228900000452995 ], [ 373006.483, 4672401.22829999960959 ], [ 373006.48320000001695, 4672426.228400000371039 ], [ 373056.4833000000217, 4672426.228000000119209 ], [ 373056.483499999972992, 4672451.228000000119209 ], [ 373081.483499999972992, 4672451.227900000289083 ], [ 373081.483699999982491, 4672476.227900000289083 ], [ 373131.483799999987241, 4672476.2275 ], [ 373131.484, 4672501.22759999986738 ], [ 373181.484, 4672501.22719999961555 ], [ 373181.4842, 4672526.22719999961555 ], [ 373206.48430000001099, 4672526.227 ], [ 373206.484500000020489, 4672551.227099999785423 ], [ 373181.484400000015739, 4672551.227300000376999 ], [ 373181.484620490518864, 4672578.788647529669106 ], [ 373202.819971963821445, 4672566.930054860189557 ], [ 373232.217747157905251, 4672552.849894306622446 ], [ 373259.889083054673392, 4672543.799200807698071 ], [ 373298.477393701847177, 4672535.551831969991326 ], [ 373306.484455170459114, 4672533.122565961442888 ], [ 373306.4842, 4672501.22620000038296 ], [ 373281.4842, 4672501.2264 ], [ 373281.484, 4672476.2264 ], [ 373256.484, 4672476.226599999703467 ], [ 373256.483799999987241, 4672451.22649999987334 ], [ 373281.483799999987241, 4672451.226300000213087 ], [ 373281.483599999977741, 4672426.226300000213087 ], [ 373256.483599999977741, 4672426.22649999987334 ], [ 373256.48340000002645, 4672401.2264 ], [ 373231.48340000002645, 4672401.226599999703467 ], [ 373231.48320000001695, 4672376.226599999703467 ], [ 373206.4831000000122, 4672376.226800000295043 ], [ 373206.482599999988452, 4672301.226700000464916 ], [ 373181.482499999983702, 4672301.22690000012517 ], [ 373181.48220000002766, 4672251.226800000295043 ], [ 373156.482100000022911, 4672251.227 ], [ 373156.481900000013411, 4672226.22690000012517 ], [ 373131.481900000013411, 4672226.227099999785423 ], [ 373131.481299999984913, 4672151.227 ], [ 373100.907400480122305, 4672151.227224208414555 ], [ 373088.272306488011964, 4672155.025873132050037 ], [ 373064.249304977187421, 4672160.346025830134749 ], [ 373043.932572006888222, 4672160.490105545148253 ], [ 373028.701273721701, 4672158.654319675639272 ], [ 373015.723924198478926, 4672153.556817542761564 ], [ 372999.856052187620662, 4672153.065443345345557 ], [ 372984.604231444187462, 4672154.673374769277871 ], [ 372977.951935547287576, 4672156.792664424516261 ], [ 372973.549118354450911, 4672159.982112704776227 ], [ 372961.878410760138649, 4672158.637611708603799 ], [ 372940.993674801953603, 4672159.347597665153444 ], [ 372921.04127722379053, 4672161.373694490641356 ], [ 372919.673305969627108, 4672145.070689643733203 ], [ 372916.784119438088965, 4672136.014862109906971 ], [ 372914.408394438913092, 4672127.949424402788281 ], [ 372911.418589040404186, 4672117.89576003048569 ], [ 372908.623978070332669, 4672109.504665005020797 ], [ 372905.412073466111906, 4672105.452937631867826 ], [ 372907.341720863711089, 4672102.530223734676838 ], [ 372907.688733824819792, 4672101.228592751547694 ], [ 372906.4806, 4672101.2286 ], [ 372906.480540126387496, 4672093.744396037422121 ], [ 372903.975516584527213, 4672089.928682227618992 ], [ 372897.51519930921495, 4672084.380563823506236 ], [ 372888.33797684230376, 4672079.32577836420387 ], [ 372882.893238515825942, 4672076.22878869716078 ], [ 372881.4804, 4672076.228799999691546 ], [ 372881.480393570906017, 4672075.425156651996076 ], [ 372877.738959556329064, 4672073.29701351840049 ], [ 372870.879770606290549, 4672068.533627137541771 ], [ 372866.67293854302261, 4672064.277730361558497 ], [ 372864.053034219192341, 4672060.99284285120666 ], [ 372863.624522652011365, 4672055.558014385402203 ], [ 372863.77895178104518, 4672051.228841609321535 ], [ 372781.479999999981374, 4672051.229500000365078 ] ] ] ] } },
{ "type": "Feature", "properties": { "id": "VEGETACIO_INCENDIS.212297", "DATES_FOC": "  - 01/08/12  -", "CREMAT": "2", "OBJECTID": 212297, "area_ha_dins_alinya": 3.8141914849349741, "any_foc": 2012, "etiqueta_foc": "2012", "font": "Generalitat de Catalunya WFS VEGETACIO:VEGETACIO_INCENDIS" }, "geometry": { "type": "Polygon", "coordinates": [ [ [ 370983.478400000021793, 4675000.228000000119209 ], [ 370943.53159999998752, 4675011.324699999764562 ], [ 370925.777300000016112, 4674989.1321 ], [ 370885.830399999977089, 4674986.913200000301003 ], [ 370872.5145, 4674949.185700000263751 ], [ 370852.541000000026543, 4674942.528 ], [ 370834.7867, 4674931.431800000369549 ], [ 370819.251800000027288, 4674922.5548 ], [ 370817.032400000025518, 4674909.239199999719858 ], [ 370783.743200000026263, 4674891.485299999825656 ], [ 370759.331400000024587, 4674913.6782 ], [ 370728.261899999983143, 4674951.406000000424683 ], [ 370728.2621, 4674984.69510000012815 ], [ 370739.358699999982491, 4675015.7648 ], [ 370714.946999999985565, 4675051.273299999535084 ], [ 370734.92070000001695, 4675075.685200000181794 ], [ 370723.8246, 4675111.193599999882281 ], [ 370737.140399999974761, 4675142.263299999758601 ], [ 370756.640933320450131, 4675154.938424790278077 ], [ 370773.390165821183473, 4675145.147412909194827 ], [ 370806.437703798874281, 4675128.323618514463305 ], [ 370840.284277886152267, 4675110.041348368860781 ], [ 370864.213184544059914, 4675095.717801946215332 ], [ 370903.071446179528721, 4675080.565028364770114 ], [ 370944.157444837444928, 4675060.817559571005404 ], [ 370969.612197037436999, 4675044.13383652921766 ], [ 370987.203304189315531, 4675035.369605948217213 ], [ 371005.129743680299725, 4675024.972054305486381 ], [ 370983.478400000021793, 4675000.228000000119209 ] ] ] } }
]
}
